{
  "type": "FeatureCollection",
  "features": [
    {
      "type": "Feature",
      "properties": {
        "zone": "CENTRO"
      },
      "geometry": {
        "type": "Polygon",
        "coordinates": [
          [
            [
              -99.3257,
              18.721
            ],
            [
              -99.0281,
              18.721
            ],
            [
              -99.0281,
              19.1233
            ],
            [
              -99.3257,
              19.1233
            ],
            [
              -99.3257,
              18.721
            ]
          ]
        ]
      }
    },
    {
      "type": "Feature",
      "properties": {
        "zone": "SUR"
      },
      "geometry": {
        "type": "Polygon",
        "coordinates": [
          [
            [
              -99.4938,
              18.3815
            ],
            [
              -98.9512,
              18.3815
            ],
            [
              -98.9512,
              18.8775
            ],
            [
              -99.4938,
              18.8775
            ],
            [
              -99.4938,
              18.3815
            ]
          ]
        ]
      }
    },
    {
      "type": "Feature",
      "properties": {
        "zone": "ORIENTE"
      },
      "geometry": {
        "type": "Polygon",
        "coordinates": [
          [
            [
              -99.1255,
              18.441
            ],
            [
              -98.665,
              18.441
            ],
            [
              -98.665,
              19.0516
            ],
            [
              -99.1255,
              19.0516
            ],
            [
              -99.1255,
              18.441
            ]
          ]
        ]
      }
    }
  ]
}
