{
  "type": "FeatureCollection",
  "features": [
    {
      "type": "Feature",
      "geometry": {
        "type": "LineString",
        "coordinates": [
          [
            -99.17937,
            18.93167,
            0
          ],
          [
            -99.17934,
            18.93154,
            0
          ],
          [
            -99.17931,
            18.93136,
            0
          ],
          [
            -99.1793,
            18.93127,
            0
          ],
          [
            -99.17926,
            18.931,
            0
          ],
          [
            -99.17923,
            18.93078,
            0
          ],
          [
            -99.17917,
            18.93029,
            0
          ],
          [
            -99.17861,
            18.93036,
            0
          ],
          [
            -99.17805,
            18.93042,
            0
          ],
          [
            -99.17785,
            18.93044,
            0
          ],
          [
            -99.17774,
            18.93045,
            0
          ],
          [
            -99.17768,
            18.93044,
            0
          ],
          [
            -99.17762,
            18.93044,
            0
          ],
          [
            -99.17749,
            18.93042,
            0
          ],
          [
            -99.17732,
            18.9304,
            0
          ],
          [
            -99.17722,
            18.93038,
            0
          ],
          [
            -99.17709,
            18.93038,
            0
          ],
          [
            -99.17698,
            18.93039,
            0
          ],
          [
            -99.17682,
            18.93046,
            0
          ],
          [
            -99.17667,
            18.93053,
            0
          ],
          [
            -99.17618,
            18.93077,
            0
          ],
          [
            -99.17585,
            18.93017,
            0
          ],
          [
            -99.17554,
            18.92958,
            0
          ],
          [
            -99.17537,
            18.92922,
            0
          ],
          [
            -99.17496,
            18.92942,
            0
          ],
          [
            -99.17455,
            18.92962,
            0
          ],
          [
            -99.17414,
            18.92892,
            0
          ],
          [
            -99.17377,
            18.92821,
            0
          ],
          [
            -99.1733,
            18.92736,
            0
          ],
          [
            -99.17291,
            18.92665,
            0
          ],
          [
            -99.17266,
            18.92617,
            0
          ],
          [
            -99.17257,
            18.92601,
            0
          ],
          [
            -99.1724,
            18.92569,
            0
          ],
          [
            -99.17232,
            18.92553,
            0
          ],
          [
            -99.17172,
            18.92439,
            0
          ],
          [
            -99.17161,
            18.92445,
            0
          ],
          [
            -99.17152,
            18.92411,
            0
          ],
          [
            -99.17142,
            18.92369,
            0
          ],
          [
            -99.1714,
            18.92362,
            0
          ],
          [
            -99.17139,
            18.92356,
            0
          ],
          [
            -99.17137,
            18.92352,
            0
          ],
          [
            -99.1712,
            18.92312,
            0
          ],
          [
            -99.17116,
            18.92304,
            0
          ],
          [
            -99.17113,
            18.92289,
            0
          ],
          [
            -99.1711,
            18.92278,
            0
          ],
          [
            -99.17096,
            18.9223,
            0
          ],
          [
            -99.17094,
            18.92222,
            0
          ],
          [
            -99.17131,
            18.92181,
            0
          ],
          [
            -99.17144,
            18.92167,
            0
          ],
          [
            -99.17164,
            18.92146,
            0
          ],
          [
            -99.17171,
            18.92138,
            0
          ],
          [
            -99.17179,
            18.92131,
            0
          ],
          [
            -99.17186,
            18.92126,
            0
          ],
          [
            -99.17193,
            18.92122,
            0
          ],
          [
            -99.17201,
            18.92117,
            0
          ],
          [
            -99.17215,
            18.92109,
            0
          ],
          [
            -99.17224,
            18.92103,
            0
          ],
          [
            -99.17234,
            18.92095,
            0
          ],
          [
            -99.17242,
            18.92088,
            0
          ],
          [
            -99.17298,
            18.92033,
            0
          ],
          [
            -99.17371,
            18.9196,
            0
          ],
          [
            -99.17412,
            18.9192,
            0
          ],
          [
            -99.17453,
            18.91879,
            0
          ],
          [
            -99.17524,
            18.91809,
            0
          ],
          [
            -99.17596,
            18.91736,
            0
          ],
          [
            -99.17632,
            18.91705,
            0
          ],
          [
            -99.17641,
            18.91703,
            0
          ],
          [
            -99.1764,
            18.91676,
            0
          ],
          [
            -99.1764,
            18.91658,
            0
          ],
          [
            -99.17641,
            18.9164,
            0
          ],
          [
            -99.17641,
            18.91635,
            0
          ],
          [
            -99.17643,
            18.91624,
            0
          ],
          [
            -99.17647,
            18.9161,
            0
          ],
          [
            -99.17651,
            18.91595,
            0
          ],
          [
            -99.17657,
            18.91578,
            0
          ],
          [
            -99.17664,
            18.91564,
            0
          ],
          [
            -99.17671,
            18.91552,
            0
          ],
          [
            -99.17678,
            18.91541,
            0
          ],
          [
            -99.17688,
            18.91529,
            0
          ],
          [
            -99.17697,
            18.91518,
            0
          ],
          [
            -99.17706,
            18.91508,
            0
          ],
          [
            -99.17719,
            18.91495,
            0
          ],
          [
            -99.17781,
            18.91436,
            0
          ],
          [
            -99.17811,
            18.91407,
            0
          ],
          [
            -99.17905,
            18.91318,
            0
          ],
          [
            -99.17981,
            18.91246,
            0
          ],
          [
            -99.18011,
            18.91218,
            0
          ],
          [
            -99.18036,
            18.91195,
            0
          ],
          [
            -99.18083,
            18.91151,
            0
          ],
          [
            -99.18095,
            18.91141,
            0
          ],
          [
            -99.181,
            18.91138,
            0
          ],
          [
            -99.18106,
            18.91137,
            0
          ],
          [
            -99.18111,
            18.91137,
            0
          ],
          [
            -99.18118,
            18.91138,
            0
          ],
          [
            -99.18129,
            18.91141,
            0
          ],
          [
            -99.18135,
            18.91151,
            0
          ],
          [
            -99.18158,
            18.9118,
            0
          ],
          [
            -99.18164,
            18.91187,
            0
          ],
          [
            -99.18198,
            18.91224,
            0
          ],
          [
            -99.18244,
            18.91273,
            0
          ],
          [
            -99.18273,
            18.91304,
            0
          ],
          [
            -99.1831,
            18.91342,
            0
          ],
          [
            -99.18344,
            18.91379,
            0
          ],
          [
            -99.1839,
            18.91429,
            0
          ],
          [
            -99.18423,
            18.91463,
            0
          ],
          [
            -99.18437,
            18.91476,
            0
          ],
          [
            -99.18452,
            18.91492,
            0
          ],
          [
            -99.18472,
            18.91512,
            0
          ],
          [
            -99.18496,
            18.91533,
            0
          ],
          [
            -99.18512,
            18.91547,
            0
          ],
          [
            -99.18571,
            18.916,
            0
          ],
          [
            -99.18593,
            18.91621,
            0
          ],
          [
            -99.18617,
            18.91643,
            0
          ],
          [
            -99.18637,
            18.91662,
            0
          ],
          [
            -99.18649,
            18.91672,
            0
          ],
          [
            -99.18658,
            18.9168,
            0
          ],
          [
            -99.18675,
            18.91696,
            0
          ],
          [
            -99.18704,
            18.91721,
            0
          ],
          [
            -99.1873,
            18.91746,
            0
          ],
          [
            -99.18757,
            18.9177,
            0
          ],
          [
            -99.18805,
            18.91811,
            0
          ],
          [
            -99.18821,
            18.91823,
            0
          ],
          [
            -99.18831,
            18.9183,
            0
          ],
          [
            -99.18838,
            18.91834,
            0
          ],
          [
            -99.18854,
            18.91841,
            0
          ],
          [
            -99.1886,
            18.91844,
            0
          ],
          [
            -99.18872,
            18.91849,
            0
          ],
          [
            -99.18896,
            18.91858,
            0
          ],
          [
            -99.18946,
            18.91874,
            0
          ],
          [
            -99.19093,
            18.91918,
            0
          ],
          [
            -99.19185,
            18.91946,
            0
          ],
          [
            -99.19229,
            18.9196,
            0
          ],
          [
            -99.19257,
            18.91968,
            0
          ],
          [
            -99.19346,
            18.91995,
            0
          ],
          [
            -99.19363,
            18.92,
            0
          ],
          [
            -99.19386,
            18.92004,
            0
          ],
          [
            -99.19397,
            18.92005,
            0
          ],
          [
            -99.19408,
            18.92005,
            0
          ],
          [
            -99.19422,
            18.92005,
            0
          ],
          [
            -99.19437,
            18.92002,
            0
          ],
          [
            -99.19451,
            18.91999,
            0
          ],
          [
            -99.19459,
            18.91997,
            0
          ],
          [
            -99.19477,
            18.91991,
            0
          ],
          [
            -99.1951,
            18.9198,
            0
          ],
          [
            -99.19532,
            18.91977,
            0
          ],
          [
            -99.19543,
            18.91976,
            0
          ],
          [
            -99.19558,
            18.91974,
            0
          ],
          [
            -99.19574,
            18.91973,
            0
          ],
          [
            -99.19586,
            18.91973,
            0
          ],
          [
            -99.19597,
            18.91974,
            0
          ],
          [
            -99.1961,
            18.91975,
            0
          ],
          [
            -99.19622,
            18.91977,
            0
          ],
          [
            -99.19636,
            18.91979,
            0
          ],
          [
            -99.19649,
            18.91981,
            0
          ],
          [
            -99.19689,
            18.91989,
            0
          ],
          [
            -99.19723,
            18.91996,
            0
          ],
          [
            -99.19725,
            18.91996,
            0
          ],
          [
            -99.19749,
            18.92001,
            0
          ],
          [
            -99.19771,
            18.92007,
            0
          ],
          [
            -99.19778,
            18.9201,
            0
          ],
          [
            -99.19786,
            18.92012,
            0
          ],
          [
            -99.19787,
            18.92012,
            0
          ],
          [
            -99.19794,
            18.92015,
            0
          ],
          [
            -99.19809,
            18.92021,
            0
          ],
          [
            -99.19826,
            18.92029,
            0
          ],
          [
            -99.19866,
            18.92046,
            0
          ],
          [
            -99.19869,
            18.92047,
            0
          ],
          [
            -99.19873,
            18.92049,
            0
          ],
          [
            -99.19924,
            18.9207,
            0
          ],
          [
            -99.1994,
            18.92076,
            0
          ],
          [
            -99.19943,
            18.92077,
            0
          ],
          [
            -99.19948,
            18.92079,
            0
          ],
          [
            -99.19952,
            18.9208,
            0
          ],
          [
            -99.19955,
            18.92081,
            0
          ],
          [
            -99.19956,
            18.92082,
            0
          ],
          [
            -99.1998,
            18.92089,
            0
          ],
          [
            -99.19988,
            18.92092,
            0
          ],
          [
            -99.20009,
            18.92096,
            0
          ],
          [
            -99.20018,
            18.92098,
            0
          ],
          [
            -99.20037,
            18.921,
            0
          ],
          [
            -99.20045,
            18.921,
            0
          ],
          [
            -99.20051,
            18.92101,
            0
          ],
          [
            -99.2006,
            18.92102,
            0
          ],
          [
            -99.20086,
            18.92103,
            0
          ],
          [
            -99.20125,
            18.92103,
            0
          ],
          [
            -99.20141,
            18.92103,
            0
          ],
          [
            -99.20144,
            18.92103,
            0
          ],
          [
            -99.20159,
            18.92102,
            0
          ],
          [
            -99.20198,
            18.921,
            0
          ],
          [
            -99.20221,
            18.92099,
            0
          ],
          [
            -99.20241,
            18.92099,
            0
          ],
          [
            -99.20263,
            18.921,
            0
          ],
          [
            -99.20277,
            18.92101,
            0
          ],
          [
            -99.20293,
            18.92103,
            0
          ],
          [
            -99.20317,
            18.92109,
            0
          ],
          [
            -99.20336,
            18.92113,
            0
          ],
          [
            -99.20369,
            18.92122,
            0
          ],
          [
            -99.20387,
            18.92126,
            0
          ],
          [
            -99.20411,
            18.92134,
            0
          ],
          [
            -99.2044,
            18.92148,
            0
          ],
          [
            -99.20445,
            18.92152,
            0
          ],
          [
            -99.2047,
            18.92162,
            0
          ],
          [
            -99.20476,
            18.92165,
            0
          ],
          [
            -99.20483,
            18.92167,
            0
          ],
          [
            -99.20491,
            18.92169,
            0
          ],
          [
            -99.205,
            18.92171,
            0
          ],
          [
            -99.2051,
            18.92171,
            0
          ],
          [
            -99.20522,
            18.9217,
            0
          ],
          [
            -99.20529,
            18.92169,
            0
          ],
          [
            -99.20569,
            18.92168,
            0
          ],
          [
            -99.20612,
            18.92166,
            0
          ],
          [
            -99.20625,
            18.92166,
            0
          ],
          [
            -99.20636,
            18.92167,
            0
          ],
          [
            -99.20656,
            18.92169,
            0
          ],
          [
            -99.2069,
            18.92174,
            0
          ],
          [
            -99.20705,
            18.92176,
            0
          ],
          [
            -99.20714,
            18.92178,
            0
          ],
          [
            -99.20724,
            18.92181,
            0
          ],
          [
            -99.20739,
            18.92186,
            0
          ],
          [
            -99.20762,
            18.92196,
            0
          ],
          [
            -99.20774,
            18.92203,
            0
          ],
          [
            -99.20785,
            18.9221,
            0
          ],
          [
            -99.20798,
            18.92221,
            0
          ],
          [
            -99.20814,
            18.92234,
            0
          ],
          [
            -99.20836,
            18.92252,
            0
          ],
          [
            -99.20861,
            18.92273,
            0
          ],
          [
            -99.20873,
            18.92282,
            0
          ],
          [
            -99.20887,
            18.9229,
            0
          ],
          [
            -99.20899,
            18.92296,
            0
          ],
          [
            -99.20905,
            18.92299,
            0
          ],
          [
            -99.20913,
            18.92302,
            0
          ],
          [
            -99.20925,
            18.92307,
            0
          ],
          [
            -99.20938,
            18.92312,
            0
          ],
          [
            -99.20972,
            18.92321,
            0
          ],
          [
            -99.20978,
            18.92323,
            0
          ],
          [
            -99.21013,
            18.92331,
            0
          ],
          [
            -99.21041,
            18.92334,
            0
          ],
          [
            -99.2108,
            18.92343,
            0
          ],
          [
            -99.21131,
            18.92357,
            0
          ],
          [
            -99.21157,
            18.92363,
            0
          ],
          [
            -99.2118,
            18.92368,
            0
          ],
          [
            -99.21211,
            18.92378,
            0
          ],
          [
            -99.21271,
            18.92392,
            0
          ],
          [
            -99.21318,
            18.92403,
            0
          ],
          [
            -99.21365,
            18.9241,
            0
          ],
          [
            -99.21399,
            18.92412,
            0
          ],
          [
            -99.2146,
            18.92413,
            0
          ],
          [
            -99.21462,
            18.92413,
            0
          ],
          [
            -99.21481,
            18.92413,
            0
          ],
          [
            -99.21499,
            18.92413,
            0
          ],
          [
            -99.2152,
            18.92413,
            0
          ],
          [
            -99.21592,
            18.92413,
            0
          ],
          [
            -99.21646,
            18.92413,
            0
          ],
          [
            -99.21656,
            18.92413,
            0
          ],
          [
            -99.21694,
            18.92414,
            0
          ],
          [
            -99.2176,
            18.92412,
            0
          ],
          [
            -99.21798,
            18.92411,
            0
          ],
          [
            -99.21861,
            18.9241,
            0
          ],
          [
            -99.21877,
            18.9241,
            0
          ],
          [
            -99.2201,
            18.92407,
            0
          ],
          [
            -99.22033,
            18.92408,
            0
          ],
          [
            -99.22076,
            18.92409,
            0
          ],
          [
            -99.22097,
            18.92411,
            0
          ],
          [
            -99.22106,
            18.92413,
            0
          ],
          [
            -99.22153,
            18.92425,
            0
          ],
          [
            -99.22163,
            18.92428,
            0
          ],
          [
            -99.22233,
            18.92444,
            0
          ],
          [
            -99.22251,
            18.92448,
            0
          ],
          [
            -99.22325,
            18.92465,
            0
          ],
          [
            -99.22338,
            18.92467,
            0
          ],
          [
            -99.22416,
            18.92485,
            0
          ],
          [
            -99.22492,
            18.92502,
            0
          ],
          [
            -99.22544,
            18.92514,
            0
          ],
          [
            -99.22584,
            18.92523,
            0
          ],
          [
            -99.22611,
            18.92529,
            0
          ],
          [
            -99.22732,
            18.92557,
            0
          ],
          [
            -99.22769,
            18.92566,
            0
          ],
          [
            -99.22774,
            18.92567,
            0
          ],
          [
            -99.22793,
            18.92572,
            0
          ],
          [
            -99.2281,
            18.92578,
            0
          ],
          [
            -99.22824,
            18.92584,
            0
          ],
          [
            -99.22842,
            18.92594,
            0
          ],
          [
            -99.22864,
            18.92608,
            0
          ],
          [
            -99.22874,
            18.92616,
            0
          ],
          [
            -99.22878,
            18.92619,
            0
          ],
          [
            -99.22888,
            18.92628,
            0
          ],
          [
            -99.22908,
            18.92649,
            0
          ],
          [
            -99.22925,
            18.92669,
            0
          ],
          [
            -99.22934,
            18.92681,
            0
          ],
          [
            -99.22943,
            18.92698,
            0
          ],
          [
            -99.22951,
            18.92712,
            0
          ],
          [
            -99.22963,
            18.92741,
            0
          ],
          [
            -99.22982,
            18.92787,
            0
          ],
          [
            -99.22984,
            18.92793,
            0
          ],
          [
            -99.23006,
            18.92848,
            0
          ],
          [
            -99.23025,
            18.92895,
            0
          ],
          [
            -99.23043,
            18.92935,
            0
          ],
          [
            -99.23047,
            18.92947,
            0
          ],
          [
            -99.23055,
            18.9297,
            0
          ],
          [
            -99.23058,
            18.92977,
            0
          ],
          [
            -99.23063,
            18.93004,
            0
          ],
          [
            -99.23069,
            18.93031,
            0
          ],
          [
            -99.23069,
            18.93038,
            0
          ],
          [
            -99.23071,
            18.93047,
            0
          ],
          [
            -99.23072,
            18.93059,
            0
          ],
          [
            -99.23073,
            18.93072,
            0
          ],
          [
            -99.23074,
            18.93082,
            0
          ],
          [
            -99.23076,
            18.93108,
            0
          ],
          [
            -99.23077,
            18.93117,
            0
          ],
          [
            -99.23072,
            18.93122,
            0
          ],
          [
            -99.23069,
            18.93126,
            0
          ],
          [
            -99.23067,
            18.93131,
            0
          ],
          [
            -99.23067,
            18.93133,
            0
          ],
          [
            -99.23064,
            18.93149,
            0
          ],
          [
            -99.23063,
            18.93157,
            0
          ],
          [
            -99.23061,
            18.93163,
            0
          ],
          [
            -99.23061,
            18.93164,
            0
          ],
          [
            -99.2306,
            18.93167,
            0
          ],
          [
            -99.23059,
            18.93168,
            0
          ],
          [
            -99.23055,
            18.93173,
            0
          ],
          [
            -99.23045,
            18.93182,
            0
          ],
          [
            -99.23036,
            18.93189,
            0
          ],
          [
            -99.2303,
            18.93196,
            0
          ],
          [
            -99.23023,
            18.93202,
            0
          ],
          [
            -99.23015,
            18.93201,
            0
          ],
          [
            -99.22992,
            18.93202,
            0
          ],
          [
            -99.22984,
            18.93203,
            0
          ],
          [
            -99.22979,
            18.93205,
            0
          ],
          [
            -99.22966,
            18.93207,
            0
          ],
          [
            -99.22933,
            18.93193,
            0
          ],
          [
            -99.22885,
            18.93171,
            0
          ],
          [
            -99.22876,
            18.93195,
            0
          ],
          [
            -99.22899,
            18.93208,
            0
          ],
          [
            -99.22934,
            18.93226,
            0
          ],
          [
            -99.22966,
            18.93207,
            0
          ],
          [
            -99.22979,
            18.93205,
            0
          ],
          [
            -99.22984,
            18.93203,
            0
          ],
          [
            -99.22992,
            18.93202,
            0
          ],
          [
            -99.23015,
            18.93201,
            0
          ],
          [
            -99.23023,
            18.93202,
            0
          ],
          [
            -99.23037,
            18.932,
            0
          ],
          [
            -99.23055,
            18.932,
            0
          ],
          [
            -99.23078,
            18.93201,
            0
          ],
          [
            -99.2309,
            18.93202,
            0
          ],
          [
            -99.23101,
            18.93202,
            0
          ],
          [
            -99.23131,
            18.93204,
            0
          ],
          [
            -99.23174,
            18.93207,
            0
          ],
          [
            -99.23177,
            18.93208,
            0
          ],
          [
            -99.23182,
            18.9321,
            0
          ],
          [
            -99.23196,
            18.9321,
            0
          ],
          [
            -99.23204,
            18.93209,
            0
          ],
          [
            -99.23228,
            18.93204,
            0
          ],
          [
            -99.23236,
            18.93204,
            0
          ],
          [
            -99.23255,
            18.93205,
            0
          ],
          [
            -99.23267,
            18.9319,
            0
          ],
          [
            -99.23273,
            18.93185,
            0
          ],
          [
            -99.2328,
            18.93181,
            0
          ],
          [
            -99.23286,
            18.93176,
            0
          ],
          [
            -99.23306,
            18.93162,
            0
          ],
          [
            -99.23316,
            18.93154,
            0
          ],
          [
            -99.23328,
            18.93149,
            0
          ],
          [
            -99.23341,
            18.93146,
            0
          ],
          [
            -99.23346,
            18.93145,
            0
          ],
          [
            -99.2335,
            18.93144,
            0
          ],
          [
            -99.23357,
            18.93144,
            0
          ],
          [
            -99.2336,
            18.93145,
            0
          ],
          [
            -99.23365,
            18.93146,
            0
          ],
          [
            -99.23368,
            18.93147,
            0
          ],
          [
            -99.23373,
            18.93149,
            0
          ],
          [
            -99.23375,
            18.9315,
            0
          ],
          [
            -99.23381,
            18.93155,
            0
          ],
          [
            -99.23385,
            18.93158,
            0
          ],
          [
            -99.23389,
            18.93162,
            0
          ],
          [
            -99.23394,
            18.93168,
            0
          ],
          [
            -99.23396,
            18.93173,
            0
          ],
          [
            -99.23409,
            18.93195,
            0
          ],
          [
            -99.23415,
            18.93207,
            0
          ],
          [
            -99.23417,
            18.9321,
            0
          ],
          [
            -99.23418,
            18.93211,
            0
          ],
          [
            -99.2342,
            18.93213,
            0
          ],
          [
            -99.23426,
            18.93217,
            0
          ],
          [
            -99.23432,
            18.9322,
            0
          ],
          [
            -99.23435,
            18.93221,
            0
          ],
          [
            -99.2344,
            18.93222,
            0
          ],
          [
            -99.23445,
            18.93223,
            0
          ],
          [
            -99.23456,
            18.93224,
            0
          ],
          [
            -99.23471,
            18.93221,
            0
          ],
          [
            -99.23477,
            18.93219,
            0
          ],
          [
            -99.23484,
            18.93216,
            0
          ],
          [
            -99.23496,
            18.93209,
            0
          ],
          [
            -99.23501,
            18.93204,
            0
          ],
          [
            -99.23504,
            18.932,
            0
          ],
          [
            -99.23507,
            18.93196,
            0
          ],
          [
            -99.23509,
            18.93192,
            0
          ],
          [
            -99.2351,
            18.93189,
            0
          ],
          [
            -99.2351,
            18.93185,
            0
          ],
          [
            -99.2351,
            18.93182,
            0
          ],
          [
            -99.23506,
            18.93135,
            0
          ],
          [
            -99.23502,
            18.93082,
            0
          ],
          [
            -99.23501,
            18.93064,
            0
          ],
          [
            -99.23502,
            18.93048,
            0
          ],
          [
            -99.23504,
            18.93027,
            0
          ],
          [
            -99.23508,
            18.93007,
            0
          ],
          [
            -99.23512,
            18.92986,
            0
          ],
          [
            -99.23513,
            18.92976,
            0
          ],
          [
            -99.23513,
            18.92972,
            0
          ],
          [
            -99.23513,
            18.92968,
            0
          ],
          [
            -99.23513,
            18.92958,
            0
          ],
          [
            -99.23512,
            18.92949,
            0
          ],
          [
            -99.23506,
            18.9291,
            0
          ],
          [
            -99.23504,
            18.92901,
            0
          ],
          [
            -99.23504,
            18.92891,
            0
          ],
          [
            -99.23505,
            18.92884,
            0
          ],
          [
            -99.23506,
            18.92879,
            0
          ],
          [
            -99.23508,
            18.92874,
            0
          ],
          [
            -99.23513,
            18.92866,
            0
          ],
          [
            -99.23515,
            18.92864,
            0
          ],
          [
            -99.23521,
            18.92859,
            0
          ],
          [
            -99.2353,
            18.92856,
            0
          ],
          [
            -99.23537,
            18.92854,
            0
          ],
          [
            -99.23543,
            18.92854,
            0
          ],
          [
            -99.2355,
            18.92851,
            0
          ],
          [
            -99.23555,
            18.92853,
            0
          ],
          [
            -99.23558,
            18.92855,
            0
          ],
          [
            -99.23562,
            18.92858,
            0
          ],
          [
            -99.23568,
            18.92863,
            0
          ],
          [
            -99.23574,
            18.92869,
            0
          ],
          [
            -99.23578,
            18.92874,
            0
          ],
          [
            -99.23606,
            18.92912,
            0
          ],
          [
            -99.23612,
            18.9292,
            0
          ],
          [
            -99.23626,
            18.92933,
            0
          ],
          [
            -99.23648,
            18.9295,
            0
          ],
          [
            -99.23655,
            18.92956,
            0
          ],
          [
            -99.23679,
            18.92971,
            0
          ],
          [
            -99.23711,
            18.9299,
            0
          ],
          [
            -99.23716,
            18.92991,
            0
          ],
          [
            -99.23722,
            18.92991,
            0
          ],
          [
            -99.2373,
            18.92991,
            0
          ],
          [
            -99.23737,
            18.92989,
            0
          ],
          [
            -99.23754,
            18.92997,
            0
          ],
          [
            -99.23767,
            18.92983,
            0
          ],
          [
            -99.23768,
            18.9298,
            0
          ],
          [
            -99.23769,
            18.92977,
            0
          ],
          [
            -99.23773,
            18.92964,
            0
          ],
          [
            -99.23785,
            18.92946,
            0
          ],
          [
            -99.23784,
            18.92936,
            0
          ],
          [
            -99.23783,
            18.92932,
            0
          ],
          [
            -99.23782,
            18.92927,
            0
          ],
          [
            -99.2378,
            18.92923,
            0
          ],
          [
            -99.23777,
            18.92921,
            0
          ],
          [
            -99.23749,
            18.92898,
            0
          ],
          [
            -99.23744,
            18.92893,
            0
          ],
          [
            -99.23741,
            18.9289,
            0
          ],
          [
            -99.23739,
            18.92887,
            0
          ],
          [
            -99.23738,
            18.92881,
            0
          ],
          [
            -99.23737,
            18.9287,
            0
          ],
          [
            -99.23732,
            18.92802,
            0
          ],
          [
            -99.23729,
            18.92748,
            0
          ],
          [
            -99.23724,
            18.92697,
            0
          ],
          [
            -99.23722,
            18.92694,
            0
          ],
          [
            -99.2372,
            18.92692,
            0
          ],
          [
            -99.23693,
            18.92667,
            0
          ],
          [
            -99.23635,
            18.92615,
            0
          ],
          [
            -99.23625,
            18.92604,
            0
          ],
          [
            -99.23606,
            18.92586,
            0
          ],
          [
            -99.236,
            18.92566,
            0
          ],
          [
            -99.23585,
            18.92511,
            0
          ],
          [
            -99.23574,
            18.92468,
            0
          ],
          [
            -99.23567,
            18.92422,
            0
          ],
          [
            -99.23566,
            18.92416,
            0
          ],
          [
            -99.23557,
            18.92384,
            0
          ],
          [
            -99.23547,
            18.92341,
            0
          ],
          [
            -99.23545,
            18.92328,
            0
          ],
          [
            -99.2354,
            18.92307,
            0
          ],
          [
            -99.23531,
            18.92274,
            0
          ],
          [
            -99.23531,
            18.92273,
            0
          ],
          [
            -99.23531,
            18.92271,
            0
          ],
          [
            -99.23531,
            18.92268,
            0
          ],
          [
            -99.23534,
            18.9226,
            0
          ],
          [
            -99.23532,
            18.92258,
            0
          ],
          [
            -99.23526,
            18.92212,
            0
          ],
          [
            -99.23525,
            18.92203,
            0
          ],
          [
            -99.23516,
            18.92138,
            0
          ],
          [
            -99.23512,
            18.92113,
            0
          ],
          [
            -99.2351,
            18.92083,
            0
          ],
          [
            -99.23509,
            18.92033,
            0
          ],
          [
            -99.23508,
            18.91889,
            0
          ],
          [
            -99.23511,
            18.91889,
            0
          ],
          [
            -99.2351,
            18.91827,
            0
          ],
          [
            -99.2351,
            18.91809,
            0
          ],
          [
            -99.23509,
            18.91755,
            0
          ],
          [
            -99.23508,
            18.91732,
            0
          ],
          [
            -99.23508,
            18.91712,
            0
          ],
          [
            -99.23506,
            18.91655,
            0
          ],
          [
            -99.23504,
            18.9158,
            0
          ],
          [
            -99.23504,
            18.91577,
            0
          ],
          [
            -99.23496,
            18.91496,
            0
          ],
          [
            -99.23494,
            18.91472,
            0
          ],
          [
            -99.23488,
            18.91425,
            0
          ],
          [
            -99.23468,
            18.91353,
            0
          ],
          [
            -99.2346,
            18.91332,
            0
          ],
          [
            -99.23449,
            18.91311,
            0
          ],
          [
            -99.23434,
            18.9129,
            0
          ],
          [
            -99.23394,
            18.91223,
            0
          ],
          [
            -99.23381,
            18.912,
            0
          ],
          [
            -99.23356,
            18.91152,
            0
          ],
          [
            -99.23335,
            18.91105,
            0
          ],
          [
            -99.23313,
            18.91054,
            0
          ],
          [
            -99.23296,
            18.91009,
            0
          ],
          [
            -99.2329,
            18.90993,
            0
          ]
        ]
      },
      "properties": {
        "name": "OTILIO MONTAÑO - CENTRO",
        "styleUrl": "#line-673AB7-5000-nodesc",
        "stroke-opacity": 1,
        "stroke": "#673ab7",
        "stroke-width": 5
      }
    },
    {
      "type": "Feature",
      "geometry": {
        "type": "LineString",
        "coordinates": [
          [
            -99.23289,
            18.90991,
            0
          ],
          [
            -99.23284,
            18.90976,
            0
          ],
          [
            -99.23324,
            18.90958,
            0
          ],
          [
            -99.23356,
            18.90944,
            0
          ],
          [
            -99.23371,
            18.90971,
            0
          ],
          [
            -99.23385,
            18.90996,
            0
          ],
          [
            -99.23399,
            18.9102,
            0
          ],
          [
            -99.23402,
            18.91025,
            0
          ],
          [
            -99.23412,
            18.91042,
            0
          ],
          [
            -99.23418,
            18.91053,
            0
          ],
          [
            -99.23458,
            18.91121,
            0
          ],
          [
            -99.23511,
            18.91213,
            0
          ],
          [
            -99.23561,
            18.91299,
            0
          ],
          [
            -99.23593,
            18.91376,
            0
          ],
          [
            -99.23613,
            18.91422,
            0
          ],
          [
            -99.2365,
            18.91495,
            0
          ],
          [
            -99.23684,
            18.91568,
            0
          ],
          [
            -99.23701,
            18.91604,
            0
          ],
          [
            -99.23705,
            18.91626,
            0
          ],
          [
            -99.23709,
            18.91654,
            0
          ],
          [
            -99.2371,
            18.91656,
            0
          ],
          [
            -99.23712,
            18.91707,
            0
          ],
          [
            -99.23715,
            18.91724,
            0
          ],
          [
            -99.23722,
            18.91801,
            0
          ],
          [
            -99.23727,
            18.91875,
            0
          ],
          [
            -99.23727,
            18.91886,
            0
          ],
          [
            -99.23738,
            18.9196,
            0
          ],
          [
            -99.2374,
            18.91987,
            0
          ],
          [
            -99.23747,
            18.92059,
            0
          ],
          [
            -99.23755,
            18.92114,
            0
          ],
          [
            -99.2377,
            18.92204,
            0
          ],
          [
            -99.23778,
            18.9226,
            0
          ],
          [
            -99.23787,
            18.92328,
            0
          ],
          [
            -99.2379,
            18.92352,
            0
          ],
          [
            -99.23794,
            18.92386,
            0
          ],
          [
            -99.23801,
            18.92446,
            0
          ],
          [
            -99.23794,
            18.92444,
            0
          ],
          [
            -99.23789,
            18.92443,
            0
          ],
          [
            -99.23782,
            18.92443,
            0
          ],
          [
            -99.2376,
            18.92446,
            0
          ],
          [
            -99.23733,
            18.92447,
            0
          ],
          [
            -99.23696,
            18.9245,
            0
          ],
          [
            -99.23661,
            18.92454,
            0
          ],
          [
            -99.23624,
            18.9246,
            0
          ],
          [
            -99.23574,
            18.92468,
            0
          ],
          [
            -99.23528,
            18.92472,
            0
          ],
          [
            -99.2352,
            18.92472,
            0
          ],
          [
            -99.23523,
            18.92478,
            0
          ],
          [
            -99.23528,
            18.92497,
            0
          ],
          [
            -99.23532,
            18.92515,
            0
          ],
          [
            -99.23537,
            18.92537,
            0
          ],
          [
            -99.23538,
            18.92539,
            0
          ],
          [
            -99.23546,
            18.92569,
            0
          ],
          [
            -99.23552,
            18.92596,
            0
          ],
          [
            -99.23558,
            18.92618,
            0
          ],
          [
            -99.23564,
            18.92635,
            0
          ],
          [
            -99.23567,
            18.9264,
            0
          ],
          [
            -99.23569,
            18.92645,
            0
          ],
          [
            -99.23579,
            18.92663,
            0
          ],
          [
            -99.23592,
            18.92685,
            0
          ],
          [
            -99.23596,
            18.92693,
            0
          ],
          [
            -99.23611,
            18.92715,
            0
          ],
          [
            -99.23631,
            18.92748,
            0
          ],
          [
            -99.23633,
            18.92751,
            0
          ],
          [
            -99.23638,
            18.92763,
            0
          ],
          [
            -99.23639,
            18.92763,
            0
          ],
          [
            -99.23644,
            18.92776,
            0
          ],
          [
            -99.2365,
            18.9279,
            0
          ],
          [
            -99.23651,
            18.92794,
            0
          ],
          [
            -99.23651,
            18.92798,
            0
          ],
          [
            -99.23651,
            18.92803,
            0
          ],
          [
            -99.2365,
            18.92809,
            0
          ],
          [
            -99.23649,
            18.92815,
            0
          ],
          [
            -99.23647,
            18.92818,
            0
          ],
          [
            -99.23646,
            18.9282,
            0
          ],
          [
            -99.23644,
            18.92822,
            0
          ],
          [
            -99.2364,
            18.92825,
            0
          ],
          [
            -99.23635,
            18.92826,
            0
          ],
          [
            -99.23632,
            18.92827,
            0
          ],
          [
            -99.23628,
            18.92828,
            0
          ],
          [
            -99.23624,
            18.92829,
            0
          ],
          [
            -99.23618,
            18.92829,
            0
          ],
          [
            -99.23613,
            18.92828,
            0
          ],
          [
            -99.23611,
            18.92827,
            0
          ],
          [
            -99.23609,
            18.92825,
            0
          ],
          [
            -99.23607,
            18.92823,
            0
          ],
          [
            -99.23591,
            18.92799,
            0
          ],
          [
            -99.23586,
            18.92794,
            0
          ],
          [
            -99.23579,
            18.9279,
            0
          ],
          [
            -99.23571,
            18.92785,
            0
          ],
          [
            -99.23567,
            18.92784,
            0
          ],
          [
            -99.23563,
            18.92783,
            0
          ],
          [
            -99.23558,
            18.92783,
            0
          ],
          [
            -99.23555,
            18.92784,
            0
          ],
          [
            -99.23552,
            18.92785,
            0
          ],
          [
            -99.23547,
            18.92787,
            0
          ],
          [
            -99.23527,
            18.92798,
            0
          ],
          [
            -99.23519,
            18.92804,
            0
          ],
          [
            -99.23496,
            18.92818,
            0
          ],
          [
            -99.23471,
            18.92832,
            0
          ],
          [
            -99.23464,
            18.92838,
            0
          ],
          [
            -99.23459,
            18.92843,
            0
          ],
          [
            -99.23456,
            18.92847,
            0
          ],
          [
            -99.23454,
            18.92851,
            0
          ],
          [
            -99.23453,
            18.92854,
            0
          ],
          [
            -99.23435,
            18.9291,
            0
          ],
          [
            -99.2343,
            18.92933,
            0
          ],
          [
            -99.23428,
            18.92945,
            0
          ],
          [
            -99.23425,
            18.92991,
            0
          ],
          [
            -99.23422,
            18.93006,
            0
          ],
          [
            -99.23421,
            18.9301,
            0
          ],
          [
            -99.2342,
            18.93014,
            0
          ],
          [
            -99.23416,
            18.9302,
            0
          ],
          [
            -99.23412,
            18.93027,
            0
          ],
          [
            -99.23405,
            18.93039,
            0
          ],
          [
            -99.23306,
            18.93073,
            0
          ],
          [
            -99.23298,
            18.93076,
            0
          ],
          [
            -99.23294,
            18.93078,
            0
          ],
          [
            -99.23284,
            18.93081,
            0
          ],
          [
            -99.23196,
            18.93116,
            0
          ],
          [
            -99.23195,
            18.93115,
            0
          ],
          [
            -99.23194,
            18.93115,
            0
          ],
          [
            -99.23194,
            18.93114,
            0
          ],
          [
            -99.23193,
            18.93114,
            0
          ],
          [
            -99.23192,
            18.93114,
            0
          ],
          [
            -99.23192,
            18.93113,
            0
          ],
          [
            -99.23191,
            18.93113,
            0
          ],
          [
            -99.2319,
            18.93113,
            0
          ],
          [
            -99.23189,
            18.93113,
            0
          ],
          [
            -99.23188,
            18.93113,
            0
          ],
          [
            -99.23187,
            18.93113,
            0
          ],
          [
            -99.23186,
            18.93113,
            0
          ],
          [
            -99.23185,
            18.93113,
            0
          ],
          [
            -99.23185,
            18.93114,
            0
          ],
          [
            -99.23184,
            18.93114,
            0
          ],
          [
            -99.23183,
            18.93114,
            0
          ],
          [
            -99.23182,
            18.93115,
            0
          ],
          [
            -99.23181,
            18.93115,
            0
          ],
          [
            -99.23181,
            18.93116,
            0
          ],
          [
            -99.2318,
            18.93116,
            0
          ],
          [
            -99.2318,
            18.93117,
            0
          ],
          [
            -99.23179,
            18.93117,
            0
          ],
          [
            -99.23155,
            18.93115,
            0
          ],
          [
            -99.23084,
            18.93111,
            0
          ],
          [
            -99.23082,
            18.93085,
            0
          ],
          [
            -99.23081,
            18.93071,
            0
          ],
          [
            -99.23078,
            18.93047,
            0
          ],
          [
            -99.23077,
            18.93037,
            0
          ],
          [
            -99.2307,
            18.92992,
            0
          ],
          [
            -99.23069,
            18.92989,
            0
          ],
          [
            -99.23064,
            18.9297,
            0
          ],
          [
            -99.2306,
            18.9296,
            0
          ],
          [
            -99.2305,
            18.92934,
            0
          ],
          [
            -99.23031,
            18.92892,
            0
          ],
          [
            -99.2303,
            18.92889,
            0
          ],
          [
            -99.23013,
            18.92842,
            0
          ],
          [
            -99.2301,
            18.92836,
            0
          ],
          [
            -99.22995,
            18.92796,
            0
          ],
          [
            -99.22993,
            18.92788,
            0
          ],
          [
            -99.22988,
            18.92781,
            0
          ],
          [
            -99.22982,
            18.92768,
            0
          ],
          [
            -99.22952,
            18.92698,
            0
          ],
          [
            -99.22948,
            18.92691,
            0
          ],
          [
            -99.22939,
            18.92675,
            0
          ],
          [
            -99.22935,
            18.92669,
            0
          ],
          [
            -99.22913,
            18.92642,
            0
          ],
          [
            -99.22898,
            18.92627,
            0
          ],
          [
            -99.22888,
            18.92618,
            0
          ],
          [
            -99.22882,
            18.92613,
            0
          ],
          [
            -99.2287,
            18.92603,
            0
          ],
          [
            -99.22851,
            18.92591,
            0
          ],
          [
            -99.22839,
            18.92583,
            0
          ],
          [
            -99.22829,
            18.92578,
            0
          ],
          [
            -99.22804,
            18.92567,
            0
          ],
          [
            -99.22794,
            18.92562,
            0
          ],
          [
            -99.22776,
            18.92559,
            0
          ],
          [
            -99.22684,
            18.92537,
            0
          ],
          [
            -99.22563,
            18.92509,
            0
          ],
          [
            -99.22546,
            18.92506,
            0
          ],
          [
            -99.22496,
            18.92494,
            0
          ],
          [
            -99.22418,
            18.92476,
            0
          ],
          [
            -99.22336,
            18.92456,
            0
          ],
          [
            -99.22327,
            18.92455,
            0
          ],
          [
            -99.22327,
            18.92449,
            0
          ],
          [
            -99.22326,
            18.92445,
            0
          ],
          [
            -99.22323,
            18.92433,
            0
          ],
          [
            -99.22326,
            18.92445,
            0
          ],
          [
            -99.22327,
            18.92449,
            0
          ],
          [
            -99.22327,
            18.92455,
            0
          ],
          [
            -99.22218,
            18.92432,
            0
          ],
          [
            -99.2216,
            18.92418,
            0
          ],
          [
            -99.2215,
            18.92416,
            0
          ],
          [
            -99.22107,
            18.92405,
            0
          ],
          [
            -99.22092,
            18.92402,
            0
          ],
          [
            -99.22078,
            18.92401,
            0
          ],
          [
            -99.22041,
            18.924,
            0
          ],
          [
            -99.22015,
            18.924,
            0
          ],
          [
            -99.21989,
            18.924,
            0
          ],
          [
            -99.21894,
            18.92402,
            0
          ],
          [
            -99.21868,
            18.92403,
            0
          ],
          [
            -99.21865,
            18.92403,
            0
          ],
          [
            -99.21852,
            18.92403,
            0
          ],
          [
            -99.21798,
            18.92402,
            0
          ],
          [
            -99.21765,
            18.92402,
            0
          ],
          [
            -99.21693,
            18.92404,
            0
          ],
          [
            -99.2167,
            18.92404,
            0
          ],
          [
            -99.21655,
            18.92404,
            0
          ],
          [
            -99.21592,
            18.92403,
            0
          ],
          [
            -99.21591,
            18.92403,
            0
          ],
          [
            -99.21519,
            18.92403,
            0
          ],
          [
            -99.21462,
            18.92403,
            0
          ],
          [
            -99.21399,
            18.92402,
            0
          ],
          [
            -99.21366,
            18.92402,
            0
          ],
          [
            -99.21306,
            18.92391,
            0
          ],
          [
            -99.21273,
            18.92382,
            0
          ],
          [
            -99.21212,
            18.92368,
            0
          ],
          [
            -99.21183,
            18.9236,
            0
          ],
          [
            -99.21156,
            18.92354,
            0
          ],
          [
            -99.21133,
            18.92349,
            0
          ],
          [
            -99.2108,
            18.92335,
            0
          ],
          [
            -99.21042,
            18.92326,
            0
          ],
          [
            -99.21026,
            18.92322,
            0
          ],
          [
            -99.21016,
            18.92318,
            0
          ],
          [
            -99.20993,
            18.92312,
            0
          ],
          [
            -99.20983,
            18.92309,
            0
          ],
          [
            -99.20941,
            18.92299,
            0
          ],
          [
            -99.20922,
            18.92294,
            0
          ],
          [
            -99.20916,
            18.92291,
            0
          ],
          [
            -99.20905,
            18.92285,
            0
          ],
          [
            -99.20889,
            18.92277,
            0
          ],
          [
            -99.20868,
            18.92263,
            0
          ],
          [
            -99.20828,
            18.92228,
            0
          ],
          [
            -99.20826,
            18.92227,
            0
          ],
          [
            -99.20801,
            18.92208,
            0
          ],
          [
            -99.20799,
            18.92207,
            0
          ],
          [
            -99.20791,
            18.92201,
            0
          ],
          [
            -99.20781,
            18.92194,
            0
          ],
          [
            -99.20775,
            18.92191,
            0
          ],
          [
            -99.20767,
            18.92187,
            0
          ],
          [
            -99.2075,
            18.92177,
            0
          ],
          [
            -99.20742,
            18.92174,
            0
          ],
          [
            -99.20732,
            18.9217,
            0
          ],
          [
            -99.20723,
            18.92168,
            0
          ],
          [
            -99.20721,
            18.92168,
            0
          ],
          [
            -99.20708,
            18.92165,
            0
          ],
          [
            -99.20691,
            18.92162,
            0
          ],
          [
            -99.20652,
            18.92157,
            0
          ],
          [
            -99.2062,
            18.92153,
            0
          ],
          [
            -99.20599,
            18.92151,
            0
          ],
          [
            -99.20582,
            18.92148,
            0
          ],
          [
            -99.20566,
            18.92144,
            0
          ],
          [
            -99.20528,
            18.92134,
            0
          ],
          [
            -99.20481,
            18.92126,
            0
          ],
          [
            -99.20469,
            18.92125,
            0
          ],
          [
            -99.20465,
            18.92125,
            0
          ],
          [
            -99.20454,
            18.92125,
            0
          ],
          [
            -99.20409,
            18.92118,
            0
          ],
          [
            -99.20396,
            18.92113,
            0
          ],
          [
            -99.20386,
            18.9211,
            0
          ],
          [
            -99.2038,
            18.92109,
            0
          ],
          [
            -99.20353,
            18.92103,
            0
          ],
          [
            -99.20304,
            18.92096,
            0
          ],
          [
            -99.20263,
            18.92091,
            0
          ],
          [
            -99.20248,
            18.9209,
            0
          ],
          [
            -99.20239,
            18.92089,
            0
          ],
          [
            -99.20226,
            18.92088,
            0
          ],
          [
            -99.20211,
            18.92089,
            0
          ],
          [
            -99.20197,
            18.9208,
            0
          ],
          [
            -99.20194,
            18.92079,
            0
          ],
          [
            -99.20191,
            18.92078,
            0
          ],
          [
            -99.20183,
            18.92077,
            0
          ],
          [
            -99.20168,
            18.92075,
            0
          ],
          [
            -99.20156,
            18.92074,
            0
          ],
          [
            -99.20123,
            18.92076,
            0
          ],
          [
            -99.20107,
            18.92078,
            0
          ],
          [
            -99.20079,
            18.92083,
            0
          ],
          [
            -99.20072,
            18.92083,
            0
          ],
          [
            -99.20071,
            18.92083,
            0
          ],
          [
            -99.20064,
            18.92083,
            0
          ],
          [
            -99.20059,
            18.92083,
            0
          ],
          [
            -99.20054,
            18.92083,
            0
          ],
          [
            -99.20033,
            18.92082,
            0
          ],
          [
            -99.20023,
            18.92081,
            0
          ],
          [
            -99.20015,
            18.9208,
            0
          ],
          [
            -99.19997,
            18.92076,
            0
          ],
          [
            -99.1999,
            18.92074,
            0
          ],
          [
            -99.19968,
            18.92068,
            0
          ],
          [
            -99.19876,
            18.92031,
            0
          ],
          [
            -99.19859,
            18.92024,
            0
          ],
          [
            -99.19849,
            18.9202,
            0
          ],
          [
            -99.19788,
            18.91995,
            0
          ],
          [
            -99.19724,
            18.9198,
            0
          ],
          [
            -99.19627,
            18.91962,
            0
          ],
          [
            -99.19611,
            18.91959,
            0
          ],
          [
            -99.19595,
            18.91957,
            0
          ],
          [
            -99.1959,
            18.91957,
            0
          ],
          [
            -99.19576,
            18.91956,
            0
          ],
          [
            -99.1957,
            18.91956,
            0
          ],
          [
            -99.19565,
            18.91957,
            0
          ],
          [
            -99.19553,
            18.91957,
            0
          ],
          [
            -99.19544,
            18.91958,
            0
          ],
          [
            -99.19534,
            18.9196,
            0
          ],
          [
            -99.19533,
            18.9196,
            0
          ],
          [
            -99.19523,
            18.91962,
            0
          ],
          [
            -99.19522,
            18.91962,
            0
          ],
          [
            -99.19521,
            18.91963,
            0
          ],
          [
            -99.19512,
            18.91971,
            0
          ],
          [
            -99.19475,
            18.9198,
            0
          ],
          [
            -99.19445,
            18.91988,
            0
          ],
          [
            -99.19433,
            18.91989,
            0
          ],
          [
            -99.19427,
            18.9199,
            0
          ],
          [
            -99.19414,
            18.9199,
            0
          ],
          [
            -99.194,
            18.91989,
            0
          ],
          [
            -99.19389,
            18.91988,
            0
          ],
          [
            -99.19377,
            18.91985,
            0
          ],
          [
            -99.19366,
            18.91983,
            0
          ],
          [
            -99.19351,
            18.91978,
            0
          ],
          [
            -99.19307,
            18.91964,
            0
          ],
          [
            -99.19261,
            18.91949,
            0
          ],
          [
            -99.19237,
            18.91942,
            0
          ],
          [
            -99.19163,
            18.91919,
            0
          ],
          [
            -99.1912,
            18.91906,
            0
          ],
          [
            -99.19113,
            18.91903,
            0
          ],
          [
            -99.19021,
            18.91875,
            0
          ],
          [
            -99.18947,
            18.91853,
            0
          ],
          [
            -99.18924,
            18.91846,
            0
          ],
          [
            -99.18916,
            18.91844,
            0
          ],
          [
            -99.18904,
            18.9184,
            0
          ],
          [
            -99.18882,
            18.91833,
            0
          ],
          [
            -99.18871,
            18.91828,
            0
          ],
          [
            -99.18867,
            18.91826,
            0
          ],
          [
            -99.18862,
            18.91824,
            0
          ],
          [
            -99.18853,
            18.9182,
            0
          ],
          [
            -99.18844,
            18.91815,
            0
          ],
          [
            -99.18835,
            18.91809,
            0
          ],
          [
            -99.18828,
            18.91804,
            0
          ],
          [
            -99.1882,
            18.91798,
            0
          ],
          [
            -99.18802,
            18.91782,
            0
          ],
          [
            -99.188,
            18.9178,
            0
          ],
          [
            -99.18771,
            18.91754,
            0
          ],
          [
            -99.18703,
            18.91695,
            0
          ],
          [
            -99.18694,
            18.91687,
            0
          ],
          [
            -99.18671,
            18.91666,
            0
          ],
          [
            -99.18663,
            18.91659,
            0
          ],
          [
            -99.18651,
            18.91648,
            0
          ],
          [
            -99.18634,
            18.91632,
            0
          ],
          [
            -99.18585,
            18.9159,
            0
          ],
          [
            -99.18551,
            18.91559,
            0
          ],
          [
            -99.1853,
            18.91539,
            0
          ],
          [
            -99.18479,
            18.91494,
            0
          ],
          [
            -99.18468,
            18.91482,
            0
          ],
          [
            -99.18451,
            18.91465,
            0
          ],
          [
            -99.18434,
            18.91447,
            0
          ],
          [
            -99.18422,
            18.91434,
            0
          ],
          [
            -99.18397,
            18.91408,
            0
          ],
          [
            -99.18359,
            18.91367,
            0
          ],
          [
            -99.18325,
            18.91331,
            0
          ],
          [
            -99.18286,
            18.9129,
            0
          ],
          [
            -99.18259,
            18.9126,
            0
          ],
          [
            -99.18239,
            18.91239,
            0
          ],
          [
            -99.18227,
            18.91227,
            0
          ],
          [
            -99.18209,
            18.91207,
            0
          ],
          [
            -99.18193,
            18.9119,
            0
          ],
          [
            -99.18176,
            18.91172,
            0
          ],
          [
            -99.18165,
            18.91159,
            0
          ],
          [
            -99.18143,
            18.91127,
            0
          ],
          [
            -99.18132,
            18.91109,
            0
          ],
          [
            -99.18126,
            18.91098,
            0
          ],
          [
            -99.18111,
            18.91111,
            0
          ],
          [
            -99.18076,
            18.91146,
            0
          ],
          [
            -99.18029,
            18.9119,
            0
          ],
          [
            -99.18005,
            18.91212,
            0
          ],
          [
            -99.17919,
            18.91292,
            0
          ],
          [
            -99.17898,
            18.91312,
            0
          ],
          [
            -99.17815,
            18.91391,
            0
          ],
          [
            -99.17802,
            18.91404,
            0
          ],
          [
            -99.17775,
            18.9143,
            0
          ],
          [
            -99.17713,
            18.91489,
            0
          ],
          [
            -99.17702,
            18.91499,
            0
          ],
          [
            -99.1769,
            18.91511,
            0
          ],
          [
            -99.17684,
            18.91518,
            0
          ],
          [
            -99.17675,
            18.91529,
            0
          ],
          [
            -99.17669,
            18.91538,
            0
          ],
          [
            -99.17662,
            18.91549,
            0
          ],
          [
            -99.17655,
            18.9156,
            0
          ],
          [
            -99.17647,
            18.91578,
            0
          ],
          [
            -99.17641,
            18.91593,
            0
          ],
          [
            -99.17638,
            18.91604,
            0
          ],
          [
            -99.17635,
            18.91616,
            0
          ],
          [
            -99.17633,
            18.91627,
            0
          ],
          [
            -99.17632,
            18.91634,
            0
          ],
          [
            -99.17631,
            18.91642,
            0
          ],
          [
            -99.1763,
            18.91659,
            0
          ],
          [
            -99.17631,
            18.91677,
            0
          ],
          [
            -99.17632,
            18.91705,
            0
          ],
          [
            -99.17596,
            18.91736,
            0
          ],
          [
            -99.17524,
            18.91809,
            0
          ],
          [
            -99.17453,
            18.91879,
            0
          ],
          [
            -99.17412,
            18.9192,
            0
          ],
          [
            -99.17371,
            18.9196,
            0
          ],
          [
            -99.17298,
            18.92033,
            0
          ],
          [
            -99.17242,
            18.92088,
            0
          ],
          [
            -99.17234,
            18.92095,
            0
          ],
          [
            -99.17224,
            18.92103,
            0
          ],
          [
            -99.17215,
            18.92109,
            0
          ],
          [
            -99.17201,
            18.92117,
            0
          ],
          [
            -99.17193,
            18.92122,
            0
          ],
          [
            -99.17186,
            18.92126,
            0
          ],
          [
            -99.17179,
            18.92131,
            0
          ],
          [
            -99.17171,
            18.92138,
            0
          ],
          [
            -99.17164,
            18.92146,
            0
          ],
          [
            -99.17144,
            18.92167,
            0
          ],
          [
            -99.17131,
            18.92181,
            0
          ],
          [
            -99.17094,
            18.92222,
            0
          ],
          [
            -99.17096,
            18.9223,
            0
          ],
          [
            -99.1711,
            18.92278,
            0
          ],
          [
            -99.17113,
            18.92289,
            0
          ],
          [
            -99.17116,
            18.92304,
            0
          ],
          [
            -99.1712,
            18.92312,
            0
          ],
          [
            -99.17137,
            18.92352,
            0
          ],
          [
            -99.17139,
            18.92356,
            0
          ],
          [
            -99.1714,
            18.92362,
            0
          ],
          [
            -99.17142,
            18.92369,
            0
          ],
          [
            -99.17152,
            18.92411,
            0
          ],
          [
            -99.17161,
            18.92445,
            0
          ],
          [
            -99.17172,
            18.92439,
            0
          ],
          [
            -99.17232,
            18.92553,
            0
          ],
          [
            -99.1724,
            18.92569,
            0
          ],
          [
            -99.17257,
            18.92601,
            0
          ],
          [
            -99.17266,
            18.92617,
            0
          ],
          [
            -99.17291,
            18.92665,
            0
          ],
          [
            -99.1733,
            18.92736,
            0
          ],
          [
            -99.17377,
            18.92821,
            0
          ],
          [
            -99.17414,
            18.92892,
            0
          ],
          [
            -99.17455,
            18.92962,
            0
          ],
          [
            -99.17496,
            18.92942,
            0
          ],
          [
            -99.17537,
            18.92922,
            0
          ],
          [
            -99.17554,
            18.92958,
            0
          ],
          [
            -99.17585,
            18.93017,
            0
          ],
          [
            -99.17618,
            18.93077,
            0
          ],
          [
            -99.17667,
            18.93053,
            0
          ],
          [
            -99.17682,
            18.93046,
            0
          ],
          [
            -99.17698,
            18.93039,
            0
          ],
          [
            -99.17709,
            18.93038,
            0
          ],
          [
            -99.17722,
            18.93038,
            0
          ],
          [
            -99.17732,
            18.9304,
            0
          ],
          [
            -99.17749,
            18.93042,
            0
          ],
          [
            -99.17762,
            18.93044,
            0
          ],
          [
            -99.17768,
            18.93044,
            0
          ],
          [
            -99.17774,
            18.93045,
            0
          ],
          [
            -99.17785,
            18.93044,
            0
          ],
          [
            -99.17805,
            18.93042,
            0
          ],
          [
            -99.17861,
            18.93036,
            0
          ],
          [
            -99.17917,
            18.93029,
            0
          ],
          [
            -99.17923,
            18.93078,
            0
          ],
          [
            -99.17926,
            18.931,
            0
          ],
          [
            -99.1793,
            18.93127,
            0
          ],
          [
            -99.17931,
            18.93136,
            0
          ],
          [
            -99.17934,
            18.93154,
            0
          ],
          [
            -99.17935,
            18.93154,
            0
          ]
        ]
      },
      "properties": {
        "name": "CENTRO - OTILIO MONTAÑO",
        "styleUrl": "#line-673AB7-5000-nodesc",
        "stroke-opacity": 1,
        "stroke": "#673ab7",
        "stroke-width": 5
      }
    }
  ]
}