{
  "type": "FeatureCollection",
  "features": [
    {
      "type": "Feature",
      "geometry": {
        "type": "LineString",
        "coordinates": [
          [
            -99.1602,
            18.72712,
            0
          ],
          [
            -99.16024,
            18.72713,
            0
          ],
          [
            -99.1603,
            18.72715,
            0
          ],
          [
            -99.16041,
            18.72718,
            0
          ],
          [
            -99.16054,
            18.72722,
            0
          ],
          [
            -99.16059,
            18.72723,
            0
          ],
          [
            -99.16063,
            18.72724,
            0
          ],
          [
            -99.16072,
            18.72725,
            0
          ],
          [
            -99.16074,
            18.72725,
            0
          ],
          [
            -99.16078,
            18.72725,
            0
          ],
          [
            -99.1605,
            18.72836,
            0
          ],
          [
            -99.16041,
            18.72871,
            0
          ],
          [
            -99.16024,
            18.72941,
            0
          ],
          [
            -99.16023,
            18.72947,
            0
          ],
          [
            -99.16,
            18.73036,
            0
          ],
          [
            -99.15999,
            18.73043,
            0
          ],
          [
            -99.15984,
            18.73088,
            0
          ],
          [
            -99.15978,
            18.73105,
            0
          ],
          [
            -99.15975,
            18.73114,
            0
          ],
          [
            -99.15956,
            18.73165,
            0
          ],
          [
            -99.15949,
            18.73179,
            0
          ],
          [
            -99.15948,
            18.73182,
            0
          ],
          [
            -99.15967,
            18.73193,
            0
          ],
          [
            -99.15979,
            18.73202,
            0
          ],
          [
            -99.15988,
            18.73207,
            0
          ],
          [
            -99.15995,
            18.73214,
            0
          ],
          [
            -99.16002,
            18.7322,
            0
          ],
          [
            -99.16003,
            18.73225,
            0
          ],
          [
            -99.16006,
            18.73234,
            0
          ],
          [
            -99.16014,
            18.73252,
            0
          ],
          [
            -99.16029,
            18.73292,
            0
          ],
          [
            -99.16048,
            18.73343,
            0
          ],
          [
            -99.16048,
            18.73344,
            0
          ],
          [
            -99.16063,
            18.73389,
            0
          ],
          [
            -99.16081,
            18.73429,
            0
          ],
          [
            -99.16093,
            18.73462,
            0
          ],
          [
            -99.16103,
            18.73489,
            0
          ],
          [
            -99.16113,
            18.73515,
            0
          ],
          [
            -99.16118,
            18.73529,
            0
          ],
          [
            -99.16122,
            18.73547,
            0
          ],
          [
            -99.16123,
            18.7355,
            0
          ],
          [
            -99.16124,
            18.73551,
            0
          ],
          [
            -99.16124,
            18.73552,
            0
          ],
          [
            -99.16126,
            18.73553,
            0
          ],
          [
            -99.16131,
            18.73555,
            0
          ],
          [
            -99.16167,
            18.73561,
            0
          ],
          [
            -99.16164,
            18.73568,
            0
          ],
          [
            -99.16164,
            18.7357,
            0
          ],
          [
            -99.16158,
            18.73596,
            0
          ],
          [
            -99.16156,
            18.7361,
            0
          ],
          [
            -99.16155,
            18.73626,
            0
          ],
          [
            -99.16157,
            18.73638,
            0
          ],
          [
            -99.16161,
            18.73667,
            0
          ],
          [
            -99.1617,
            18.73701,
            0
          ],
          [
            -99.16175,
            18.73711,
            0
          ],
          [
            -99.16179,
            18.73718,
            0
          ],
          [
            -99.16181,
            18.73721,
            0
          ],
          [
            -99.16186,
            18.73727,
            0
          ],
          [
            -99.1619,
            18.73731,
            0
          ],
          [
            -99.16206,
            18.73743,
            0
          ],
          [
            -99.16224,
            18.73756,
            0
          ],
          [
            -99.16238,
            18.73767,
            0
          ],
          [
            -99.16246,
            18.73775,
            0
          ],
          [
            -99.16248,
            18.73778,
            0
          ],
          [
            -99.16252,
            18.73783,
            0
          ],
          [
            -99.16257,
            18.73792,
            0
          ],
          [
            -99.16263,
            18.73812,
            0
          ],
          [
            -99.16269,
            18.73836,
            0
          ],
          [
            -99.16273,
            18.73844,
            0
          ],
          [
            -99.16274,
            18.73846,
            0
          ],
          [
            -99.16276,
            18.7385,
            0
          ],
          [
            -99.16283,
            18.73862,
            0
          ],
          [
            -99.16293,
            18.73877,
            0
          ],
          [
            -99.16309,
            18.73903,
            0
          ],
          [
            -99.16322,
            18.73931,
            0
          ],
          [
            -99.16328,
            18.73941,
            0
          ],
          [
            -99.1633,
            18.73946,
            0
          ],
          [
            -99.16339,
            18.73963,
            0
          ],
          [
            -99.16342,
            18.73974,
            0
          ],
          [
            -99.16347,
            18.7399,
            0
          ],
          [
            -99.16354,
            18.74008,
            0
          ],
          [
            -99.16358,
            18.74016,
            0
          ],
          [
            -99.16364,
            18.74021,
            0
          ],
          [
            -99.16378,
            18.74032,
            0
          ],
          [
            -99.16429,
            18.7406,
            0
          ],
          [
            -99.16446,
            18.7407,
            0
          ],
          [
            -99.16464,
            18.74081,
            0
          ],
          [
            -99.16477,
            18.7409,
            0
          ],
          [
            -99.16489,
            18.74099,
            0
          ],
          [
            -99.165,
            18.74105,
            0
          ],
          [
            -99.16522,
            18.74116,
            0
          ],
          [
            -99.16552,
            18.74132,
            0
          ],
          [
            -99.16582,
            18.74152,
            0
          ],
          [
            -99.16619,
            18.7418,
            0
          ],
          [
            -99.16649,
            18.74199,
            0
          ],
          [
            -99.16676,
            18.74212,
            0
          ],
          [
            -99.16702,
            18.74224,
            0
          ],
          [
            -99.16735,
            18.7424,
            0
          ],
          [
            -99.16774,
            18.74259,
            0
          ],
          [
            -99.16816,
            18.7428,
            0
          ],
          [
            -99.16827,
            18.74285,
            0
          ],
          [
            -99.16843,
            18.74291,
            0
          ],
          [
            -99.16857,
            18.74295,
            0
          ],
          [
            -99.16876,
            18.743,
            0
          ],
          [
            -99.16882,
            18.74302,
            0
          ],
          [
            -99.169,
            18.74309,
            0
          ],
          [
            -99.16903,
            18.7431,
            0
          ],
          [
            -99.16929,
            18.74323,
            0
          ],
          [
            -99.16945,
            18.74332,
            0
          ],
          [
            -99.16966,
            18.74345,
            0
          ],
          [
            -99.16978,
            18.74351,
            0
          ],
          [
            -99.1699,
            18.74357,
            0
          ],
          [
            -99.1701,
            18.74364,
            0
          ],
          [
            -99.17022,
            18.74369,
            0
          ],
          [
            -99.17034,
            18.74374,
            0
          ],
          [
            -99.17049,
            18.74385,
            0
          ],
          [
            -99.17061,
            18.74396,
            0
          ],
          [
            -99.17077,
            18.74413,
            0
          ],
          [
            -99.17099,
            18.7443,
            0
          ],
          [
            -99.17125,
            18.74444,
            0
          ],
          [
            -99.17146,
            18.74457,
            0
          ],
          [
            -99.17159,
            18.74465,
            0
          ],
          [
            -99.17167,
            18.74471,
            0
          ],
          [
            -99.17183,
            18.74485,
            0
          ],
          [
            -99.17195,
            18.74498,
            0
          ],
          [
            -99.17202,
            18.74507,
            0
          ],
          [
            -99.17206,
            18.74513,
            0
          ],
          [
            -99.1721,
            18.74518,
            0
          ],
          [
            -99.17215,
            18.74527,
            0
          ],
          [
            -99.1722,
            18.74535,
            0
          ],
          [
            -99.17235,
            18.74568,
            0
          ],
          [
            -99.17238,
            18.74574,
            0
          ],
          [
            -99.17249,
            18.74593,
            0
          ],
          [
            -99.17258,
            18.74606,
            0
          ],
          [
            -99.17267,
            18.74618,
            0
          ],
          [
            -99.17276,
            18.74629,
            0
          ],
          [
            -99.17288,
            18.74643,
            0
          ],
          [
            -99.173,
            18.74657,
            0
          ],
          [
            -99.17311,
            18.74671,
            0
          ],
          [
            -99.17319,
            18.74683,
            0
          ],
          [
            -99.1732,
            18.74686,
            0
          ],
          [
            -99.17325,
            18.74696,
            0
          ],
          [
            -99.17329,
            18.74707,
            0
          ],
          [
            -99.17333,
            18.74717,
            0
          ],
          [
            -99.17338,
            18.74726,
            0
          ],
          [
            -99.17343,
            18.74734,
            0
          ],
          [
            -99.17348,
            18.74741,
            0
          ],
          [
            -99.17353,
            18.74746,
            0
          ],
          [
            -99.17362,
            18.74755,
            0
          ],
          [
            -99.17369,
            18.74759,
            0
          ],
          [
            -99.17375,
            18.74761,
            0
          ],
          [
            -99.17384,
            18.74765,
            0
          ],
          [
            -99.17389,
            18.74766,
            0
          ],
          [
            -99.1739,
            18.74766,
            0
          ],
          [
            -99.17396,
            18.74769,
            0
          ],
          [
            -99.17401,
            18.74772,
            0
          ],
          [
            -99.17411,
            18.74781,
            0
          ],
          [
            -99.17424,
            18.74794,
            0
          ],
          [
            -99.17437,
            18.74805,
            0
          ],
          [
            -99.17458,
            18.74824,
            0
          ],
          [
            -99.17474,
            18.74838,
            0
          ],
          [
            -99.17491,
            18.74853,
            0
          ],
          [
            -99.17503,
            18.74862,
            0
          ],
          [
            -99.17514,
            18.74869,
            0
          ],
          [
            -99.17518,
            18.74871,
            0
          ],
          [
            -99.17527,
            18.74876,
            0
          ],
          [
            -99.17541,
            18.74881,
            0
          ],
          [
            -99.17551,
            18.74885,
            0
          ],
          [
            -99.17558,
            18.7489,
            0
          ],
          [
            -99.17561,
            18.74893,
            0
          ],
          [
            -99.17565,
            18.74896,
            0
          ],
          [
            -99.17567,
            18.74899,
            0
          ],
          [
            -99.17569,
            18.74906,
            0
          ],
          [
            -99.17571,
            18.74916,
            0
          ],
          [
            -99.17577,
            18.7494,
            0
          ],
          [
            -99.17581,
            18.74956,
            0
          ],
          [
            -99.17587,
            18.74969,
            0
          ],
          [
            -99.17592,
            18.74986,
            0
          ],
          [
            -99.17597,
            18.75002,
            0
          ],
          [
            -99.17597,
            18.75003,
            0
          ],
          [
            -99.176,
            18.75009,
            0
          ],
          [
            -99.17602,
            18.75014,
            0
          ],
          [
            -99.17607,
            18.75021,
            0
          ],
          [
            -99.17618,
            18.75031,
            0
          ],
          [
            -99.17628,
            18.75038,
            0
          ],
          [
            -99.1764,
            18.75044,
            0
          ],
          [
            -99.17657,
            18.7505,
            0
          ],
          [
            -99.17667,
            18.75053,
            0
          ],
          [
            -99.1768,
            18.75056,
            0
          ],
          [
            -99.17689,
            18.75058,
            0
          ],
          [
            -99.17693,
            18.7506,
            0
          ],
          [
            -99.17696,
            18.75061,
            0
          ],
          [
            -99.17705,
            18.75068,
            0
          ],
          [
            -99.17724,
            18.75084,
            0
          ],
          [
            -99.17769,
            18.75119,
            0
          ],
          [
            -99.17793,
            18.75133,
            0
          ],
          [
            -99.17813,
            18.75145,
            0
          ],
          [
            -99.17868,
            18.75186,
            0
          ],
          [
            -99.17904,
            18.75212,
            0
          ],
          [
            -99.17921,
            18.75225,
            0
          ],
          [
            -99.17944,
            18.75246,
            0
          ],
          [
            -99.17962,
            18.75264,
            0
          ],
          [
            -99.1799,
            18.75289,
            0
          ],
          [
            -99.18001,
            18.75297,
            0
          ],
          [
            -99.18019,
            18.75307,
            0
          ],
          [
            -99.18037,
            18.75315,
            0
          ],
          [
            -99.18063,
            18.75328,
            0
          ],
          [
            -99.18075,
            18.75334,
            0
          ],
          [
            -99.18079,
            18.75337,
            0
          ],
          [
            -99.18084,
            18.75339,
            0
          ],
          [
            -99.18093,
            18.75346,
            0
          ],
          [
            -99.18098,
            18.75355,
            0
          ],
          [
            -99.18099,
            18.75357,
            0
          ],
          [
            -99.181,
            18.7536,
            0
          ],
          [
            -99.18101,
            18.75367,
            0
          ],
          [
            -99.18102,
            18.75371,
            0
          ],
          [
            -99.18101,
            18.75375,
            0
          ],
          [
            -99.18101,
            18.75381,
            0
          ],
          [
            -99.18098,
            18.7539,
            0
          ],
          [
            -99.18093,
            18.75399,
            0
          ],
          [
            -99.18078,
            18.75429,
            0
          ],
          [
            -99.18075,
            18.75437,
            0
          ],
          [
            -99.18073,
            18.75445,
            0
          ],
          [
            -99.18072,
            18.75453,
            0
          ],
          [
            -99.18071,
            18.75463,
            0
          ],
          [
            -99.1807,
            18.75476,
            0
          ],
          [
            -99.1807,
            18.75488,
            0
          ],
          [
            -99.18068,
            18.75497,
            0
          ],
          [
            -99.18067,
            18.75506,
            0
          ],
          [
            -99.18063,
            18.75517,
            0
          ],
          [
            -99.18055,
            18.75535,
            0
          ],
          [
            -99.18053,
            18.75545,
            0
          ],
          [
            -99.18053,
            18.75551,
            0
          ],
          [
            -99.18054,
            18.75557,
            0
          ],
          [
            -99.18057,
            18.75562,
            0
          ],
          [
            -99.18064,
            18.75571,
            0
          ],
          [
            -99.18074,
            18.75582,
            0
          ],
          [
            -99.18085,
            18.75595,
            0
          ],
          [
            -99.18091,
            18.75605,
            0
          ],
          [
            -99.18094,
            18.75614,
            0
          ],
          [
            -99.18099,
            18.7563,
            0
          ],
          [
            -99.181,
            18.75644,
            0
          ],
          [
            -99.18099,
            18.75662,
            0
          ],
          [
            -99.18097,
            18.75674,
            0
          ],
          [
            -99.18093,
            18.75687,
            0
          ],
          [
            -99.18089,
            18.75704,
            0
          ],
          [
            -99.18088,
            18.75715,
            0
          ],
          [
            -99.18088,
            18.75721,
            0
          ],
          [
            -99.18089,
            18.75728,
            0
          ],
          [
            -99.1809,
            18.75733,
            0
          ],
          [
            -99.18091,
            18.75737,
            0
          ],
          [
            -99.18095,
            18.75743,
            0
          ],
          [
            -99.18099,
            18.75747,
            0
          ],
          [
            -99.18102,
            18.7575,
            0
          ],
          [
            -99.18119,
            18.75766,
            0
          ],
          [
            -99.18142,
            18.75792,
            0
          ],
          [
            -99.18152,
            18.75804,
            0
          ],
          [
            -99.18152,
            18.75805,
            0
          ],
          [
            -99.18161,
            18.75818,
            0
          ],
          [
            -99.18168,
            18.75828,
            0
          ],
          [
            -99.18173,
            18.75837,
            0
          ],
          [
            -99.18177,
            18.75845,
            0
          ],
          [
            -99.18182,
            18.75855,
            0
          ],
          [
            -99.18185,
            18.75864,
            0
          ],
          [
            -99.18186,
            18.7587,
            0
          ],
          [
            -99.18188,
            18.75879,
            0
          ],
          [
            -99.18192,
            18.75919,
            0
          ],
          [
            -99.18193,
            18.75946,
            0
          ],
          [
            -99.18193,
            18.75952,
            0
          ],
          [
            -99.18193,
            18.75957,
            0
          ],
          [
            -99.18193,
            18.75958,
            0
          ],
          [
            -99.18192,
            18.75966,
            0
          ],
          [
            -99.1819,
            18.75972,
            0
          ],
          [
            -99.18186,
            18.75987,
            0
          ],
          [
            -99.18179,
            18.76008,
            0
          ],
          [
            -99.18161,
            18.76057,
            0
          ],
          [
            -99.18155,
            18.76073,
            0
          ],
          [
            -99.18148,
            18.76086,
            0
          ],
          [
            -99.18144,
            18.76093,
            0
          ],
          [
            -99.18136,
            18.76102,
            0
          ],
          [
            -99.18132,
            18.76106,
            0
          ],
          [
            -99.18131,
            18.76107,
            0
          ],
          [
            -99.18128,
            18.7611,
            0
          ],
          [
            -99.18102,
            18.7613,
            0
          ],
          [
            -99.18059,
            18.76164,
            0
          ],
          [
            -99.18031,
            18.76187,
            0
          ],
          [
            -99.18023,
            18.76195,
            0
          ],
          [
            -99.1802,
            18.762,
            0
          ],
          [
            -99.18017,
            18.76204,
            0
          ],
          [
            -99.18014,
            18.76209,
            0
          ],
          [
            -99.18012,
            18.76214,
            0
          ],
          [
            -99.1801,
            18.76218,
            0
          ],
          [
            -99.18008,
            18.76233,
            0
          ],
          [
            -99.18008,
            18.7624,
            0
          ],
          [
            -99.18008,
            18.76247,
            0
          ],
          [
            -99.1801,
            18.76261,
            0
          ],
          [
            -99.18012,
            18.76272,
            0
          ],
          [
            -99.18013,
            18.76277,
            0
          ],
          [
            -99.18019,
            18.763,
            0
          ],
          [
            -99.18025,
            18.76323,
            0
          ],
          [
            -99.18032,
            18.7635,
            0
          ],
          [
            -99.18036,
            18.7637,
            0
          ],
          [
            -99.18038,
            18.76381,
            0
          ],
          [
            -99.18042,
            18.76398,
            0
          ],
          [
            -99.18043,
            18.76401,
            0
          ],
          [
            -99.18046,
            18.76407,
            0
          ],
          [
            -99.18049,
            18.76415,
            0
          ],
          [
            -99.18057,
            18.76432,
            0
          ],
          [
            -99.18065,
            18.76447,
            0
          ],
          [
            -99.18073,
            18.76466,
            0
          ],
          [
            -99.18075,
            18.76475,
            0
          ],
          [
            -99.18076,
            18.76478,
            0
          ],
          [
            -99.18077,
            18.76482,
            0
          ],
          [
            -99.18077,
            18.76489,
            0
          ],
          [
            -99.18077,
            18.76493,
            0
          ],
          [
            -99.18077,
            18.76496,
            0
          ],
          [
            -99.18076,
            18.76503,
            0
          ],
          [
            -99.18072,
            18.76517,
            0
          ],
          [
            -99.18067,
            18.76528,
            0
          ],
          [
            -99.18052,
            18.76571,
            0
          ],
          [
            -99.18039,
            18.76615,
            0
          ],
          [
            -99.18033,
            18.76638,
            0
          ],
          [
            -99.18029,
            18.76656,
            0
          ],
          [
            -99.18027,
            18.76664,
            0
          ],
          [
            -99.18026,
            18.76681,
            0
          ],
          [
            -99.18026,
            18.76692,
            0
          ],
          [
            -99.18027,
            18.767,
            0
          ],
          [
            -99.1803,
            18.76726,
            0
          ],
          [
            -99.18036,
            18.76752,
            0
          ],
          [
            -99.18037,
            18.76769,
            0
          ],
          [
            -99.18038,
            18.76781,
            0
          ],
          [
            -99.1804,
            18.7679,
            0
          ],
          [
            -99.18042,
            18.76798,
            0
          ],
          [
            -99.18045,
            18.76809,
            0
          ],
          [
            -99.1805,
            18.76816,
            0
          ],
          [
            -99.18051,
            18.76825,
            0
          ],
          [
            -99.1805,
            18.76831,
            0
          ],
          [
            -99.18048,
            18.76842,
            0
          ],
          [
            -99.18045,
            18.76853,
            0
          ],
          [
            -99.18043,
            18.76858,
            0
          ],
          [
            -99.18041,
            18.76861,
            0
          ],
          [
            -99.1804,
            18.76864,
            0
          ],
          [
            -99.18039,
            18.76866,
            0
          ],
          [
            -99.18035,
            18.76871,
            0
          ],
          [
            -99.18024,
            18.76884,
            0
          ],
          [
            -99.18018,
            18.76892,
            0
          ],
          [
            -99.18015,
            18.76896,
            0
          ],
          [
            -99.18013,
            18.769,
            0
          ],
          [
            -99.18012,
            18.76902,
            0
          ],
          [
            -99.18008,
            18.76911,
            0
          ],
          [
            -99.18004,
            18.76927,
            0
          ],
          [
            -99.18002,
            18.76935,
            0
          ],
          [
            -99.18001,
            18.7694,
            0
          ],
          [
            -99.18001,
            18.76944,
            0
          ],
          [
            -99.18,
            18.76952,
            0
          ],
          [
            -99.17999,
            18.76984,
            0
          ],
          [
            -99.17999,
            18.76986,
            0
          ],
          [
            -99.17999,
            18.77016,
            0
          ],
          [
            -99.17997,
            18.77041,
            0
          ],
          [
            -99.17995,
            18.77054,
            0
          ],
          [
            -99.17992,
            18.77068,
            0
          ],
          [
            -99.17989,
            18.77075,
            0
          ],
          [
            -99.17987,
            18.7708,
            0
          ],
          [
            -99.17985,
            18.77084,
            0
          ],
          [
            -99.17983,
            18.77089,
            0
          ],
          [
            -99.17981,
            18.77094,
            0
          ],
          [
            -99.17974,
            18.77105,
            0
          ],
          [
            -99.17957,
            18.77133,
            0
          ],
          [
            -99.17945,
            18.77149,
            0
          ],
          [
            -99.17932,
            18.77165,
            0
          ],
          [
            -99.17919,
            18.7718,
            0
          ],
          [
            -99.17892,
            18.77211,
            0
          ],
          [
            -99.17892,
            18.77212,
            0
          ],
          [
            -99.17865,
            18.77232,
            0
          ],
          [
            -99.17839,
            18.77257,
            0
          ],
          [
            -99.17834,
            18.77261,
            0
          ],
          [
            -99.17823,
            18.77272,
            0
          ],
          [
            -99.17808,
            18.77284,
            0
          ],
          [
            -99.17794,
            18.77295,
            0
          ],
          [
            -99.17784,
            18.77303,
            0
          ],
          [
            -99.17777,
            18.7731,
            0
          ],
          [
            -99.17767,
            18.77316,
            0
          ],
          [
            -99.17759,
            18.77321,
            0
          ],
          [
            -99.17755,
            18.77324,
            0
          ],
          [
            -99.1775,
            18.77326,
            0
          ],
          [
            -99.17744,
            18.77328,
            0
          ],
          [
            -99.17738,
            18.7733,
            0
          ],
          [
            -99.17729,
            18.77332,
            0
          ],
          [
            -99.17718,
            18.77334,
            0
          ],
          [
            -99.1772,
            18.77394,
            0
          ],
          [
            -99.17721,
            18.77399,
            0
          ],
          [
            -99.17722,
            18.77402,
            0
          ],
          [
            -99.17722,
            18.77405,
            0
          ],
          [
            -99.17723,
            18.77408,
            0
          ],
          [
            -99.17725,
            18.77411,
            0
          ],
          [
            -99.17727,
            18.77414,
            0
          ],
          [
            -99.17731,
            18.77417,
            0
          ],
          [
            -99.17734,
            18.77419,
            0
          ],
          [
            -99.17737,
            18.77421,
            0
          ],
          [
            -99.17743,
            18.77423,
            0
          ],
          [
            -99.17748,
            18.77426,
            0
          ],
          [
            -99.17754,
            18.77427,
            0
          ],
          [
            -99.1776,
            18.77428,
            0
          ],
          [
            -99.17761,
            18.77428,
            0
          ],
          [
            -99.17773,
            18.77429,
            0
          ],
          [
            -99.17787,
            18.77431,
            0
          ],
          [
            -99.17794,
            18.77432,
            0
          ],
          [
            -99.17799,
            18.77432,
            0
          ],
          [
            -99.17803,
            18.77433,
            0
          ],
          [
            -99.17808,
            18.77435,
            0
          ],
          [
            -99.17812,
            18.77437,
            0
          ],
          [
            -99.17815,
            18.77439,
            0
          ],
          [
            -99.17816,
            18.77439,
            0
          ],
          [
            -99.1782,
            18.77443,
            0
          ],
          [
            -99.17827,
            18.77449,
            0
          ],
          [
            -99.17833,
            18.77456,
            0
          ],
          [
            -99.1784,
            18.77464,
            0
          ],
          [
            -99.1784,
            18.77465,
            0
          ],
          [
            -99.17843,
            18.7747,
            0
          ],
          [
            -99.17848,
            18.77476,
            0
          ],
          [
            -99.17852,
            18.77484,
            0
          ],
          [
            -99.17856,
            18.77492,
            0
          ],
          [
            -99.17862,
            18.77505,
            0
          ],
          [
            -99.17869,
            18.77521,
            0
          ],
          [
            -99.17876,
            18.77538,
            0
          ],
          [
            -99.17883,
            18.77559,
            0
          ],
          [
            -99.17887,
            18.77568,
            0
          ],
          [
            -99.17891,
            18.77581,
            0
          ],
          [
            -99.17922,
            18.77666,
            0
          ],
          [
            -99.17926,
            18.77677,
            0
          ],
          [
            -99.17929,
            18.77687,
            0
          ],
          [
            -99.17931,
            18.77695,
            0
          ],
          [
            -99.17933,
            18.77701,
            0
          ],
          [
            -99.17935,
            18.77712,
            0
          ],
          [
            -99.17937,
            18.77723,
            0
          ],
          [
            -99.17938,
            18.77731,
            0
          ],
          [
            -99.17939,
            18.77736,
            0
          ],
          [
            -99.17941,
            18.7774,
            0
          ],
          [
            -99.17944,
            18.77746,
            0
          ],
          [
            -99.17948,
            18.77755,
            0
          ],
          [
            -99.17952,
            18.77763,
            0
          ],
          [
            -99.17957,
            18.77772,
            0
          ],
          [
            -99.17962,
            18.77782,
            0
          ],
          [
            -99.17966,
            18.77788,
            0
          ],
          [
            -99.17979,
            18.77807,
            0
          ],
          [
            -99.17989,
            18.77824,
            0
          ],
          [
            -99.17993,
            18.77831,
            0
          ],
          [
            -99.17995,
            18.77837,
            0
          ],
          [
            -99.17997,
            18.77842,
            0
          ],
          [
            -99.17998,
            18.77846,
            0
          ],
          [
            -99.17998,
            18.77854,
            0
          ],
          [
            -99.17999,
            18.77861,
            0
          ],
          [
            -99.17998,
            18.77868,
            0
          ],
          [
            -99.17996,
            18.77882,
            0
          ],
          [
            -99.17993,
            18.77897,
            0
          ],
          [
            -99.17992,
            18.77912,
            0
          ],
          [
            -99.17991,
            18.77919,
            0
          ],
          [
            -99.17991,
            18.77922,
            0
          ],
          [
            -99.17991,
            18.77928,
            0
          ],
          [
            -99.17991,
            18.77933,
            0
          ],
          [
            -99.17991,
            18.77937,
            0
          ],
          [
            -99.17992,
            18.77939,
            0
          ],
          [
            -99.17994,
            18.77942,
            0
          ],
          [
            -99.17996,
            18.77946,
            0
          ],
          [
            -99.17998,
            18.77949,
            0
          ],
          [
            -99.18001,
            18.77952,
            0
          ],
          [
            -99.18006,
            18.77956,
            0
          ],
          [
            -99.18017,
            18.77966,
            0
          ],
          [
            -99.18029,
            18.77975,
            0
          ],
          [
            -99.18038,
            18.77984,
            0
          ],
          [
            -99.18047,
            18.77993,
            0
          ],
          [
            -99.18058,
            18.78003,
            0
          ],
          [
            -99.18065,
            18.78011,
            0
          ],
          [
            -99.1807,
            18.78016,
            0
          ],
          [
            -99.18073,
            18.78021,
            0
          ],
          [
            -99.18076,
            18.78026,
            0
          ],
          [
            -99.18078,
            18.78031,
            0
          ],
          [
            -99.18079,
            18.78036,
            0
          ],
          [
            -99.1808,
            18.7804,
            0
          ],
          [
            -99.1808,
            18.78046,
            0
          ],
          [
            -99.1808,
            18.78054,
            0
          ],
          [
            -99.1808,
            18.78066,
            0
          ],
          [
            -99.1808,
            18.78079,
            0
          ],
          [
            -99.18079,
            18.78088,
            0
          ],
          [
            -99.18079,
            18.78094,
            0
          ],
          [
            -99.18079,
            18.78103,
            0
          ],
          [
            -99.18079,
            18.78117,
            0
          ],
          [
            -99.1808,
            18.78135,
            0
          ],
          [
            -99.1808,
            18.78143,
            0
          ],
          [
            -99.18081,
            18.78148,
            0
          ],
          [
            -99.18081,
            18.78152,
            0
          ],
          [
            -99.18083,
            18.78158,
            0
          ],
          [
            -99.18086,
            18.78167,
            0
          ],
          [
            -99.18087,
            18.78174,
            0
          ],
          [
            -99.18089,
            18.78179,
            0
          ],
          [
            -99.18089,
            18.78184,
            0
          ],
          [
            -99.1809,
            18.78191,
            0
          ],
          [
            -99.18073,
            18.78301,
            0
          ],
          [
            -99.18058,
            18.78394,
            0
          ],
          [
            -99.18054,
            18.78419,
            0
          ],
          [
            -99.18054,
            18.78423,
            0
          ],
          [
            -99.18052,
            18.78428,
            0
          ],
          [
            -99.1805,
            18.78432,
            0
          ],
          [
            -99.18049,
            18.78435,
            0
          ],
          [
            -99.18046,
            18.78439,
            0
          ],
          [
            -99.18042,
            18.78444,
            0
          ],
          [
            -99.18034,
            18.78452,
            0
          ],
          [
            -99.18026,
            18.7846,
            0
          ],
          [
            -99.18021,
            18.78464,
            0
          ],
          [
            -99.18019,
            18.78468,
            0
          ],
          [
            -99.18015,
            18.78472,
            0
          ],
          [
            -99.18014,
            18.78478,
            0
          ],
          [
            -99.18012,
            18.78486,
            0
          ],
          [
            -99.18009,
            18.78501,
            0
          ],
          [
            -99.18005,
            18.78532,
            0
          ],
          [
            -99.18004,
            18.78547,
            0
          ],
          [
            -99.18003,
            18.78557,
            0
          ],
          [
            -99.18003,
            18.78567,
            0
          ],
          [
            -99.18003,
            18.78577,
            0
          ],
          [
            -99.18004,
            18.78583,
            0
          ],
          [
            -99.18004,
            18.78591,
            0
          ],
          [
            -99.18005,
            18.78599,
            0
          ],
          [
            -99.18009,
            18.78623,
            0
          ],
          [
            -99.18013,
            18.78642,
            0
          ],
          [
            -99.18014,
            18.78651,
            0
          ],
          [
            -99.18015,
            18.78657,
            0
          ],
          [
            -99.18015,
            18.78666,
            0
          ],
          [
            -99.18015,
            18.78674,
            0
          ],
          [
            -99.18015,
            18.78714,
            0
          ],
          [
            -99.18015,
            18.78721,
            0
          ],
          [
            -99.18016,
            18.78727,
            0
          ],
          [
            -99.18017,
            18.78732,
            0
          ],
          [
            -99.18019,
            18.78739,
            0
          ],
          [
            -99.18022,
            18.78749,
            0
          ],
          [
            -99.18023,
            18.78753,
            0
          ],
          [
            -99.18025,
            18.78759,
            0
          ],
          [
            -99.1803,
            18.7877,
            0
          ],
          [
            -99.18031,
            18.78773,
            0
          ],
          [
            -99.18043,
            18.78803,
            0
          ],
          [
            -99.18051,
            18.78825,
            0
          ],
          [
            -99.18054,
            18.78832,
            0
          ],
          [
            -99.18055,
            18.78838,
            0
          ],
          [
            -99.18056,
            18.78841,
            0
          ],
          [
            -99.18057,
            18.78848,
            0
          ],
          [
            -99.18059,
            18.78856,
            0
          ],
          [
            -99.18059,
            18.78863,
            0
          ],
          [
            -99.1806,
            18.78869,
            0
          ],
          [
            -99.1806,
            18.78875,
            0
          ],
          [
            -99.1806,
            18.78882,
            0
          ],
          [
            -99.18059,
            18.78887,
            0
          ],
          [
            -99.18058,
            18.78892,
            0
          ],
          [
            -99.18056,
            18.78898,
            0
          ],
          [
            -99.18054,
            18.78904,
            0
          ],
          [
            -99.18052,
            18.78909,
            0
          ],
          [
            -99.18048,
            18.78916,
            0
          ],
          [
            -99.1804,
            18.78927,
            0
          ],
          [
            -99.18032,
            18.7894,
            0
          ],
          [
            -99.18027,
            18.78948,
            0
          ],
          [
            -99.18022,
            18.78955,
            0
          ],
          [
            -99.1802,
            18.7896,
            0
          ],
          [
            -99.18018,
            18.78964,
            0
          ],
          [
            -99.18016,
            18.7897,
            0
          ],
          [
            -99.18015,
            18.78975,
            0
          ],
          [
            -99.18013,
            18.78983,
            0
          ],
          [
            -99.18012,
            18.78995,
            0
          ],
          [
            -99.18003,
            18.79063,
            0
          ],
          [
            -99.18003,
            18.79066,
            0
          ],
          [
            -99.18001,
            18.79076,
            0
          ],
          [
            -99.18,
            18.79085,
            0
          ],
          [
            -99.17997,
            18.79096,
            0
          ],
          [
            -99.17995,
            18.79106,
            0
          ],
          [
            -99.17991,
            18.7912,
            0
          ],
          [
            -99.17985,
            18.7914,
            0
          ],
          [
            -99.17981,
            18.79157,
            0
          ],
          [
            -99.1798,
            18.79165,
            0
          ],
          [
            -99.17979,
            18.79173,
            0
          ],
          [
            -99.17978,
            18.79183,
            0
          ],
          [
            -99.17977,
            18.7919,
            0
          ],
          [
            -99.17977,
            18.79198,
            0
          ],
          [
            -99.17978,
            18.79203,
            0
          ],
          [
            -99.17979,
            18.79208,
            0
          ],
          [
            -99.1798,
            18.79211,
            0
          ],
          [
            -99.17982,
            18.79214,
            0
          ],
          [
            -99.17984,
            18.79217,
            0
          ],
          [
            -99.17987,
            18.7922,
            0
          ],
          [
            -99.1799,
            18.79224,
            0
          ],
          [
            -99.17994,
            18.79226,
            0
          ],
          [
            -99.18007,
            18.79235,
            0
          ],
          [
            -99.18013,
            18.79239,
            0
          ],
          [
            -99.18019,
            18.79243,
            0
          ],
          [
            -99.18022,
            18.79246,
            0
          ],
          [
            -99.18028,
            18.79252,
            0
          ],
          [
            -99.18032,
            18.79257,
            0
          ],
          [
            -99.18037,
            18.79264,
            0
          ],
          [
            -99.18043,
            18.79273,
            0
          ],
          [
            -99.18049,
            18.79284,
            0
          ],
          [
            -99.18054,
            18.79291,
            0
          ],
          [
            -99.18059,
            18.79297,
            0
          ],
          [
            -99.18064,
            18.79301,
            0
          ],
          [
            -99.18071,
            18.79306,
            0
          ],
          [
            -99.18087,
            18.79316,
            0
          ],
          [
            -99.18104,
            18.79326,
            0
          ],
          [
            -99.18115,
            18.79333,
            0
          ],
          [
            -99.18121,
            18.79338,
            0
          ],
          [
            -99.18126,
            18.79342,
            0
          ],
          [
            -99.18129,
            18.79346,
            0
          ],
          [
            -99.18133,
            18.7935,
            0
          ],
          [
            -99.18137,
            18.79357,
            0
          ],
          [
            -99.1814,
            18.79364,
            0
          ],
          [
            -99.18142,
            18.7937,
            0
          ],
          [
            -99.18142,
            18.79374,
            0
          ],
          [
            -99.18143,
            18.79379,
            0
          ],
          [
            -99.18143,
            18.79384,
            0
          ],
          [
            -99.18142,
            18.79389,
            0
          ],
          [
            -99.18141,
            18.79393,
            0
          ],
          [
            -99.18139,
            18.79403,
            0
          ],
          [
            -99.18136,
            18.79412,
            0
          ],
          [
            -99.18135,
            18.79418,
            0
          ],
          [
            -99.18134,
            18.79425,
            0
          ],
          [
            -99.18133,
            18.79437,
            0
          ],
          [
            -99.18133,
            18.79449,
            0
          ],
          [
            -99.18133,
            18.79462,
            0
          ],
          [
            -99.18134,
            18.79474,
            0
          ],
          [
            -99.18136,
            18.79481,
            0
          ],
          [
            -99.18137,
            18.79488,
            0
          ],
          [
            -99.18139,
            18.79493,
            0
          ],
          [
            -99.1814,
            18.79498,
            0
          ],
          [
            -99.18145,
            18.79507,
            0
          ],
          [
            -99.18148,
            18.79512,
            0
          ],
          [
            -99.1815,
            18.79516,
            0
          ],
          [
            -99.18178,
            18.79563,
            0
          ],
          [
            -99.18185,
            18.79576,
            0
          ],
          [
            -99.18191,
            18.79588,
            0
          ],
          [
            -99.18205,
            18.796,
            0
          ],
          [
            -99.18218,
            18.79607,
            0
          ],
          [
            -99.18236,
            18.79614,
            0
          ],
          [
            -99.18268,
            18.7962,
            0
          ],
          [
            -99.18398,
            18.79621,
            0
          ],
          [
            -99.18411,
            18.79622,
            0
          ],
          [
            -99.18416,
            18.79623,
            0
          ],
          [
            -99.18422,
            18.79626,
            0
          ],
          [
            -99.18423,
            18.79627,
            0
          ],
          [
            -99.18424,
            18.79628,
            0
          ],
          [
            -99.18427,
            18.79631,
            0
          ],
          [
            -99.18428,
            18.79633,
            0
          ],
          [
            -99.18431,
            18.79637,
            0
          ],
          [
            -99.18433,
            18.79641,
            0
          ],
          [
            -99.18434,
            18.79645,
            0
          ],
          [
            -99.18435,
            18.79647,
            0
          ],
          [
            -99.18436,
            18.79652,
            0
          ],
          [
            -99.18437,
            18.79656,
            0
          ],
          [
            -99.18437,
            18.79661,
            0
          ],
          [
            -99.18435,
            18.79685,
            0
          ],
          [
            -99.18435,
            18.79688,
            0
          ],
          [
            -99.18433,
            18.79718,
            0
          ],
          [
            -99.18429,
            18.79752,
            0
          ],
          [
            -99.18423,
            18.79804,
            0
          ],
          [
            -99.18421,
            18.79834,
            0
          ],
          [
            -99.18416,
            18.79881,
            0
          ],
          [
            -99.18408,
            18.79947,
            0
          ],
          [
            -99.18402,
            18.80015,
            0
          ],
          [
            -99.18399,
            18.80047,
            0
          ],
          [
            -99.18399,
            18.80053,
            0
          ],
          [
            -99.184,
            18.80058,
            0
          ],
          [
            -99.18401,
            18.80061,
            0
          ],
          [
            -99.18402,
            18.80063,
            0
          ],
          [
            -99.18407,
            18.80069,
            0
          ],
          [
            -99.18417,
            18.80077,
            0
          ],
          [
            -99.18425,
            18.80079,
            0
          ],
          [
            -99.18428,
            18.8008,
            0
          ],
          [
            -99.18433,
            18.80083,
            0
          ],
          [
            -99.18439,
            18.80085,
            0
          ],
          [
            -99.1844,
            18.80107,
            0
          ],
          [
            -99.18442,
            18.80114,
            0
          ],
          [
            -99.18443,
            18.80121,
            0
          ],
          [
            -99.18446,
            18.80126,
            0
          ],
          [
            -99.18448,
            18.8013,
            0
          ],
          [
            -99.18451,
            18.80134,
            0
          ],
          [
            -99.18458,
            18.80142,
            0
          ],
          [
            -99.18469,
            18.80153,
            0
          ],
          [
            -99.18475,
            18.80159,
            0
          ],
          [
            -99.18484,
            18.80165,
            0
          ],
          [
            -99.18498,
            18.80174,
            0
          ],
          [
            -99.18514,
            18.8018,
            0
          ],
          [
            -99.18534,
            18.80184,
            0
          ],
          [
            -99.18571,
            18.80189,
            0
          ],
          [
            -99.18599,
            18.80192,
            0
          ],
          [
            -99.18616,
            18.80193,
            0
          ],
          [
            -99.18628,
            18.80194,
            0
          ],
          [
            -99.18641,
            18.80193,
            0
          ],
          [
            -99.1865,
            18.80193,
            0
          ],
          [
            -99.18663,
            18.80191,
            0
          ],
          [
            -99.1869,
            18.80187,
            0
          ],
          [
            -99.18712,
            18.80184,
            0
          ],
          [
            -99.18738,
            18.80182,
            0
          ],
          [
            -99.18756,
            18.80182,
            0
          ],
          [
            -99.18785,
            18.80186,
            0
          ],
          [
            -99.1882,
            18.80192,
            0
          ],
          [
            -99.18841,
            18.80197,
            0
          ],
          [
            -99.18926,
            18.80216,
            0
          ],
          [
            -99.19267,
            18.80284,
            0
          ],
          [
            -99.19277,
            18.80286,
            0
          ],
          [
            -99.19288,
            18.80288,
            0
          ],
          [
            -99.19372,
            18.80303,
            0
          ],
          [
            -99.19397,
            18.80308,
            0
          ],
          [
            -99.19481,
            18.80324,
            0
          ],
          [
            -99.19571,
            18.80341,
            0
          ]
        ]
      },
      "properties": {
        "name": "Indicaciones de Calle Revolución 3, Temimilcingo, Mor., México a Francisco I. Madero o.5, Loma Bonita, Chiconcuac, Mor., México",
        "styleUrl": "#line-1267FF-5000-nodesc",
        "stroke-opacity": 1,
        "stroke": "#1267ff",
        "stroke-width": 5
      }
    }
  ]
}