{
  "type": "FeatureCollection",
  "features": [
    {
      "type": "Feature",
      "geometry": {
        "type": "LineString",
        "coordinates": [
          [
            -99.23139,
            18.89171,
            0
          ],
          [
            -99.23132,
            18.89172,
            0
          ],
          [
            -99.23068,
            18.89182,
            0
          ],
          [
            -99.23054,
            18.89184,
            0
          ],
          [
            -99.2304,
            18.89186,
            0
          ],
          [
            -99.22985,
            18.89197,
            0
          ],
          [
            -99.22958,
            18.892,
            0
          ],
          [
            -99.22936,
            18.89202,
            0
          ],
          [
            -99.22936,
            18.89218,
            0
          ],
          [
            -99.22936,
            18.89243,
            0
          ],
          [
            -99.22936,
            18.89258,
            0
          ],
          [
            -99.22938,
            18.89296,
            0
          ],
          [
            -99.22938,
            18.89299,
            0
          ],
          [
            -99.2294,
            18.89319,
            0
          ],
          [
            -99.22942,
            18.89335,
            0
          ],
          [
            -99.22943,
            18.89348,
            0
          ],
          [
            -99.22901,
            18.8936,
            0
          ],
          [
            -99.22865,
            18.8937,
            0
          ],
          [
            -99.22847,
            18.89375,
            0
          ],
          [
            -99.22851,
            18.89385,
            0
          ],
          [
            -99.22866,
            18.89419,
            0
          ],
          [
            -99.22883,
            18.89459,
            0
          ],
          [
            -99.2291,
            18.89518,
            0
          ],
          [
            -99.22911,
            18.89519,
            0
          ],
          [
            -99.2294,
            18.89582,
            0
          ],
          [
            -99.22955,
            18.89614,
            0
          ],
          [
            -99.22983,
            18.89672,
            0
          ],
          [
            -99.23004,
            18.89718,
            0
          ],
          [
            -99.23008,
            18.89726,
            0
          ],
          [
            -99.23019,
            18.89751,
            0
          ],
          [
            -99.23033,
            18.89782,
            0
          ],
          [
            -99.23056,
            18.89847,
            0
          ],
          [
            -99.23088,
            18.89942,
            0
          ],
          [
            -99.23105,
            18.89993,
            0
          ],
          [
            -99.23119,
            18.90043,
            0
          ],
          [
            -99.23133,
            18.90094,
            0
          ],
          [
            -99.23141,
            18.90127,
            0
          ],
          [
            -99.23143,
            18.90147,
            0
          ],
          [
            -99.23147,
            18.90192,
            0
          ],
          [
            -99.23154,
            18.90289,
            0
          ],
          [
            -99.23158,
            18.90329,
            0
          ],
          [
            -99.23161,
            18.90364,
            0
          ],
          [
            -99.23163,
            18.90386,
            0
          ],
          [
            -99.23168,
            18.90438,
            0
          ],
          [
            -99.23177,
            18.90501,
            0
          ],
          [
            -99.23187,
            18.90573,
            0
          ],
          [
            -99.23192,
            18.90597,
            0
          ],
          [
            -99.23193,
            18.90601,
            0
          ],
          [
            -99.23197,
            18.90626,
            0
          ],
          [
            -99.23202,
            18.90657,
            0
          ],
          [
            -99.23204,
            18.90666,
            0
          ],
          [
            -99.23206,
            18.90672,
            0
          ],
          [
            -99.23208,
            18.90682,
            0
          ],
          [
            -99.23219,
            18.90703,
            0
          ],
          [
            -99.23227,
            18.9072,
            0
          ],
          [
            -99.23247,
            18.90757,
            0
          ],
          [
            -99.23263,
            18.90787,
            0
          ],
          [
            -99.23316,
            18.90877,
            0
          ],
          [
            -99.23356,
            18.90944,
            0
          ],
          [
            -99.23385,
            18.90996,
            0
          ],
          [
            -99.23399,
            18.9102,
            0
          ],
          [
            -99.23402,
            18.91025,
            0
          ],
          [
            -99.23412,
            18.91042,
            0
          ],
          [
            -99.23418,
            18.91053,
            0
          ],
          [
            -99.23458,
            18.91121,
            0
          ],
          [
            -99.23511,
            18.91213,
            0
          ],
          [
            -99.23561,
            18.91299,
            0
          ],
          [
            -99.23593,
            18.91376,
            0
          ],
          [
            -99.23613,
            18.91422,
            0
          ],
          [
            -99.2365,
            18.91495,
            0
          ],
          [
            -99.23684,
            18.91568,
            0
          ],
          [
            -99.23701,
            18.91604,
            0
          ],
          [
            -99.23705,
            18.91626,
            0
          ],
          [
            -99.23709,
            18.91654,
            0
          ],
          [
            -99.2371,
            18.91656,
            0
          ],
          [
            -99.23712,
            18.91707,
            0
          ],
          [
            -99.23715,
            18.91724,
            0
          ],
          [
            -99.23722,
            18.91801,
            0
          ],
          [
            -99.23727,
            18.91875,
            0
          ],
          [
            -99.23727,
            18.91886,
            0
          ],
          [
            -99.23738,
            18.9196,
            0
          ],
          [
            -99.2374,
            18.91987,
            0
          ],
          [
            -99.23747,
            18.92059,
            0
          ],
          [
            -99.23755,
            18.92114,
            0
          ],
          [
            -99.2377,
            18.92204,
            0
          ],
          [
            -99.23778,
            18.9226,
            0
          ],
          [
            -99.23787,
            18.92328,
            0
          ],
          [
            -99.2379,
            18.92352,
            0
          ],
          [
            -99.23794,
            18.92386,
            0
          ],
          [
            -99.23801,
            18.92446,
            0
          ],
          [
            -99.23804,
            18.92465,
            0
          ],
          [
            -99.23811,
            18.92508,
            0
          ],
          [
            -99.23812,
            18.92514,
            0
          ],
          [
            -99.23814,
            18.9253,
            0
          ],
          [
            -99.23819,
            18.92564,
            0
          ],
          [
            -99.23822,
            18.92583,
            0
          ],
          [
            -99.23825,
            18.926,
            0
          ],
          [
            -99.23829,
            18.92632,
            0
          ],
          [
            -99.23833,
            18.9266,
            0
          ],
          [
            -99.23835,
            18.92685,
            0
          ],
          [
            -99.23836,
            18.92719,
            0
          ],
          [
            -99.23839,
            18.92748,
            0
          ],
          [
            -99.23858,
            18.92875,
            0
          ],
          [
            -99.23865,
            18.92912,
            0
          ],
          [
            -99.23865,
            18.92914,
            0
          ],
          [
            -99.2387,
            18.92932,
            0
          ],
          [
            -99.23899,
            18.93029,
            0
          ],
          [
            -99.23907,
            18.93071,
            0
          ],
          [
            -99.23926,
            18.93152,
            0
          ],
          [
            -99.23941,
            18.93205,
            0
          ],
          [
            -99.23946,
            18.93235,
            0
          ],
          [
            -99.23963,
            18.93308,
            0
          ],
          [
            -99.24004,
            18.93305,
            0
          ],
          [
            -99.24023,
            18.93304,
            0
          ],
          [
            -99.24042,
            18.93302,
            0
          ],
          [
            -99.24061,
            18.93301,
            0
          ],
          [
            -99.24087,
            18.93298,
            0
          ],
          [
            -99.24107,
            18.933,
            0
          ],
          [
            -99.24107,
            18.93301,
            0
          ],
          [
            -99.24107,
            18.93302,
            0
          ],
          [
            -99.24107,
            18.93303,
            0
          ],
          [
            -99.24107,
            18.93304,
            0
          ],
          [
            -99.24108,
            18.93304,
            0
          ],
          [
            -99.24108,
            18.93305,
            0
          ],
          [
            -99.24109,
            18.93305,
            0
          ],
          [
            -99.24109,
            18.93306,
            0
          ],
          [
            -99.2411,
            18.93306,
            0
          ],
          [
            -99.24111,
            18.93306,
            0
          ],
          [
            -99.24112,
            18.93306,
            0
          ],
          [
            -99.24113,
            18.93306,
            0
          ],
          [
            -99.2412,
            18.93321,
            0
          ],
          [
            -99.24133,
            18.93343,
            0
          ],
          [
            -99.24152,
            18.93377,
            0
          ],
          [
            -99.24158,
            18.93391,
            0
          ],
          [
            -99.2417,
            18.93411,
            0
          ],
          [
            -99.24175,
            18.93421,
            0
          ],
          [
            -99.24179,
            18.93424,
            0
          ],
          [
            -99.24184,
            18.93428,
            0
          ],
          [
            -99.2419,
            18.9343,
            0
          ],
          [
            -99.24201,
            18.93431,
            0
          ],
          [
            -99.24228,
            18.93432,
            0
          ],
          [
            -99.24222,
            18.93487,
            0
          ],
          [
            -99.24221,
            18.93515,
            0
          ],
          [
            -99.24227,
            18.93548,
            0
          ],
          [
            -99.24238,
            18.93584,
            0
          ],
          [
            -99.24258,
            18.93642,
            0
          ],
          [
            -99.24262,
            18.93657,
            0
          ],
          [
            -99.24268,
            18.93677,
            0
          ],
          [
            -99.24296,
            18.93674,
            0
          ],
          [
            -99.24297,
            18.93674,
            0
          ],
          [
            -99.24353,
            18.93665,
            0
          ],
          [
            -99.24377,
            18.93662,
            0
          ],
          [
            -99.24389,
            18.93661,
            0
          ],
          [
            -99.24427,
            18.93655,
            0
          ],
          [
            -99.24454,
            18.93651,
            0
          ],
          [
            -99.24476,
            18.93648,
            0
          ],
          [
            -99.24492,
            18.93645,
            0
          ],
          [
            -99.2451,
            18.93642,
            0
          ],
          [
            -99.2454,
            18.93637,
            0
          ],
          [
            -99.24552,
            18.93636,
            0
          ],
          [
            -99.24573,
            18.93669,
            0
          ],
          [
            -99.24589,
            18.93692,
            0
          ],
          [
            -99.24596,
            18.93702,
            0
          ],
          [
            -99.24616,
            18.93732,
            0
          ],
          [
            -99.24631,
            18.93749,
            0
          ],
          [
            -99.24665,
            18.93783,
            0
          ],
          [
            -99.24674,
            18.93792,
            0
          ],
          [
            -99.24678,
            18.93798,
            0
          ],
          [
            -99.2468,
            18.93803,
            0
          ],
          [
            -99.24683,
            18.93812,
            0
          ],
          [
            -99.24683,
            18.93844,
            0
          ],
          [
            -99.24681,
            18.93863,
            0
          ],
          [
            -99.24678,
            18.93888,
            0
          ],
          [
            -99.24671,
            18.93915,
            0
          ],
          [
            -99.24665,
            18.93931,
            0
          ],
          [
            -99.24662,
            18.93944,
            0
          ],
          [
            -99.24655,
            18.93973,
            0
          ],
          [
            -99.24653,
            18.93982,
            0
          ],
          [
            -99.24646,
            18.93996,
            0
          ],
          [
            -99.24635,
            18.94012,
            0
          ],
          [
            -99.24629,
            18.9402,
            0
          ],
          [
            -99.24617,
            18.94031,
            0
          ],
          [
            -99.24617,
            18.9403,
            0
          ],
          [
            -99.24616,
            18.9403,
            0
          ],
          [
            -99.24616,
            18.94029,
            0
          ],
          [
            -99.24615,
            18.94029,
            0
          ],
          [
            -99.24615,
            18.94028,
            0
          ],
          [
            -99.24614,
            18.94028,
            0
          ],
          [
            -99.24613,
            18.94028,
            0
          ],
          [
            -99.24613,
            18.94027,
            0
          ],
          [
            -99.24612,
            18.94027,
            0
          ],
          [
            -99.24611,
            18.94027,
            0
          ],
          [
            -99.2461,
            18.94027,
            0
          ],
          [
            -99.24609,
            18.94027,
            0
          ],
          [
            -99.24608,
            18.94027,
            0
          ],
          [
            -99.24607,
            18.94027,
            0
          ],
          [
            -99.24606,
            18.94027,
            0
          ],
          [
            -99.24606,
            18.94028,
            0
          ],
          [
            -99.24605,
            18.94028,
            0
          ],
          [
            -99.24604,
            18.94028,
            0
          ],
          [
            -99.24604,
            18.94029,
            0
          ],
          [
            -99.24603,
            18.94029,
            0
          ],
          [
            -99.24603,
            18.9403,
            0
          ],
          [
            -99.24602,
            18.9403,
            0
          ],
          [
            -99.24602,
            18.94031,
            0
          ],
          [
            -99.24601,
            18.94032,
            0
          ],
          [
            -99.24601,
            18.94033,
            0
          ],
          [
            -99.24601,
            18.94034,
            0
          ],
          [
            -99.24601,
            18.94035,
            0
          ],
          [
            -99.24601,
            18.94036,
            0
          ],
          [
            -99.24601,
            18.94037,
            0
          ],
          [
            -99.24601,
            18.94038,
            0
          ],
          [
            -99.24601,
            18.94039,
            0
          ],
          [
            -99.24602,
            18.94039,
            0
          ],
          [
            -99.24602,
            18.9404,
            0
          ],
          [
            -99.24602,
            18.94041,
            0
          ],
          [
            -99.24603,
            18.94041,
            0
          ],
          [
            -99.24604,
            18.94042,
            0
          ],
          [
            -99.24601,
            18.94047,
            0
          ],
          [
            -99.24599,
            18.94054,
            0
          ],
          [
            -99.24594,
            18.94067,
            0
          ],
          [
            -99.2459,
            18.94091,
            0
          ],
          [
            -99.24587,
            18.9412,
            0
          ],
          [
            -99.24584,
            18.94131,
            0
          ],
          [
            -99.24578,
            18.94146,
            0
          ],
          [
            -99.24563,
            18.94183,
            0
          ],
          [
            -99.24557,
            18.942,
            0
          ],
          [
            -99.2455,
            18.94222,
            0
          ],
          [
            -99.24547,
            18.94243,
            0
          ],
          [
            -99.24541,
            18.94281,
            0
          ],
          [
            -99.24531,
            18.94352,
            0
          ],
          [
            -99.24528,
            18.94373,
            0
          ],
          [
            -99.24517,
            18.94417,
            0
          ],
          [
            -99.24497,
            18.94493,
            0
          ],
          [
            -99.24492,
            18.94505,
            0
          ],
          [
            -99.2449,
            18.94532,
            0
          ],
          [
            -99.24486,
            18.94565,
            0
          ],
          [
            -99.24481,
            18.94598,
            0
          ],
          [
            -99.24476,
            18.94627,
            0
          ],
          [
            -99.24474,
            18.94644,
            0
          ],
          [
            -99.24474,
            18.94649,
            0
          ],
          [
            -99.24478,
            18.94651,
            0
          ],
          [
            -99.24484,
            18.94654,
            0
          ],
          [
            -99.24493,
            18.94659,
            0
          ],
          [
            -99.24503,
            18.94664,
            0
          ],
          [
            -99.24507,
            18.94667,
            0
          ],
          [
            -99.24515,
            18.94671,
            0
          ],
          [
            -99.24517,
            18.94672,
            0
          ],
          [
            -99.24525,
            18.94676,
            0
          ],
          [
            -99.24534,
            18.94682,
            0
          ],
          [
            -99.24542,
            18.94687,
            0
          ],
          [
            -99.24547,
            18.94691,
            0
          ],
          [
            -99.24555,
            18.94698,
            0
          ],
          [
            -99.2456,
            18.94706,
            0
          ],
          [
            -99.24563,
            18.94712,
            0
          ],
          [
            -99.24564,
            18.9472,
            0
          ],
          [
            -99.24566,
            18.94726,
            0
          ],
          [
            -99.24572,
            18.94778,
            0
          ],
          [
            -99.24572,
            18.94793,
            0
          ],
          [
            -99.24578,
            18.94937,
            0
          ],
          [
            -99.24581,
            18.94984,
            0
          ],
          [
            -99.24608,
            18.94975,
            0
          ],
          [
            -99.24631,
            18.94969,
            0
          ],
          [
            -99.2465,
            18.94965,
            0
          ],
          [
            -99.24656,
            18.94964,
            0
          ],
          [
            -99.24662,
            18.94964,
            0
          ],
          [
            -99.24667,
            18.94965,
            0
          ],
          [
            -99.24668,
            18.94966,
            0
          ],
          [
            -99.24672,
            18.94967,
            0
          ],
          [
            -99.24696,
            18.94973,
            0
          ],
          [
            -99.24722,
            18.9498,
            0
          ],
          [
            -99.24736,
            18.94983,
            0
          ],
          [
            -99.24753,
            18.94988,
            0
          ],
          [
            -99.24771,
            18.94994,
            0
          ],
          [
            -99.24794,
            18.95,
            0
          ],
          [
            -99.2481,
            18.95006,
            0
          ],
          [
            -99.24821,
            18.95013,
            0
          ],
          [
            -99.24827,
            18.95018,
            0
          ],
          [
            -99.24837,
            18.95029,
            0
          ],
          [
            -99.2485,
            18.95044,
            0
          ],
          [
            -99.24864,
            18.95062,
            0
          ],
          [
            -99.24886,
            18.95088,
            0
          ],
          [
            -99.24896,
            18.951,
            0
          ],
          [
            -99.24941,
            18.95159,
            0
          ],
          [
            -99.24951,
            18.95171,
            0
          ],
          [
            -99.24974,
            18.95202,
            0
          ],
          [
            -99.24991,
            18.95225,
            0
          ],
          [
            -99.24994,
            18.95228,
            0
          ],
          [
            -99.25011,
            18.95258,
            0
          ],
          [
            -99.25027,
            18.95285,
            0
          ],
          [
            -99.25033,
            18.95295,
            0
          ],
          [
            -99.25049,
            18.95322,
            0
          ],
          [
            -99.25127,
            18.95448,
            0
          ],
          [
            -99.25141,
            18.95471,
            0
          ],
          [
            -99.2515,
            18.95485,
            0
          ],
          [
            -99.25155,
            18.95494,
            0
          ],
          [
            -99.25172,
            18.95512,
            0
          ],
          [
            -99.25199,
            18.95556,
            0
          ],
          [
            -99.25201,
            18.95561,
            0
          ],
          [
            -99.25207,
            18.95573,
            0
          ],
          [
            -99.25234,
            18.95618,
            0
          ],
          [
            -99.25262,
            18.95662,
            0
          ],
          [
            -99.25281,
            18.95692,
            0
          ],
          [
            -99.25314,
            18.95747,
            0
          ],
          [
            -99.25317,
            18.95752,
            0
          ],
          [
            -99.25337,
            18.95784,
            0
          ],
          [
            -99.25351,
            18.95809,
            0
          ],
          [
            -99.25354,
            18.95816,
            0
          ],
          [
            -99.25356,
            18.95822,
            0
          ],
          [
            -99.25358,
            18.95828,
            0
          ],
          [
            -99.25361,
            18.95836,
            0
          ],
          [
            -99.25374,
            18.95882,
            0
          ],
          [
            -99.25377,
            18.95895,
            0
          ],
          [
            -99.25378,
            18.959,
            0
          ],
          [
            -99.25383,
            18.95957,
            0
          ],
          [
            -99.25385,
            18.95994,
            0
          ],
          [
            -99.25386,
            18.95996,
            0
          ],
          [
            -99.25388,
            18.96033,
            0
          ],
          [
            -99.25392,
            18.96083,
            0
          ],
          [
            -99.25393,
            18.96101,
            0
          ],
          [
            -99.25395,
            18.96111,
            0
          ],
          [
            -99.25397,
            18.96119,
            0
          ],
          [
            -99.254,
            18.96126,
            0
          ],
          [
            -99.25405,
            18.96137,
            0
          ],
          [
            -99.2541,
            18.96147,
            0
          ],
          [
            -99.25418,
            18.96156,
            0
          ],
          [
            -99.25426,
            18.96165,
            0
          ],
          [
            -99.25427,
            18.96166,
            0
          ],
          [
            -99.25433,
            18.96174,
            0
          ],
          [
            -99.25438,
            18.96182,
            0
          ],
          [
            -99.25441,
            18.96189,
            0
          ],
          [
            -99.25444,
            18.96197,
            0
          ],
          [
            -99.25445,
            18.96205,
            0
          ],
          [
            -99.25444,
            18.96212,
            0
          ],
          [
            -99.25443,
            18.96221,
            0
          ],
          [
            -99.25441,
            18.96228,
            0
          ],
          [
            -99.25429,
            18.96265,
            0
          ],
          [
            -99.25425,
            18.96276,
            0
          ],
          [
            -99.25423,
            18.96281,
            0
          ],
          [
            -99.25419,
            18.96285,
            0
          ],
          [
            -99.25414,
            18.9629,
            0
          ],
          [
            -99.2541,
            18.96293,
            0
          ],
          [
            -99.25407,
            18.96295,
            0
          ],
          [
            -99.25401,
            18.96298,
            0
          ],
          [
            -99.25399,
            18.96299,
            0
          ],
          [
            -99.25361,
            18.96314,
            0
          ],
          [
            -99.2532,
            18.96334,
            0
          ],
          [
            -99.25335,
            18.96364,
            0
          ],
          [
            -99.25346,
            18.96396,
            0
          ],
          [
            -99.25343,
            18.96416,
            0
          ],
          [
            -99.25341,
            18.96433,
            0
          ],
          [
            -99.25335,
            18.96452,
            0
          ],
          [
            -99.25324,
            18.96479,
            0
          ],
          [
            -99.25316,
            18.96504,
            0
          ],
          [
            -99.25309,
            18.96536,
            0
          ],
          [
            -99.25306,
            18.96552,
            0
          ],
          [
            -99.25305,
            18.96557,
            0
          ],
          [
            -99.25305,
            18.96565,
            0
          ],
          [
            -99.25306,
            18.96567,
            0
          ],
          [
            -99.25307,
            18.96578,
            0
          ],
          [
            -99.25309,
            18.96598,
            0
          ],
          [
            -99.2531,
            18.96605,
            0
          ],
          [
            -99.25318,
            18.96626,
            0
          ],
          [
            -99.2531,
            18.96635,
            0
          ],
          [
            -99.25303,
            18.96642,
            0
          ],
          [
            -99.25281,
            18.96642,
            0
          ],
          [
            -99.25267,
            18.96643,
            0
          ],
          [
            -99.25255,
            18.96644,
            0
          ],
          [
            -99.25244,
            18.96648,
            0
          ],
          [
            -99.25231,
            18.96653,
            0
          ],
          [
            -99.25224,
            18.96659,
            0
          ],
          [
            -99.25213,
            18.96669,
            0
          ],
          [
            -99.25201,
            18.96683,
            0
          ],
          [
            -99.25197,
            18.9669,
            0
          ],
          [
            -99.25189,
            18.967,
            0
          ],
          [
            -99.25174,
            18.96715,
            0
          ],
          [
            -99.25182,
            18.96729,
            0
          ],
          [
            -99.25186,
            18.96734,
            0
          ],
          [
            -99.25191,
            18.96737,
            0
          ],
          [
            -99.25193,
            18.96738,
            0
          ],
          [
            -99.25202,
            18.96742,
            0
          ],
          [
            -99.25182,
            18.96782,
            0
          ],
          [
            -99.25173,
            18.96802,
            0
          ],
          [
            -99.25165,
            18.96826,
            0
          ],
          [
            -99.25158,
            18.96861,
            0
          ],
          [
            -99.25157,
            18.96866,
            0
          ],
          [
            -99.25161,
            18.96872,
            0
          ],
          [
            -99.25161,
            18.96874,
            0
          ],
          [
            -99.25168,
            18.96926,
            0
          ],
          [
            -99.25169,
            18.96935,
            0
          ],
          [
            -99.25174,
            18.96951,
            0
          ],
          [
            -99.25182,
            18.96964,
            0
          ],
          [
            -99.25189,
            18.96974,
            0
          ],
          [
            -99.25195,
            18.96981,
            0
          ],
          [
            -99.25202,
            18.96985,
            0
          ],
          [
            -99.25204,
            18.96986,
            0
          ],
          [
            -99.25213,
            18.9699,
            0
          ],
          [
            -99.25231,
            18.96997,
            0
          ],
          [
            -99.25259,
            18.97007,
            0
          ],
          [
            -99.25277,
            18.97015,
            0
          ],
          [
            -99.25322,
            18.97042,
            0
          ],
          [
            -99.25323,
            18.97042,
            0
          ],
          [
            -99.25329,
            18.97048,
            0
          ],
          [
            -99.25333,
            18.97055,
            0
          ],
          [
            -99.25336,
            18.97064,
            0
          ],
          [
            -99.25337,
            18.97077,
            0
          ],
          [
            -99.25336,
            18.97096,
            0
          ],
          [
            -99.25333,
            18.97123,
            0
          ],
          [
            -99.25336,
            18.9716,
            0
          ],
          [
            -99.25338,
            18.97195,
            0
          ],
          [
            -99.25341,
            18.97215,
            0
          ],
          [
            -99.25344,
            18.97228,
            0
          ],
          [
            -99.2535,
            18.97264,
            0
          ],
          [
            -99.25351,
            18.97271,
            0
          ],
          [
            -99.25354,
            18.97285,
            0
          ],
          [
            -99.2536,
            18.97319,
            0
          ],
          [
            -99.2537,
            18.97384,
            0
          ],
          [
            -99.25378,
            18.97445,
            0
          ],
          [
            -99.25382,
            18.97472,
            0
          ],
          [
            -99.25391,
            18.97521,
            0
          ],
          [
            -99.254,
            18.97574,
            0
          ],
          [
            -99.25489,
            18.9757,
            0
          ],
          [
            -99.25546,
            18.97569,
            0
          ],
          [
            -99.25578,
            18.97569,
            0
          ],
          [
            -99.25636,
            18.97565,
            0
          ],
          [
            -99.25642,
            18.97565,
            0
          ],
          [
            -99.25668,
            18.97562,
            0
          ],
          [
            -99.25702,
            18.9756,
            0
          ],
          [
            -99.25759,
            18.97555,
            0
          ],
          [
            -99.2585,
            18.97548,
            0
          ],
          [
            -99.25858,
            18.97546,
            0
          ],
          [
            -99.25868,
            18.97545,
            0
          ],
          [
            -99.25874,
            18.97545,
            0
          ],
          [
            -99.25883,
            18.97546,
            0
          ],
          [
            -99.2589,
            18.97547,
            0
          ],
          [
            -99.25895,
            18.97549,
            0
          ],
          [
            -99.25897,
            18.9755,
            0
          ],
          [
            -99.25902,
            18.97551,
            0
          ],
          [
            -99.2591,
            18.97557,
            0
          ],
          [
            -99.25917,
            18.97562,
            0
          ],
          [
            -99.2593,
            18.97577,
            0
          ],
          [
            -99.25936,
            18.97583,
            0
          ],
          [
            -99.25941,
            18.97586,
            0
          ],
          [
            -99.25946,
            18.97587,
            0
          ],
          [
            -99.25951,
            18.97586,
            0
          ],
          [
            -99.25956,
            18.97585,
            0
          ],
          [
            -99.25962,
            18.9758,
            0
          ],
          [
            -99.25966,
            18.97575,
            0
          ],
          [
            -99.25969,
            18.97571,
            0
          ],
          [
            -99.25978,
            18.9754,
            0
          ],
          [
            -99.2598,
            18.97533,
            0
          ],
          [
            -99.25981,
            18.97531,
            0
          ],
          [
            -99.25983,
            18.97527,
            0
          ],
          [
            -99.25986,
            18.97522,
            0
          ],
          [
            -99.25989,
            18.97518,
            0
          ],
          [
            -99.26009,
            18.97499,
            0
          ],
          [
            -99.26014,
            18.97496,
            0
          ],
          [
            -99.26019,
            18.97493,
            0
          ],
          [
            -99.26026,
            18.97491,
            0
          ],
          [
            -99.26035,
            18.9749,
            0
          ],
          [
            -99.2605,
            18.97488,
            0
          ],
          [
            -99.26157,
            18.97476,
            0
          ],
          [
            -99.26178,
            18.97473,
            0
          ]
        ]
      },
      "properties": {
        "name": "2.-SANTA MARIA - RANCHO CORTES - MINA 5",
        "description": {
          "@type": "html",
          "value": "descripción: <br>OID: 533<br>ZONA: CENTRO<br>RUTA: RUTA 3<br>ITINERARIO: 2.-SANTA MARÖA - RANCHO CORTS - MINA 5<br>DESCRIPCIO: MINA 5-SANTA MARIA<br>AUTO-AMPL: ITINERARIO<br>DEFIN-PROV: DEFINITIVOS<br>DURACION: DEFINITIVA<br>FOLIO: SGG/DGT/SDP/000528/1997"
        },
        "styleUrl": "#line-817717-1200",
        "stroke-opacity": 1,
        "stroke": "#817717",
        "stroke-width": 1.2,
        "descripción": "",
        "OID": "533",
        "ZONA": "CENTRO",
        "RUTA": "RUTA 3",
        "ITINERARIO": "2.-SANTA MARÖA - RANCHO CORTS - MINA 5",
        "DESCRIPCIO": "MINA 5-SANTA MARIA",
        "AUTO-AMPL": "ITINERARIO",
        "DEFIN-PROV": "DEFINITIVOS",
        "DURACION": "DEFINITIVA",
        "FOLIO": "SGG/DGT/SDP/000528/1997"
      }
    },
    {
      "type": "Feature",
      "geometry": {
        "type": "LineString",
        "coordinates": [
          [
            -99.26162,
            18.97475,
            0
          ],
          [
            -99.26157,
            18.97476,
            0
          ],
          [
            -99.2605,
            18.97488,
            0
          ],
          [
            -99.26035,
            18.9749,
            0
          ],
          [
            -99.26026,
            18.97491,
            0
          ],
          [
            -99.26019,
            18.97493,
            0
          ],
          [
            -99.26014,
            18.97496,
            0
          ],
          [
            -99.26009,
            18.97499,
            0
          ],
          [
            -99.25989,
            18.97518,
            0
          ],
          [
            -99.25986,
            18.97522,
            0
          ],
          [
            -99.25983,
            18.97527,
            0
          ],
          [
            -99.25981,
            18.97531,
            0
          ],
          [
            -99.2598,
            18.97533,
            0
          ],
          [
            -99.25978,
            18.9754,
            0
          ],
          [
            -99.25969,
            18.97571,
            0
          ],
          [
            -99.25966,
            18.97575,
            0
          ],
          [
            -99.25962,
            18.9758,
            0
          ],
          [
            -99.25956,
            18.97585,
            0
          ],
          [
            -99.25951,
            18.97586,
            0
          ],
          [
            -99.25946,
            18.97587,
            0
          ],
          [
            -99.25941,
            18.97586,
            0
          ],
          [
            -99.25936,
            18.97583,
            0
          ],
          [
            -99.2593,
            18.97577,
            0
          ],
          [
            -99.25917,
            18.97562,
            0
          ],
          [
            -99.2591,
            18.97557,
            0
          ],
          [
            -99.25902,
            18.97551,
            0
          ],
          [
            -99.25897,
            18.9755,
            0
          ],
          [
            -99.25895,
            18.97549,
            0
          ],
          [
            -99.2589,
            18.97547,
            0
          ],
          [
            -99.25883,
            18.97546,
            0
          ],
          [
            -99.25874,
            18.97545,
            0
          ],
          [
            -99.25868,
            18.97545,
            0
          ],
          [
            -99.25858,
            18.97546,
            0
          ],
          [
            -99.2585,
            18.97548,
            0
          ],
          [
            -99.25759,
            18.97555,
            0
          ],
          [
            -99.25702,
            18.9756,
            0
          ],
          [
            -99.25668,
            18.97562,
            0
          ],
          [
            -99.25642,
            18.97565,
            0
          ],
          [
            -99.25636,
            18.97565,
            0
          ],
          [
            -99.25578,
            18.97569,
            0
          ],
          [
            -99.25546,
            18.97569,
            0
          ],
          [
            -99.25489,
            18.9757,
            0
          ],
          [
            -99.254,
            18.97574,
            0
          ],
          [
            -99.25391,
            18.97521,
            0
          ],
          [
            -99.25382,
            18.97472,
            0
          ],
          [
            -99.25378,
            18.97445,
            0
          ],
          [
            -99.2537,
            18.97384,
            0
          ],
          [
            -99.2536,
            18.97319,
            0
          ],
          [
            -99.25354,
            18.97285,
            0
          ],
          [
            -99.25351,
            18.97271,
            0
          ],
          [
            -99.2535,
            18.97264,
            0
          ],
          [
            -99.25344,
            18.97228,
            0
          ],
          [
            -99.25341,
            18.97215,
            0
          ],
          [
            -99.25338,
            18.97195,
            0
          ],
          [
            -99.25336,
            18.9716,
            0
          ],
          [
            -99.25333,
            18.97123,
            0
          ],
          [
            -99.25336,
            18.97096,
            0
          ],
          [
            -99.25337,
            18.97077,
            0
          ],
          [
            -99.25336,
            18.97064,
            0
          ],
          [
            -99.25333,
            18.97055,
            0
          ],
          [
            -99.25329,
            18.97048,
            0
          ],
          [
            -99.25323,
            18.97042,
            0
          ],
          [
            -99.25322,
            18.97042,
            0
          ],
          [
            -99.25277,
            18.97015,
            0
          ],
          [
            -99.25259,
            18.97007,
            0
          ],
          [
            -99.25231,
            18.96997,
            0
          ],
          [
            -99.25213,
            18.9699,
            0
          ],
          [
            -99.25204,
            18.96986,
            0
          ],
          [
            -99.25202,
            18.96985,
            0
          ],
          [
            -99.25195,
            18.96981,
            0
          ],
          [
            -99.25189,
            18.96974,
            0
          ],
          [
            -99.25182,
            18.96964,
            0
          ],
          [
            -99.25174,
            18.96951,
            0
          ],
          [
            -99.25169,
            18.96935,
            0
          ],
          [
            -99.25168,
            18.96926,
            0
          ],
          [
            -99.25161,
            18.96874,
            0
          ],
          [
            -99.25161,
            18.96872,
            0
          ],
          [
            -99.25157,
            18.96866,
            0
          ],
          [
            -99.25158,
            18.96861,
            0
          ],
          [
            -99.25165,
            18.96826,
            0
          ],
          [
            -99.25173,
            18.96802,
            0
          ],
          [
            -99.25182,
            18.96782,
            0
          ],
          [
            -99.25202,
            18.96742,
            0
          ],
          [
            -99.25193,
            18.96738,
            0
          ],
          [
            -99.25191,
            18.96737,
            0
          ],
          [
            -99.25186,
            18.96734,
            0
          ],
          [
            -99.25182,
            18.96729,
            0
          ],
          [
            -99.25174,
            18.96715,
            0
          ],
          [
            -99.25189,
            18.967,
            0
          ],
          [
            -99.25197,
            18.9669,
            0
          ],
          [
            -99.25201,
            18.96683,
            0
          ],
          [
            -99.25213,
            18.96669,
            0
          ],
          [
            -99.25224,
            18.96659,
            0
          ],
          [
            -99.25231,
            18.96653,
            0
          ],
          [
            -99.25244,
            18.96648,
            0
          ],
          [
            -99.25255,
            18.96644,
            0
          ],
          [
            -99.25267,
            18.96643,
            0
          ],
          [
            -99.25281,
            18.96642,
            0
          ],
          [
            -99.25303,
            18.96642,
            0
          ],
          [
            -99.2531,
            18.96635,
            0
          ],
          [
            -99.25318,
            18.96626,
            0
          ],
          [
            -99.2531,
            18.96605,
            0
          ],
          [
            -99.25309,
            18.96598,
            0
          ],
          [
            -99.25307,
            18.96578,
            0
          ],
          [
            -99.25306,
            18.96567,
            0
          ],
          [
            -99.25305,
            18.96565,
            0
          ],
          [
            -99.25305,
            18.96557,
            0
          ],
          [
            -99.25306,
            18.96552,
            0
          ],
          [
            -99.25309,
            18.96536,
            0
          ],
          [
            -99.25316,
            18.96504,
            0
          ],
          [
            -99.25324,
            18.96479,
            0
          ],
          [
            -99.25335,
            18.96452,
            0
          ],
          [
            -99.25341,
            18.96433,
            0
          ],
          [
            -99.25343,
            18.96416,
            0
          ],
          [
            -99.25346,
            18.96396,
            0
          ],
          [
            -99.25335,
            18.96364,
            0
          ],
          [
            -99.2532,
            18.96334,
            0
          ],
          [
            -99.25361,
            18.96314,
            0
          ],
          [
            -99.25399,
            18.96299,
            0
          ],
          [
            -99.25401,
            18.96298,
            0
          ],
          [
            -99.25407,
            18.96295,
            0
          ],
          [
            -99.2541,
            18.96293,
            0
          ],
          [
            -99.25414,
            18.9629,
            0
          ],
          [
            -99.25419,
            18.96285,
            0
          ],
          [
            -99.25423,
            18.96281,
            0
          ],
          [
            -99.25425,
            18.96276,
            0
          ],
          [
            -99.25429,
            18.96265,
            0
          ],
          [
            -99.25441,
            18.96228,
            0
          ],
          [
            -99.25443,
            18.96221,
            0
          ],
          [
            -99.25444,
            18.96212,
            0
          ],
          [
            -99.25445,
            18.96205,
            0
          ],
          [
            -99.25444,
            18.96197,
            0
          ],
          [
            -99.25441,
            18.96189,
            0
          ],
          [
            -99.25438,
            18.96182,
            0
          ],
          [
            -99.25433,
            18.96174,
            0
          ],
          [
            -99.25427,
            18.96166,
            0
          ],
          [
            -99.25426,
            18.96165,
            0
          ],
          [
            -99.25418,
            18.96156,
            0
          ],
          [
            -99.2541,
            18.96147,
            0
          ],
          [
            -99.25405,
            18.96137,
            0
          ],
          [
            -99.254,
            18.96126,
            0
          ],
          [
            -99.25397,
            18.96119,
            0
          ],
          [
            -99.25395,
            18.96111,
            0
          ],
          [
            -99.25393,
            18.96101,
            0
          ],
          [
            -99.25392,
            18.96083,
            0
          ],
          [
            -99.25388,
            18.96033,
            0
          ],
          [
            -99.25386,
            18.95996,
            0
          ],
          [
            -99.25385,
            18.95994,
            0
          ],
          [
            -99.25383,
            18.95957,
            0
          ],
          [
            -99.25378,
            18.959,
            0
          ],
          [
            -99.25377,
            18.95895,
            0
          ],
          [
            -99.25374,
            18.95882,
            0
          ],
          [
            -99.25361,
            18.95836,
            0
          ],
          [
            -99.25358,
            18.95828,
            0
          ],
          [
            -99.25356,
            18.95822,
            0
          ],
          [
            -99.25354,
            18.95816,
            0
          ],
          [
            -99.25351,
            18.95809,
            0
          ],
          [
            -99.25337,
            18.95784,
            0
          ],
          [
            -99.25317,
            18.95752,
            0
          ],
          [
            -99.25314,
            18.95747,
            0
          ],
          [
            -99.25281,
            18.95692,
            0
          ],
          [
            -99.25262,
            18.95662,
            0
          ],
          [
            -99.25234,
            18.95618,
            0
          ],
          [
            -99.25207,
            18.95573,
            0
          ],
          [
            -99.25201,
            18.95561,
            0
          ],
          [
            -99.25199,
            18.95556,
            0
          ],
          [
            -99.25172,
            18.95512,
            0
          ],
          [
            -99.25155,
            18.95494,
            0
          ],
          [
            -99.2515,
            18.95485,
            0
          ],
          [
            -99.25141,
            18.95471,
            0
          ],
          [
            -99.25127,
            18.95448,
            0
          ],
          [
            -99.25049,
            18.95322,
            0
          ],
          [
            -99.25033,
            18.95295,
            0
          ],
          [
            -99.25027,
            18.95285,
            0
          ],
          [
            -99.25011,
            18.95258,
            0
          ],
          [
            -99.24994,
            18.95228,
            0
          ],
          [
            -99.24991,
            18.95225,
            0
          ],
          [
            -99.24974,
            18.95202,
            0
          ],
          [
            -99.24951,
            18.95171,
            0
          ],
          [
            -99.24941,
            18.95159,
            0
          ],
          [
            -99.24896,
            18.951,
            0
          ],
          [
            -99.24886,
            18.95088,
            0
          ],
          [
            -99.24864,
            18.95062,
            0
          ],
          [
            -99.2485,
            18.95044,
            0
          ],
          [
            -99.24837,
            18.95029,
            0
          ],
          [
            -99.24827,
            18.95018,
            0
          ],
          [
            -99.24821,
            18.95013,
            0
          ],
          [
            -99.2481,
            18.95006,
            0
          ],
          [
            -99.24794,
            18.95,
            0
          ],
          [
            -99.24771,
            18.94994,
            0
          ],
          [
            -99.24753,
            18.94988,
            0
          ],
          [
            -99.24736,
            18.94983,
            0
          ],
          [
            -99.24722,
            18.9498,
            0
          ],
          [
            -99.24696,
            18.94973,
            0
          ],
          [
            -99.24672,
            18.94967,
            0
          ],
          [
            -99.24668,
            18.94966,
            0
          ],
          [
            -99.24667,
            18.94965,
            0
          ],
          [
            -99.24662,
            18.94964,
            0
          ],
          [
            -99.24656,
            18.94964,
            0
          ],
          [
            -99.2465,
            18.94965,
            0
          ],
          [
            -99.24631,
            18.94969,
            0
          ],
          [
            -99.24608,
            18.94975,
            0
          ],
          [
            -99.24581,
            18.94984,
            0
          ],
          [
            -99.24518,
            18.95003,
            0
          ],
          [
            -99.24485,
            18.95014,
            0
          ],
          [
            -99.24485,
            18.95013,
            0
          ],
          [
            -99.24484,
            18.95013,
            0
          ],
          [
            -99.24484,
            18.95012,
            0
          ],
          [
            -99.24484,
            18.95011,
            0
          ],
          [
            -99.24483,
            18.9501,
            0
          ],
          [
            -99.24483,
            18.95009,
            0
          ],
          [
            -99.24482,
            18.95009,
            0
          ],
          [
            -99.24482,
            18.95008,
            0
          ],
          [
            -99.24481,
            18.95007,
            0
          ],
          [
            -99.2448,
            18.95007,
            0
          ],
          [
            -99.2448,
            18.95006,
            0
          ],
          [
            -99.24479,
            18.95006,
            0
          ],
          [
            -99.24478,
            18.95006,
            0
          ],
          [
            -99.24478,
            18.95005,
            0
          ],
          [
            -99.24477,
            18.95005,
            0
          ],
          [
            -99.24476,
            18.95005,
            0
          ],
          [
            -99.24475,
            18.95004,
            0
          ],
          [
            -99.24474,
            18.95004,
            0
          ],
          [
            -99.24473,
            18.9499,
            0
          ],
          [
            -99.24462,
            18.94946,
            0
          ],
          [
            -99.24454,
            18.94909,
            0
          ],
          [
            -99.24408,
            18.94764,
            0
          ],
          [
            -99.24404,
            18.9475,
            0
          ],
          [
            -99.24392,
            18.94716,
            0
          ],
          [
            -99.24372,
            18.94663,
            0
          ],
          [
            -99.24365,
            18.94644,
            0
          ],
          [
            -99.24357,
            18.94626,
            0
          ],
          [
            -99.24345,
            18.94589,
            0
          ],
          [
            -99.2431,
            18.94502,
            0
          ],
          [
            -99.24303,
            18.94483,
            0
          ],
          [
            -99.24283,
            18.94431,
            0
          ],
          [
            -99.24256,
            18.94366,
            0
          ],
          [
            -99.24242,
            18.94339,
            0
          ],
          [
            -99.24233,
            18.94324,
            0
          ],
          [
            -99.24223,
            18.94305,
            0
          ],
          [
            -99.2421,
            18.9428,
            0
          ],
          [
            -99.24202,
            18.9426,
            0
          ],
          [
            -99.24193,
            18.94224,
            0
          ],
          [
            -99.24179,
            18.94168,
            0
          ],
          [
            -99.24172,
            18.9413,
            0
          ],
          [
            -99.24153,
            18.94041,
            0
          ],
          [
            -99.24153,
            18.94031,
            0
          ],
          [
            -99.24152,
            18.94023,
            0
          ],
          [
            -99.24141,
            18.93961,
            0
          ],
          [
            -99.24137,
            18.93938,
            0
          ],
          [
            -99.24125,
            18.93895,
            0
          ],
          [
            -99.24112,
            18.93846,
            0
          ],
          [
            -99.24103,
            18.93817,
            0
          ],
          [
            -99.24096,
            18.93796,
            0
          ],
          [
            -99.24088,
            18.93767,
            0
          ],
          [
            -99.24077,
            18.9373,
            0
          ],
          [
            -99.24075,
            18.9372,
            0
          ],
          [
            -99.24071,
            18.93701,
            0
          ],
          [
            -99.24068,
            18.93678,
            0
          ],
          [
            -99.24065,
            18.93645,
            0
          ],
          [
            -99.24061,
            18.936,
            0
          ],
          [
            -99.24061,
            18.93564,
            0
          ],
          [
            -99.24061,
            18.93529,
            0
          ],
          [
            -99.24063,
            18.93475,
            0
          ],
          [
            -99.24065,
            18.93386,
            0
          ],
          [
            -99.24063,
            18.9332,
            0
          ],
          [
            -99.24061,
            18.93301,
            0
          ],
          [
            -99.24046,
            18.93265,
            0
          ],
          [
            -99.24027,
            18.93228,
            0
          ],
          [
            -99.24013,
            18.93199,
            0
          ],
          [
            -99.24008,
            18.93187,
            0
          ],
          [
            -99.24006,
            18.93179,
            0
          ],
          [
            -99.24005,
            18.93169,
            0
          ],
          [
            -99.24006,
            18.93156,
            0
          ],
          [
            -99.24013,
            18.93126,
            0
          ],
          [
            -99.24021,
            18.93068,
            0
          ],
          [
            -99.24021,
            18.93067,
            0
          ],
          [
            -99.24023,
            18.93036,
            0
          ],
          [
            -99.24025,
            18.92971,
            0
          ],
          [
            -99.24027,
            18.92956,
            0
          ],
          [
            -99.24029,
            18.92947,
            0
          ],
          [
            -99.24024,
            18.9293,
            0
          ],
          [
            -99.2402,
            18.9292,
            0
          ],
          [
            -99.24016,
            18.92913,
            0
          ],
          [
            -99.24013,
            18.9291,
            0
          ],
          [
            -99.24008,
            18.92906,
            0
          ],
          [
            -99.23997,
            18.92901,
            0
          ],
          [
            -99.23982,
            18.92896,
            0
          ],
          [
            -99.23965,
            18.92891,
            0
          ],
          [
            -99.23963,
            18.92891,
            0
          ],
          [
            -99.23926,
            18.92883,
            0
          ],
          [
            -99.23892,
            18.92878,
            0
          ],
          [
            -99.23858,
            18.92875,
            0
          ],
          [
            -99.23842,
            18.92882,
            0
          ],
          [
            -99.23836,
            18.92885,
            0
          ],
          [
            -99.23833,
            18.92886,
            0
          ],
          [
            -99.2383,
            18.92887,
            0
          ],
          [
            -99.23785,
            18.92892,
            0
          ],
          [
            -99.23783,
            18.92893,
            0
          ],
          [
            -99.2378,
            18.92894,
            0
          ],
          [
            -99.23778,
            18.92896,
            0
          ],
          [
            -99.23777,
            18.92899,
            0
          ],
          [
            -99.23776,
            18.92902,
            0
          ],
          [
            -99.23777,
            18.92904,
            0
          ],
          [
            -99.23778,
            18.92907,
            0
          ],
          [
            -99.2378,
            18.9291,
            0
          ],
          [
            -99.23784,
            18.92914,
            0
          ],
          [
            -99.2379,
            18.92917,
            0
          ],
          [
            -99.23801,
            18.92921,
            0
          ],
          [
            -99.23806,
            18.92924,
            0
          ],
          [
            -99.23808,
            18.92925,
            0
          ],
          [
            -99.23809,
            18.92927,
            0
          ],
          [
            -99.2381,
            18.92929,
            0
          ],
          [
            -99.2381,
            18.92931,
            0
          ],
          [
            -99.2381,
            18.92933,
            0
          ],
          [
            -99.2381,
            18.92935,
            0
          ],
          [
            -99.2381,
            18.92937,
            0
          ],
          [
            -99.23808,
            18.92939,
            0
          ],
          [
            -99.23805,
            18.92941,
            0
          ],
          [
            -99.23803,
            18.92942,
            0
          ],
          [
            -99.23799,
            18.92944,
            0
          ],
          [
            -99.23794,
            18.92946,
            0
          ],
          [
            -99.23785,
            18.92946,
            0
          ],
          [
            -99.23784,
            18.92936,
            0
          ],
          [
            -99.23783,
            18.92932,
            0
          ],
          [
            -99.23782,
            18.92927,
            0
          ],
          [
            -99.2378,
            18.92923,
            0
          ],
          [
            -99.23777,
            18.92921,
            0
          ],
          [
            -99.23749,
            18.92898,
            0
          ],
          [
            -99.23744,
            18.92893,
            0
          ],
          [
            -99.23741,
            18.9289,
            0
          ],
          [
            -99.23739,
            18.92887,
            0
          ],
          [
            -99.23738,
            18.92881,
            0
          ],
          [
            -99.23737,
            18.9287,
            0
          ],
          [
            -99.23732,
            18.92802,
            0
          ],
          [
            -99.23729,
            18.92748,
            0
          ],
          [
            -99.23724,
            18.92698,
            0
          ],
          [
            -99.23723,
            18.92696,
            0
          ],
          [
            -99.23722,
            18.92694,
            0
          ],
          [
            -99.2372,
            18.92692,
            0
          ],
          [
            -99.23635,
            18.92615,
            0
          ],
          [
            -99.23625,
            18.92604,
            0
          ],
          [
            -99.23606,
            18.92586,
            0
          ],
          [
            -99.236,
            18.92566,
            0
          ],
          [
            -99.23585,
            18.92511,
            0
          ],
          [
            -99.23574,
            18.92468,
            0
          ],
          [
            -99.23567,
            18.92422,
            0
          ],
          [
            -99.23566,
            18.92416,
            0
          ],
          [
            -99.23557,
            18.92384,
            0
          ],
          [
            -99.23547,
            18.92341,
            0
          ],
          [
            -99.23545,
            18.92328,
            0
          ],
          [
            -99.2354,
            18.92307,
            0
          ],
          [
            -99.23531,
            18.92274,
            0
          ],
          [
            -99.23531,
            18.92273,
            0
          ],
          [
            -99.23531,
            18.92271,
            0
          ],
          [
            -99.23531,
            18.92268,
            0
          ],
          [
            -99.23534,
            18.9226,
            0
          ],
          [
            -99.23533,
            18.92259,
            0
          ],
          [
            -99.23532,
            18.92258,
            0
          ],
          [
            -99.23526,
            18.92212,
            0
          ],
          [
            -99.23525,
            18.92203,
            0
          ],
          [
            -99.23516,
            18.92138,
            0
          ],
          [
            -99.23512,
            18.92113,
            0
          ],
          [
            -99.2351,
            18.92083,
            0
          ],
          [
            -99.23509,
            18.92033,
            0
          ],
          [
            -99.23508,
            18.91889,
            0
          ],
          [
            -99.23511,
            18.91889,
            0
          ],
          [
            -99.2351,
            18.91827,
            0
          ],
          [
            -99.2351,
            18.91809,
            0
          ],
          [
            -99.23509,
            18.91755,
            0
          ],
          [
            -99.23508,
            18.91732,
            0
          ],
          [
            -99.23508,
            18.91712,
            0
          ],
          [
            -99.23506,
            18.91655,
            0
          ],
          [
            -99.23504,
            18.9158,
            0
          ],
          [
            -99.23504,
            18.91577,
            0
          ],
          [
            -99.23496,
            18.91496,
            0
          ],
          [
            -99.23494,
            18.91472,
            0
          ],
          [
            -99.23488,
            18.91425,
            0
          ],
          [
            -99.23468,
            18.91353,
            0
          ],
          [
            -99.2346,
            18.91332,
            0
          ],
          [
            -99.23449,
            18.91311,
            0
          ],
          [
            -99.23434,
            18.9129,
            0
          ],
          [
            -99.23394,
            18.91223,
            0
          ],
          [
            -99.23381,
            18.912,
            0
          ],
          [
            -99.23356,
            18.91152,
            0
          ],
          [
            -99.23335,
            18.91105,
            0
          ],
          [
            -99.23313,
            18.91054,
            0
          ],
          [
            -99.23296,
            18.91009,
            0
          ],
          [
            -99.23284,
            18.90976,
            0
          ],
          [
            -99.23276,
            18.90955,
            0
          ],
          [
            -99.23263,
            18.90919,
            0
          ],
          [
            -99.23254,
            18.9089,
            0
          ],
          [
            -99.23249,
            18.90872,
            0
          ],
          [
            -99.23242,
            18.90853,
            0
          ],
          [
            -99.23236,
            18.90833,
            0
          ],
          [
            -99.23217,
            18.9076,
            0
          ],
          [
            -99.23214,
            18.90742,
            0
          ],
          [
            -99.23213,
            18.90729,
            0
          ],
          [
            -99.2321,
            18.90707,
            0
          ],
          [
            -99.23219,
            18.90703,
            0
          ],
          [
            -99.23208,
            18.90682,
            0
          ],
          [
            -99.23206,
            18.90672,
            0
          ],
          [
            -99.23204,
            18.90666,
            0
          ],
          [
            -99.23202,
            18.90657,
            0
          ],
          [
            -99.23197,
            18.90626,
            0
          ],
          [
            -99.23193,
            18.90601,
            0
          ],
          [
            -99.23192,
            18.90597,
            0
          ],
          [
            -99.23187,
            18.90573,
            0
          ],
          [
            -99.23177,
            18.90501,
            0
          ],
          [
            -99.23168,
            18.90438,
            0
          ],
          [
            -99.23163,
            18.90386,
            0
          ],
          [
            -99.23161,
            18.90364,
            0
          ],
          [
            -99.23158,
            18.90329,
            0
          ],
          [
            -99.23154,
            18.90289,
            0
          ],
          [
            -99.23147,
            18.90192,
            0
          ],
          [
            -99.23143,
            18.90147,
            0
          ],
          [
            -99.23141,
            18.90127,
            0
          ],
          [
            -99.23133,
            18.90094,
            0
          ],
          [
            -99.23119,
            18.90043,
            0
          ],
          [
            -99.23105,
            18.89993,
            0
          ],
          [
            -99.23088,
            18.89942,
            0
          ],
          [
            -99.23056,
            18.89847,
            0
          ],
          [
            -99.23033,
            18.89782,
            0
          ],
          [
            -99.23019,
            18.89751,
            0
          ],
          [
            -99.23008,
            18.89726,
            0
          ],
          [
            -99.23004,
            18.89718,
            0
          ],
          [
            -99.22983,
            18.89672,
            0
          ],
          [
            -99.22955,
            18.89614,
            0
          ],
          [
            -99.2294,
            18.89582,
            0
          ],
          [
            -99.22911,
            18.89519,
            0
          ],
          [
            -99.2291,
            18.89518,
            0
          ],
          [
            -99.22883,
            18.89459,
            0
          ],
          [
            -99.22866,
            18.89419,
            0
          ],
          [
            -99.22851,
            18.89385,
            0
          ],
          [
            -99.22847,
            18.89375,
            0
          ],
          [
            -99.22865,
            18.8937,
            0
          ],
          [
            -99.22901,
            18.8936,
            0
          ],
          [
            -99.22943,
            18.89348,
            0
          ],
          [
            -99.22942,
            18.89335,
            0
          ],
          [
            -99.2294,
            18.89319,
            0
          ],
          [
            -99.22938,
            18.89299,
            0
          ],
          [
            -99.22938,
            18.89296,
            0
          ],
          [
            -99.22936,
            18.89258,
            0
          ],
          [
            -99.22936,
            18.89243,
            0
          ],
          [
            -99.23038,
            18.89227,
            0
          ],
          [
            -99.23064,
            18.89223,
            0
          ],
          [
            -99.23154,
            18.89208,
            0
          ],
          [
            -99.23146,
            18.89179,
            0
          ]
        ]
      },
      "properties": {
        "description": {
          "@type": "html",
          "value": "descripción: <br>OID: 567<br>ZONA: CENTRO<br>RUTA: RUTA 3<br>ITINERARIO: 2.-SANTA MARÖA - RANCHO CORTS - MINA 5<br>DESCRIPCIO: SANTA MARIA-MINA 5<br>AUTO-AMPL: ITINERARIO<br>DEFIN-PROV: DEFINITIVOS<br>DURACION: DEFINITIVA<br>FOLIO: SGG/DGT/SDP/000528/1997"
        },
        "styleUrl": "#line-880E4F-1200",
        "stroke-opacity": 1,
        "stroke": "#880e4f",
        "stroke-width": 1.2,
        "descripción": "",
        "OID": "567",
        "ZONA": "CENTRO",
        "RUTA": "RUTA 3",
        "ITINERARIO": "2.-SANTA MARÖA - RANCHO CORTS - MINA 5",
        "DESCRIPCIO": "SANTA MARIA-MINA 5",
        "AUTO-AMPL": "ITINERARIO",
        "DEFIN-PROV": "DEFINITIVOS",
        "DURACION": "DEFINITIVA",
        "FOLIO": "SGG/DGT/SDP/000528/1997"
      }
    }
  ]
}