{
  "type": "FeatureCollection",
  "features": [
    {
      "type": "Feature",
      "geometry": {
        "type": "LineString",
        "coordinates": [
          [
            -99.25143,
            18.86778,
            0
          ],
          [
            -99.25107,
            18.8679,
            0
          ],
          [
            -99.24519,
            18.87037,
            0
          ],
          [
            -99.24467,
            18.86924,
            0
          ],
          [
            -99.24461,
            18.86915,
            0
          ],
          [
            -99.24454,
            18.86911,
            0
          ],
          [
            -99.24341,
            18.86865,
            0
          ],
          [
            -99.24339,
            18.86863,
            0
          ],
          [
            -99.24335,
            18.86863,
            0
          ],
          [
            -99.24328,
            18.86858,
            0
          ],
          [
            -99.24323,
            18.86852,
            0
          ],
          [
            -99.2432,
            18.86847,
            0
          ],
          [
            -99.24148,
            18.86428,
            0
          ],
          [
            -99.24124,
            18.86364,
            0
          ],
          [
            -99.24049,
            18.86183,
            0
          ],
          [
            -99.23937,
            18.85939,
            0
          ],
          [
            -99.23897,
            18.85807,
            0
          ],
          [
            -99.23882,
            18.85749,
            0
          ],
          [
            -99.23816,
            18.85532,
            0
          ],
          [
            -99.23578,
            18.84804,
            0
          ],
          [
            -99.23578,
            18.84803,
            0
          ],
          [
            -99.23554,
            18.84734,
            0
          ],
          [
            -99.2353,
            18.84655,
            0
          ],
          [
            -99.23518,
            18.84578,
            0
          ],
          [
            -99.2348,
            18.84264,
            0
          ],
          [
            -99.23475,
            18.84233,
            0
          ],
          [
            -99.23456,
            18.84239,
            0
          ],
          [
            -99.2343,
            18.84252,
            0
          ],
          [
            -99.23427,
            18.84253,
            0
          ],
          [
            -99.23403,
            18.84271,
            0
          ],
          [
            -99.23388,
            18.84284,
            0
          ],
          [
            -99.23379,
            18.84295,
            0
          ],
          [
            -99.2333,
            18.84375,
            0
          ],
          [
            -99.23289,
            18.8445,
            0
          ],
          [
            -99.23162,
            18.84667,
            0
          ],
          [
            -99.23158,
            18.84677,
            0
          ],
          [
            -99.23121,
            18.84754,
            0
          ],
          [
            -99.23114,
            18.84771,
            0
          ],
          [
            -99.23105,
            18.84789,
            0
          ],
          [
            -99.23086,
            18.84811,
            0
          ],
          [
            -99.23049,
            18.84843,
            0
          ],
          [
            -99.23035,
            18.84853,
            0
          ],
          [
            -99.23025,
            18.84862,
            0
          ],
          [
            -99.23015,
            18.84878,
            0
          ],
          [
            -99.23008,
            18.84881,
            0
          ],
          [
            -99.23001,
            18.84882,
            0
          ],
          [
            -99.22994,
            18.84882,
            0
          ],
          [
            -99.22971,
            18.84885,
            0
          ],
          [
            -99.22879,
            18.84903,
            0
          ],
          [
            -99.22869,
            18.84906,
            0
          ],
          [
            -99.22831,
            18.84922,
            0
          ],
          [
            -99.22813,
            18.84933,
            0
          ],
          [
            -99.22783,
            18.84957,
            0
          ],
          [
            -99.22775,
            18.84968,
            0
          ],
          [
            -99.22765,
            18.84979,
            0
          ],
          [
            -99.22752,
            18.84991,
            0
          ],
          [
            -99.22749,
            18.84993,
            0
          ],
          [
            -99.22746,
            18.84994,
            0
          ],
          [
            -99.22737,
            18.84994,
            0
          ],
          [
            -99.22734,
            18.84993,
            0
          ],
          [
            -99.22727,
            18.84992,
            0
          ],
          [
            -99.2261,
            18.84912,
            0
          ],
          [
            -99.22604,
            18.84907,
            0
          ],
          [
            -99.22579,
            18.84891,
            0
          ],
          [
            -99.22578,
            18.8489,
            0
          ],
          [
            -99.22564,
            18.84881,
            0
          ],
          [
            -99.22552,
            18.84875,
            0
          ],
          [
            -99.22572,
            18.84811,
            0
          ],
          [
            -99.22574,
            18.848,
            0
          ],
          [
            -99.22588,
            18.84749,
            0
          ],
          [
            -99.22588,
            18.84739,
            0
          ],
          [
            -99.22586,
            18.84728,
            0
          ],
          [
            -99.22582,
            18.84721,
            0
          ],
          [
            -99.2256,
            18.84699,
            0
          ],
          [
            -99.22526,
            18.84669,
            0
          ],
          [
            -99.22443,
            18.84608,
            0
          ],
          [
            -99.224,
            18.84589,
            0
          ],
          [
            -99.2237,
            18.84579,
            0
          ],
          [
            -99.22361,
            18.84575,
            0
          ],
          [
            -99.22356,
            18.84588,
            0
          ],
          [
            -99.22346,
            18.84607,
            0
          ],
          [
            -99.22332,
            18.8463,
            0
          ],
          [
            -99.22326,
            18.84645,
            0
          ],
          [
            -99.22323,
            18.84655,
            0
          ],
          [
            -99.22299,
            18.848,
            0
          ],
          [
            -99.22296,
            18.84835,
            0
          ],
          [
            -99.22297,
            18.84858,
            0
          ],
          [
            -99.223,
            18.84872,
            0
          ],
          [
            -99.22308,
            18.84897,
            0
          ],
          [
            -99.22334,
            18.84958,
            0
          ],
          [
            -99.22351,
            18.84993,
            0
          ],
          [
            -99.22388,
            18.85085,
            0
          ],
          [
            -99.22392,
            18.85093,
            0
          ],
          [
            -99.22419,
            18.8513,
            0
          ],
          [
            -99.22438,
            18.85164,
            0
          ],
          [
            -99.22441,
            18.85175,
            0
          ],
          [
            -99.22446,
            18.85214,
            0
          ],
          [
            -99.22446,
            18.85219,
            0
          ],
          [
            -99.22457,
            18.85313,
            0
          ],
          [
            -99.22458,
            18.85331,
            0
          ],
          [
            -99.22479,
            18.85461,
            0
          ],
          [
            -99.22479,
            18.85469,
            0
          ],
          [
            -99.22478,
            18.8548,
            0
          ],
          [
            -99.22471,
            18.85515,
            0
          ],
          [
            -99.22434,
            18.85661,
            0
          ],
          [
            -99.22428,
            18.85688,
            0
          ],
          [
            -99.22418,
            18.85722,
            0
          ],
          [
            -99.22402,
            18.85764,
            0
          ],
          [
            -99.22398,
            18.85777,
            0
          ],
          [
            -99.22377,
            18.8583,
            0
          ],
          [
            -99.22371,
            18.8585,
            0
          ],
          [
            -99.22369,
            18.85866,
            0
          ],
          [
            -99.22368,
            18.85912,
            0
          ],
          [
            -99.2237,
            18.85925,
            0
          ],
          [
            -99.22377,
            18.85947,
            0
          ],
          [
            -99.22389,
            18.85971,
            0
          ],
          [
            -99.22454,
            18.86066,
            0
          ],
          [
            -99.22503,
            18.86155,
            0
          ],
          [
            -99.22509,
            18.86171,
            0
          ],
          [
            -99.22514,
            18.86188,
            0
          ],
          [
            -99.22516,
            18.86202,
            0
          ],
          [
            -99.22516,
            18.86215,
            0
          ],
          [
            -99.22514,
            18.86231,
            0
          ],
          [
            -99.22511,
            18.86243,
            0
          ],
          [
            -99.22499,
            18.86272,
            0
          ],
          [
            -99.22485,
            18.86294,
            0
          ],
          [
            -99.22473,
            18.86316,
            0
          ],
          [
            -99.22458,
            18.8634,
            0
          ],
          [
            -99.22454,
            18.86349,
            0
          ],
          [
            -99.2245,
            18.86362,
            0
          ],
          [
            -99.22449,
            18.86372,
            0
          ],
          [
            -99.2245,
            18.86385,
            0
          ],
          [
            -99.22457,
            18.86408,
            0
          ],
          [
            -99.22462,
            18.86416,
            0
          ],
          [
            -99.22478,
            18.86436,
            0
          ],
          [
            -99.22504,
            18.86463,
            0
          ],
          [
            -99.22543,
            18.8651,
            0
          ],
          [
            -99.22579,
            18.8655,
            0
          ],
          [
            -99.2262,
            18.86599,
            0
          ],
          [
            -99.22702,
            18.86689,
            0
          ],
          [
            -99.22718,
            18.8671,
            0
          ],
          [
            -99.22724,
            18.86721,
            0
          ],
          [
            -99.22728,
            18.86731,
            0
          ],
          [
            -99.2273,
            18.86751,
            0
          ],
          [
            -99.22727,
            18.8677,
            0
          ],
          [
            -99.22713,
            18.86801,
            0
          ],
          [
            -99.2269,
            18.8684,
            0
          ],
          [
            -99.22664,
            18.86878,
            0
          ],
          [
            -99.22653,
            18.86889,
            0
          ],
          [
            -99.22648,
            18.86893,
            0
          ],
          [
            -99.22637,
            18.86907,
            0
          ],
          [
            -99.22635,
            18.86913,
            0
          ],
          [
            -99.22635,
            18.86917,
            0
          ],
          [
            -99.22625,
            18.86933,
            0
          ],
          [
            -99.22622,
            18.86939,
            0
          ],
          [
            -99.22618,
            18.86953,
            0
          ],
          [
            -99.22624,
            18.86982,
            0
          ],
          [
            -99.22633,
            18.86994,
            0
          ],
          [
            -99.22676,
            18.8704,
            0
          ],
          [
            -99.22684,
            18.87051,
            0
          ],
          [
            -99.22685,
            18.87056,
            0
          ],
          [
            -99.2269,
            18.87071,
            0
          ],
          [
            -99.2269,
            18.87078,
            0
          ],
          [
            -99.22687,
            18.871,
            0
          ],
          [
            -99.22683,
            18.87111,
            0
          ],
          [
            -99.2266,
            18.87161,
            0
          ],
          [
            -99.2265,
            18.8719,
            0
          ],
          [
            -99.22644,
            18.87218,
            0
          ],
          [
            -99.22648,
            18.87252,
            0
          ],
          [
            -99.22654,
            18.87275,
            0
          ],
          [
            -99.22656,
            18.8729,
            0
          ],
          [
            -99.22667,
            18.87319,
            0
          ],
          [
            -99.22673,
            18.87327,
            0
          ],
          [
            -99.22694,
            18.8735,
            0
          ],
          [
            -99.22707,
            18.87362,
            0
          ],
          [
            -99.2272,
            18.87385,
            0
          ],
          [
            -99.22724,
            18.87407,
            0
          ],
          [
            -99.22726,
            18.87429,
            0
          ],
          [
            -99.22732,
            18.87468,
            0
          ],
          [
            -99.22742,
            18.87491,
            0
          ],
          [
            -99.22776,
            18.87544,
            0
          ],
          [
            -99.22803,
            18.87579,
            0
          ],
          [
            -99.22822,
            18.87608,
            0
          ],
          [
            -99.22888,
            18.8768,
            0
          ],
          [
            -99.22898,
            18.87701,
            0
          ],
          [
            -99.22904,
            18.87717,
            0
          ],
          [
            -99.22906,
            18.87727,
            0
          ],
          [
            -99.22906,
            18.87769,
            0
          ],
          [
            -99.22907,
            18.87785,
            0
          ],
          [
            -99.22908,
            18.87791,
            0
          ],
          [
            -99.22908,
            18.87794,
            0
          ],
          [
            -99.2291,
            18.87807,
            0
          ],
          [
            -99.22915,
            18.87827,
            0
          ],
          [
            -99.2296,
            18.87958,
            0
          ],
          [
            -99.22971,
            18.87984,
            0
          ],
          [
            -99.22978,
            18.88017,
            0
          ],
          [
            -99.22987,
            18.88117,
            0
          ],
          [
            -99.22987,
            18.88135,
            0
          ],
          [
            -99.22982,
            18.88222,
            0
          ],
          [
            -99.22987,
            18.88267,
            0
          ],
          [
            -99.23006,
            18.88386,
            0
          ],
          [
            -99.23016,
            18.88432,
            0
          ],
          [
            -99.23022,
            18.88478,
            0
          ],
          [
            -99.23019,
            18.88516,
            0
          ],
          [
            -99.23014,
            18.88545,
            0
          ],
          [
            -99.23,
            18.88588,
            0
          ],
          [
            -99.22968,
            18.8866,
            0
          ],
          [
            -99.22967,
            18.88661,
            0
          ],
          [
            -99.22967,
            18.88662,
            0
          ],
          [
            -99.22896,
            18.88822,
            0
          ],
          [
            -99.22894,
            18.88828,
            0
          ],
          [
            -99.22887,
            18.88838,
            0
          ],
          [
            -99.22884,
            18.88841,
            0
          ],
          [
            -99.22884,
            18.88842,
            0
          ],
          [
            -99.22866,
            18.8885,
            0
          ],
          [
            -99.22861,
            18.88853,
            0
          ],
          [
            -99.22855,
            18.88859,
            0
          ],
          [
            -99.22852,
            18.88864,
            0
          ],
          [
            -99.22844,
            18.88883,
            0
          ],
          [
            -99.2283,
            18.8893,
            0
          ],
          [
            -99.22828,
            18.88947,
            0
          ],
          [
            -99.22825,
            18.8896,
            0
          ],
          [
            -99.22818,
            18.88979,
            0
          ],
          [
            -99.22798,
            18.89017,
            0
          ],
          [
            -99.22789,
            18.8903,
            0
          ],
          [
            -99.22774,
            18.89048,
            0
          ],
          [
            -99.22771,
            18.89057,
            0
          ],
          [
            -99.22762,
            18.89072,
            0
          ],
          [
            -99.22749,
            18.89088,
            0
          ],
          [
            -99.22733,
            18.89104,
            0
          ],
          [
            -99.22713,
            18.8913,
            0
          ],
          [
            -99.227,
            18.89145,
            0
          ],
          [
            -99.22691,
            18.89157,
            0
          ],
          [
            -99.22688,
            18.89163,
            0
          ],
          [
            -99.22685,
            18.89178,
            0
          ],
          [
            -99.22685,
            18.89183,
            0
          ],
          [
            -99.22689,
            18.892,
            0
          ],
          [
            -99.227,
            18.89214,
            0
          ],
          [
            -99.22738,
            18.89238,
            0
          ],
          [
            -99.22739,
            18.89238,
            0
          ],
          [
            -99.22759,
            18.8925,
            0
          ],
          [
            -99.22781,
            18.89265,
            0
          ],
          [
            -99.22798,
            18.89281,
            0
          ],
          [
            -99.22809,
            18.89298,
            0
          ],
          [
            -99.22819,
            18.89318,
            0
          ],
          [
            -99.22826,
            18.89336,
            0
          ],
          [
            -99.22831,
            18.89346,
            0
          ],
          [
            -99.22833,
            18.89347,
            0
          ],
          [
            -99.22836,
            18.8935,
            0
          ],
          [
            -99.2291,
            18.89518,
            0
          ],
          [
            -99.22911,
            18.89519,
            0
          ],
          [
            -99.23033,
            18.89782,
            0
          ],
          [
            -99.23105,
            18.89993,
            0
          ],
          [
            -99.23141,
            18.90127,
            0
          ],
          [
            -99.23168,
            18.90438,
            0
          ],
          [
            -99.23187,
            18.90573,
            0
          ],
          [
            -99.23204,
            18.90666,
            0
          ],
          [
            -99.23206,
            18.90672,
            0
          ],
          [
            -99.23208,
            18.90682,
            0
          ],
          [
            -99.23197,
            18.90694,
            0
          ],
          [
            -99.23181,
            18.90714,
            0
          ],
          [
            -99.23161,
            18.90736,
            0
          ],
          [
            -99.2314,
            18.90766,
            0
          ],
          [
            -99.2314,
            18.90767,
            0
          ],
          [
            -99.23135,
            18.90776,
            0
          ],
          [
            -99.2312,
            18.90818,
            0
          ],
          [
            -99.23111,
            18.9085,
            0
          ],
          [
            -99.23112,
            18.90896,
            0
          ],
          [
            -99.23118,
            18.90928,
            0
          ],
          [
            -99.23133,
            18.90965,
            0
          ],
          [
            -99.23234,
            18.9114,
            0
          ],
          [
            -99.23289,
            18.91242,
            0
          ],
          [
            -99.23305,
            18.9128,
            0
          ],
          [
            -99.23329,
            18.91352,
            0
          ],
          [
            -99.23354,
            18.91437,
            0
          ],
          [
            -99.23355,
            18.91443,
            0
          ],
          [
            -99.23356,
            18.91445,
            0
          ],
          [
            -99.23367,
            18.91499,
            0
          ],
          [
            -99.2337,
            18.91527,
            0
          ],
          [
            -99.23375,
            18.9169,
            0
          ],
          [
            -99.23367,
            18.91725,
            0
          ],
          [
            -99.23363,
            18.91729,
            0
          ],
          [
            -99.23363,
            18.9173,
            0
          ],
          [
            -99.23362,
            18.91731,
            0
          ],
          [
            -99.23362,
            18.91732,
            0
          ],
          [
            -99.23361,
            18.91733,
            0
          ],
          [
            -99.23361,
            18.9174,
            0
          ],
          [
            -99.23362,
            18.91741,
            0
          ],
          [
            -99.23362,
            18.91743,
            0
          ],
          [
            -99.23363,
            18.91743,
            0
          ],
          [
            -99.23363,
            18.91744,
            0
          ],
          [
            -99.23364,
            18.91744,
            0
          ],
          [
            -99.23364,
            18.91745,
            0
          ],
          [
            -99.23366,
            18.91747,
            0
          ],
          [
            -99.23367,
            18.91747,
            0
          ],
          [
            -99.23368,
            18.91785,
            0
          ],
          [
            -99.23375,
            18.91889,
            0
          ],
          [
            -99.23367,
            18.92045,
            0
          ],
          [
            -99.23298,
            18.9204,
            0
          ],
          [
            -99.23121,
            18.92033,
            0
          ],
          [
            -99.23128,
            18.92098,
            0
          ],
          [
            -99.2313,
            18.92109,
            0
          ],
          [
            -99.2313,
            18.92111,
            0
          ],
          [
            -99.23131,
            18.92117,
            0
          ],
          [
            -99.23133,
            18.92124,
            0
          ],
          [
            -99.23143,
            18.92138,
            0
          ],
          [
            -99.23146,
            18.92141,
            0
          ],
          [
            -99.2315,
            18.92148,
            0
          ],
          [
            -99.23161,
            18.92163,
            0
          ],
          [
            -99.23165,
            18.92179,
            0
          ],
          [
            -99.23165,
            18.92186,
            0
          ],
          [
            -99.23163,
            18.9219,
            0
          ],
          [
            -99.23163,
            18.92191,
            0
          ],
          [
            -99.23162,
            18.92192,
            0
          ],
          [
            -99.23162,
            18.92193,
            0
          ],
          [
            -99.23161,
            18.92195,
            0
          ],
          [
            -99.23158,
            18.92198,
            0
          ],
          [
            -99.23156,
            18.92198,
            0
          ],
          [
            -99.23152,
            18.922,
            0
          ],
          [
            -99.23137,
            18.92204,
            0
          ],
          [
            -99.23135,
            18.92204,
            0
          ],
          [
            -99.23118,
            18.92208,
            0
          ],
          [
            -99.2312,
            18.92214,
            0
          ],
          [
            -99.2312,
            18.92216,
            0
          ],
          [
            -99.23121,
            18.92217,
            0
          ],
          [
            -99.23122,
            18.92262,
            0
          ],
          [
            -99.23123,
            18.9227,
            0
          ],
          [
            -99.23122,
            18.92278,
            0
          ],
          [
            -99.23113,
            18.92299,
            0
          ],
          [
            -99.23105,
            18.92307,
            0
          ],
          [
            -99.23101,
            18.92312,
            0
          ],
          [
            -99.23101,
            18.92313,
            0
          ],
          [
            -99.231,
            18.92314,
            0
          ],
          [
            -99.231,
            18.92319,
            0
          ],
          [
            -99.23104,
            18.92333,
            0
          ],
          [
            -99.23121,
            18.9238,
            0
          ],
          [
            -99.23146,
            18.92435,
            0
          ],
          [
            -99.23158,
            18.92467,
            0
          ],
          [
            -99.23166,
            18.92498,
            0
          ],
          [
            -99.23213,
            18.92589,
            0
          ],
          [
            -99.23228,
            18.9263,
            0
          ],
          [
            -99.23232,
            18.92645,
            0
          ],
          [
            -99.23232,
            18.92651,
            0
          ],
          [
            -99.23231,
            18.92655,
            0
          ],
          [
            -99.23231,
            18.92657,
            0
          ],
          [
            -99.23217,
            18.92694,
            0
          ],
          [
            -99.23204,
            18.92721,
            0
          ],
          [
            -99.23189,
            18.92744,
            0
          ],
          [
            -99.23182,
            18.92752,
            0
          ],
          [
            -99.23177,
            18.92756,
            0
          ],
          [
            -99.23156,
            18.92767,
            0
          ],
          [
            -99.23155,
            18.92767,
            0
          ],
          [
            -99.23151,
            18.92769,
            0
          ],
          [
            -99.23149,
            18.92769,
            0
          ],
          [
            -99.23147,
            18.9277,
            0
          ],
          [
            -99.23143,
            18.9277,
            0
          ],
          [
            -99.23141,
            18.92771,
            0
          ],
          [
            -99.23093,
            18.92768,
            0
          ],
          [
            -99.23091,
            18.92767,
            0
          ],
          [
            -99.23078,
            18.92767,
            0
          ],
          [
            -99.23074,
            18.92768,
            0
          ],
          [
            -99.23072,
            18.92768,
            0
          ],
          [
            -99.23057,
            18.92773,
            0
          ],
          [
            -99.23055,
            18.92773,
            0
          ],
          [
            -99.23008,
            18.92788,
            0
          ],
          [
            -99.23,
            18.92789,
            0
          ],
          [
            -99.22992,
            18.92787,
            0
          ],
          [
            -99.22982,
            18.92768,
            0
          ],
          [
            -99.22952,
            18.92698,
            0
          ],
          [
            -99.22935,
            18.92669,
            0
          ],
          [
            -99.22913,
            18.92642,
            0
          ],
          [
            -99.22898,
            18.92627,
            0
          ],
          [
            -99.2287,
            18.92603,
            0
          ],
          [
            -99.22839,
            18.92583,
            0
          ],
          [
            -99.22794,
            18.92562,
            0
          ],
          [
            -99.22776,
            18.92559,
            0
          ],
          [
            -99.22563,
            18.92509,
            0
          ],
          [
            -99.22546,
            18.92506,
            0
          ],
          [
            -99.22336,
            18.92456,
            0
          ],
          [
            -99.22327,
            18.92455,
            0
          ],
          [
            -99.22218,
            18.92432,
            0
          ],
          [
            -99.22106,
            18.92405,
            0
          ],
          [
            -99.22078,
            18.92402,
            0
          ],
          [
            -99.22041,
            18.924,
            0
          ],
          [
            -99.21868,
            18.92403,
            0
          ],
          [
            -99.21765,
            18.92402,
            0
          ],
          [
            -99.21693,
            18.92404,
            0
          ],
          [
            -99.21366,
            18.92402,
            0
          ],
          [
            -99.21306,
            18.92391,
            0
          ],
          [
            -99.21026,
            18.92322,
            0
          ],
          [
            -99.21016,
            18.92318,
            0
          ],
          [
            -99.20912,
            18.92291,
            0
          ],
          [
            -99.2089,
            18.92278,
            0
          ],
          [
            -99.20868,
            18.92263,
            0
          ],
          [
            -99.20828,
            18.92228,
            0
          ],
          [
            -99.20801,
            18.92208,
            0
          ],
          [
            -99.20799,
            18.92207,
            0
          ],
          [
            -99.20781,
            18.92194,
            0
          ],
          [
            -99.20767,
            18.92187,
            0
          ],
          [
            -99.2075,
            18.92177,
            0
          ],
          [
            -99.20732,
            18.9217,
            0
          ],
          [
            -99.20723,
            18.92168,
            0
          ],
          [
            -99.20721,
            18.92168,
            0
          ],
          [
            -99.20691,
            18.92162,
            0
          ],
          [
            -99.20599,
            18.92151,
            0
          ],
          [
            -99.20582,
            18.92148,
            0
          ],
          [
            -99.20528,
            18.92134,
            0
          ],
          [
            -99.20481,
            18.92126,
            0
          ],
          [
            -99.20469,
            18.92125,
            0
          ],
          [
            -99.20454,
            18.92125,
            0
          ],
          [
            -99.20409,
            18.92118,
            0
          ],
          [
            -99.20366,
            18.92106,
            0
          ],
          [
            -99.20332,
            18.92099,
            0
          ],
          [
            -99.2026,
            18.9209,
            0
          ],
          [
            -99.20248,
            18.9209,
            0
          ],
          [
            -99.20239,
            18.92089,
            0
          ],
          [
            -99.20215,
            18.9209,
            0
          ],
          [
            -99.20186,
            18.92087,
            0
          ],
          [
            -99.20125,
            18.92093,
            0
          ],
          [
            -99.20121,
            18.92094,
            0
          ],
          [
            -99.20079,
            18.92095,
            0
          ],
          [
            -99.20055,
            18.92094,
            0
          ],
          [
            -99.20051,
            18.92093,
            0
          ],
          [
            -99.20043,
            18.92093,
            0
          ],
          [
            -99.20022,
            18.92091,
            0
          ],
          [
            -99.1999,
            18.92085,
            0
          ],
          [
            -99.19968,
            18.92079,
            0
          ],
          [
            -99.19951,
            18.92073,
            0
          ],
          [
            -99.19873,
            18.9204,
            0
          ],
          [
            -99.19869,
            18.92039,
            0
          ],
          [
            -99.19796,
            18.92008,
            0
          ],
          [
            -99.19779,
            18.92002,
            0
          ],
          [
            -99.1975,
            18.91994,
            0
          ],
          [
            -99.19647,
            18.91973,
            0
          ],
          [
            -99.19591,
            18.91964,
            0
          ],
          [
            -99.19564,
            18.91964,
            0
          ],
          [
            -99.19537,
            18.91966,
            0
          ],
          [
            -99.19512,
            18.91971,
            0
          ],
          [
            -99.19445,
            18.91988,
            0
          ],
          [
            -99.19427,
            18.9199,
            0
          ],
          [
            -99.19414,
            18.9199,
            0
          ],
          [
            -99.19389,
            18.91988,
            0
          ],
          [
            -99.19366,
            18.91983,
            0
          ],
          [
            -99.1912,
            18.91906,
            0
          ],
          [
            -99.19113,
            18.91903,
            0
          ],
          [
            -99.18882,
            18.91833,
            0
          ],
          [
            -99.18853,
            18.9182,
            0
          ],
          [
            -99.18844,
            18.91815,
            0
          ],
          [
            -99.18828,
            18.91804,
            0
          ],
          [
            -99.18486,
            18.915,
            0
          ],
          [
            -99.18436,
            18.9145,
            0
          ],
          [
            -99.18176,
            18.91172,
            0
          ],
          [
            -99.18144,
            18.91132,
            0
          ],
          [
            -99.18131,
            18.91109,
            0
          ],
          [
            -99.18126,
            18.91098,
            0
          ],
          [
            -99.18038,
            18.90867,
            0
          ],
          [
            -99.1803,
            18.90851,
            0
          ],
          [
            -99.18018,
            18.90833,
            0
          ],
          [
            -99.17999,
            18.90809,
            0
          ],
          [
            -99.17967,
            18.90775,
            0
          ],
          [
            -99.17705,
            18.90513,
            0
          ],
          [
            -99.17702,
            18.90511,
            0
          ],
          [
            -99.17698,
            18.90507,
            0
          ],
          [
            -99.17697,
            18.90505,
            0
          ],
          [
            -99.17538,
            18.90352,
            0
          ],
          [
            -99.1743,
            18.90243,
            0
          ],
          [
            -99.17397,
            18.90278,
            0
          ],
          [
            -99.17386,
            18.90292,
            0
          ],
          [
            -99.17225,
            18.90466,
            0
          ],
          [
            -99.17219,
            18.90471,
            0
          ],
          [
            -99.16984,
            18.90724,
            0
          ],
          [
            -99.16973,
            18.90738,
            0
          ],
          [
            -99.16943,
            18.90769,
            0
          ],
          [
            -99.16935,
            18.9078,
            0
          ],
          [
            -99.16923,
            18.90804,
            0
          ],
          [
            -99.16915,
            18.90825,
            0
          ],
          [
            -99.16912,
            18.90837,
            0
          ],
          [
            -99.16912,
            18.90842,
            0
          ],
          [
            -99.169,
            18.9095,
            0
          ],
          [
            -99.1688,
            18.91059,
            0
          ],
          [
            -99.16872,
            18.91113,
            0
          ],
          [
            -99.16872,
            18.91115,
            0
          ],
          [
            -99.16876,
            18.91125,
            0
          ],
          [
            -99.16879,
            18.91128,
            0
          ],
          [
            -99.16885,
            18.91131,
            0
          ],
          [
            -99.16885,
            18.91135,
            0
          ],
          [
            -99.16886,
            18.91137,
            0
          ],
          [
            -99.16887,
            18.91138,
            0
          ],
          [
            -99.16887,
            18.9114,
            0
          ],
          [
            -99.16888,
            18.91142,
            0
          ],
          [
            -99.16891,
            18.91145,
            0
          ],
          [
            -99.16836,
            18.912,
            0
          ],
          [
            -99.16799,
            18.91242,
            0
          ],
          [
            -99.16532,
            18.91526,
            0
          ],
          [
            -99.16528,
            18.91526,
            0
          ],
          [
            -99.16527,
            18.91525,
            0
          ],
          [
            -99.16525,
            18.91525,
            0
          ],
          [
            -99.16515,
            18.91527,
            0
          ],
          [
            -99.1651,
            18.91529,
            0
          ],
          [
            -99.16502,
            18.91535,
            0
          ],
          [
            -99.16498,
            18.91539,
            0
          ],
          [
            -99.16494,
            18.91548,
            0
          ],
          [
            -99.16492,
            18.91558,
            0
          ],
          [
            -99.16493,
            18.91565,
            0
          ],
          [
            -99.16494,
            18.91566,
            0
          ],
          [
            -99.16494,
            18.91567,
            0
          ],
          [
            -99.16496,
            18.91569,
            0
          ],
          [
            -99.16496,
            18.9157,
            0
          ],
          [
            -99.163,
            18.91779,
            0
          ],
          [
            -99.16311,
            18.91791,
            0
          ],
          [
            -99.16373,
            18.91844,
            0
          ],
          [
            -99.16378,
            18.91849,
            0
          ],
          [
            -99.16572,
            18.92006,
            0
          ],
          [
            -99.1659,
            18.92024,
            0
          ],
          [
            -99.16602,
            18.92033,
            0
          ],
          [
            -99.16698,
            18.92116,
            0
          ],
          [
            -99.16707,
            18.92125,
            0
          ],
          [
            -99.16754,
            18.92165,
            0
          ],
          [
            -99.16757,
            18.92166,
            0
          ]
        ]
      },
      "properties": {
        "name": "2. SECCION LOS ROBLES(CIVAC)-PUEBLO VIEJO(TEMIXCO)-SECCION LOS ROBLES(CIVAC)",
        "description": {
          "@type": "html",
          "value": "descripción: <br>OID: 554<br>ZONA: CENTRO<br>RUTA: RUTA 16<br>ITINERARIO: 2. SECCION LOS ROBLES(CIVAC)-PUEBLO VIEJO(TEMIXCO)-SECCION LOS ROBLES(CIVAC)<br>DESCRIPCIO: PUEBLO VIEJO (TEMIXCO)-SECCION LOS ROBLES (CIVAC)<br>AUTO-AMPL: ITINERARIO<br>DEFIN-PROV: DEFINITIVOS<br>DURACION: DEFINITIVA<br>FOLIO: SGG/DGT/SDP/000538/97"
        },
        "styleUrl": "#line-9C27B0-1200",
        "stroke-opacity": 1,
        "stroke": "#9c27b0",
        "stroke-width": 1.2,
        "descripción": "",
        "OID": "554",
        "ZONA": "CENTRO",
        "RUTA": "RUTA 16",
        "ITINERARIO": "2. SECCION LOS ROBLES(CIVAC)-PUEBLO VIEJO(TEMIXCO)-SECCION LOS ROBLES(CIVAC)",
        "DESCRIPCIO": "PUEBLO VIEJO (TEMIXCO)-SECCION LOS ROBLES (CIVAC)",
        "AUTO-AMPL": "ITINERARIO",
        "DEFIN-PROV": "DEFINITIVOS",
        "DURACION": "DEFINITIVA",
        "FOLIO": "SGG/DGT/SDP/000538/97"
      }
    },
    {
      "type": "Feature",
      "geometry": {
        "type": "LineString",
        "coordinates": [
          [
            -99.16764,
            18.92161,
            0
          ],
          [
            -99.16761,
            18.92157,
            0
          ],
          [
            -99.16716,
            18.92115,
            0
          ],
          [
            -99.16607,
            18.92024,
            0
          ],
          [
            -99.16598,
            18.92013,
            0
          ],
          [
            -99.16591,
            18.92007,
            0
          ],
          [
            -99.16582,
            18.91997,
            0
          ],
          [
            -99.16522,
            18.91948,
            0
          ],
          [
            -99.16489,
            18.91925,
            0
          ],
          [
            -99.16445,
            18.91888,
            0
          ],
          [
            -99.16422,
            18.91871,
            0
          ],
          [
            -99.1632,
            18.91781,
            0
          ],
          [
            -99.16366,
            18.91728,
            0
          ],
          [
            -99.16448,
            18.9164,
            0
          ],
          [
            -99.16508,
            18.91579,
            0
          ],
          [
            -99.16509,
            18.91579,
            0
          ],
          [
            -99.1651,
            18.9158,
            0
          ],
          [
            -99.16515,
            18.9158,
            0
          ],
          [
            -99.16516,
            18.91581,
            0
          ],
          [
            -99.16527,
            18.91577,
            0
          ],
          [
            -99.16532,
            18.91574,
            0
          ],
          [
            -99.16537,
            18.9157,
            0
          ],
          [
            -99.16543,
            18.91561,
            0
          ],
          [
            -99.16547,
            18.9155,
            0
          ],
          [
            -99.16547,
            18.91543,
            0
          ],
          [
            -99.16546,
            18.91542,
            0
          ],
          [
            -99.16546,
            18.9154,
            0
          ],
          [
            -99.16545,
            18.91539,
            0
          ],
          [
            -99.16545,
            18.91537,
            0
          ],
          [
            -99.16641,
            18.91432,
            0
          ],
          [
            -99.16642,
            18.9143,
            0
          ],
          [
            -99.169,
            18.91153,
            0
          ],
          [
            -99.16901,
            18.91154,
            0
          ],
          [
            -99.16903,
            18.91154,
            0
          ],
          [
            -99.16904,
            18.91155,
            0
          ],
          [
            -99.1692,
            18.91155,
            0
          ],
          [
            -99.16929,
            18.91152,
            0
          ],
          [
            -99.16935,
            18.91149,
            0
          ],
          [
            -99.16942,
            18.91144,
            0
          ],
          [
            -99.16945,
            18.91141,
            0
          ],
          [
            -99.16953,
            18.91127,
            0
          ],
          [
            -99.16951,
            18.91115,
            0
          ],
          [
            -99.16948,
            18.91111,
            0
          ],
          [
            -99.16946,
            18.91107,
            0
          ],
          [
            -99.16942,
            18.91104,
            0
          ],
          [
            -99.16939,
            18.91101,
            0
          ],
          [
            -99.1693,
            18.91096,
            0
          ],
          [
            -99.16925,
            18.91095,
            0
          ],
          [
            -99.1692,
            18.9106,
            0
          ],
          [
            -99.16913,
            18.91026,
            0
          ],
          [
            -99.16915,
            18.90978,
            0
          ],
          [
            -99.16933,
            18.9083,
            0
          ],
          [
            -99.1694,
            18.90807,
            0
          ],
          [
            -99.16952,
            18.90786,
            0
          ],
          [
            -99.16986,
            18.90746,
            0
          ],
          [
            -99.17131,
            18.90593,
            0
          ],
          [
            -99.17384,
            18.90315,
            0
          ],
          [
            -99.17399,
            18.903,
            0
          ],
          [
            -99.17427,
            18.90269,
            0
          ],
          [
            -99.17684,
            18.90521,
            0
          ],
          [
            -99.17689,
            18.90527,
            0
          ],
          [
            -99.17752,
            18.90591,
            0
          ],
          [
            -99.1776,
            18.90598,
            0
          ],
          [
            -99.1793,
            18.90766,
            0
          ],
          [
            -99.17946,
            18.90784,
            0
          ],
          [
            -99.17978,
            18.90816,
            0
          ],
          [
            -99.17997,
            18.90841,
            0
          ],
          [
            -99.18009,
            18.9086,
            0
          ],
          [
            -99.18017,
            18.90875,
            0
          ],
          [
            -99.18034,
            18.90915,
            0
          ],
          [
            -99.18092,
            18.91069,
            0
          ],
          [
            -99.18111,
            18.91111,
            0
          ],
          [
            -99.18135,
            18.91151,
            0
          ],
          [
            -99.18164,
            18.91187,
            0
          ],
          [
            -99.18385,
            18.91425,
            0
          ],
          [
            -99.18472,
            18.91512,
            0
          ],
          [
            -99.18571,
            18.916,
            0
          ],
          [
            -99.18637,
            18.91662,
            0
          ],
          [
            -99.18657,
            18.91679,
            0
          ],
          [
            -99.18657,
            18.9168,
            0
          ],
          [
            -99.18704,
            18.91721,
            0
          ],
          [
            -99.1873,
            18.91746,
            0
          ],
          [
            -99.18805,
            18.91811,
            0
          ],
          [
            -99.18821,
            18.91823,
            0
          ],
          [
            -99.18838,
            18.91834,
            0
          ],
          [
            -99.18896,
            18.91858,
            0
          ],
          [
            -99.19363,
            18.92,
            0
          ],
          [
            -99.19386,
            18.92004,
            0
          ],
          [
            -99.19397,
            18.92005,
            0
          ],
          [
            -99.19422,
            18.92005,
            0
          ],
          [
            -99.19459,
            18.91997,
            0
          ],
          [
            -99.1951,
            18.9198,
            0
          ],
          [
            -99.19558,
            18.91974,
            0
          ],
          [
            -99.19586,
            18.91973,
            0
          ],
          [
            -99.1961,
            18.91975,
            0
          ],
          [
            -99.19649,
            18.91981,
            0
          ],
          [
            -99.19723,
            18.91996,
            0
          ],
          [
            -99.19725,
            18.91996,
            0
          ],
          [
            -99.19749,
            18.92001,
            0
          ],
          [
            -99.19777,
            18.92009,
            0
          ],
          [
            -99.19778,
            18.9201,
            0
          ],
          [
            -99.19786,
            18.92012,
            0
          ],
          [
            -99.19787,
            18.92012,
            0
          ],
          [
            -99.19948,
            18.92079,
            0
          ],
          [
            -99.19955,
            18.92081,
            0
          ],
          [
            -99.19956,
            18.92082,
            0
          ],
          [
            -99.1998,
            18.92089,
            0
          ],
          [
            -99.19988,
            18.92092,
            0
          ],
          [
            -99.20018,
            18.92098,
            0
          ],
          [
            -99.20037,
            18.921,
            0
          ],
          [
            -99.20045,
            18.921,
            0
          ],
          [
            -99.2006,
            18.92102,
            0
          ],
          [
            -99.20141,
            18.92103,
            0
          ],
          [
            -99.20144,
            18.92102,
            0
          ],
          [
            -99.20241,
            18.92099,
            0
          ],
          [
            -99.20277,
            18.92101,
            0
          ],
          [
            -99.20293,
            18.92103,
            0
          ],
          [
            -99.20387,
            18.92126,
            0
          ],
          [
            -99.20411,
            18.92134,
            0
          ],
          [
            -99.2044,
            18.92148,
            0
          ],
          [
            -99.20445,
            18.92152,
            0
          ],
          [
            -99.2047,
            18.92162,
            0
          ],
          [
            -99.20476,
            18.92165,
            0
          ],
          [
            -99.205,
            18.92171,
            0
          ],
          [
            -99.2051,
            18.92171,
            0
          ],
          [
            -99.20529,
            18.92169,
            0
          ],
          [
            -99.20625,
            18.92166,
            0
          ],
          [
            -99.20705,
            18.92176,
            0
          ],
          [
            -99.20714,
            18.92178,
            0
          ],
          [
            -99.20739,
            18.92186,
            0
          ],
          [
            -99.20762,
            18.92196,
            0
          ],
          [
            -99.20785,
            18.9221,
            0
          ],
          [
            -99.20873,
            18.92282,
            0
          ],
          [
            -99.20887,
            18.9229,
            0
          ],
          [
            -99.20912,
            18.92302,
            0
          ],
          [
            -99.20938,
            18.92312,
            0
          ],
          [
            -99.20978,
            18.92323,
            0
          ],
          [
            -99.21013,
            18.92331,
            0
          ],
          [
            -99.21041,
            18.92334,
            0
          ],
          [
            -99.2108,
            18.92343,
            0
          ],
          [
            -99.21131,
            18.92357,
            0
          ],
          [
            -99.2118,
            18.92368,
            0
          ],
          [
            -99.21211,
            18.92378,
            0
          ],
          [
            -99.21318,
            18.92403,
            0
          ],
          [
            -99.21365,
            18.9241,
            0
          ],
          [
            -99.21399,
            18.92412,
            0
          ],
          [
            -99.21694,
            18.92414,
            0
          ],
          [
            -99.2201,
            18.92407,
            0
          ],
          [
            -99.22076,
            18.92409,
            0
          ],
          [
            -99.22106,
            18.92413,
            0
          ],
          [
            -99.22163,
            18.92428,
            0
          ],
          [
            -99.22793,
            18.92572,
            0
          ],
          [
            -99.2281,
            18.92578,
            0
          ],
          [
            -99.22824,
            18.92584,
            0
          ],
          [
            -99.22842,
            18.92594,
            0
          ],
          [
            -99.22864,
            18.92608,
            0
          ],
          [
            -99.22888,
            18.92628,
            0
          ],
          [
            -99.22908,
            18.92649,
            0
          ],
          [
            -99.22934,
            18.92681,
            0
          ],
          [
            -99.22951,
            18.92712,
            0
          ],
          [
            -99.22981,
            18.92784,
            0
          ],
          [
            -99.22983,
            18.92792,
            0
          ],
          [
            -99.23025,
            18.92895,
            0
          ],
          [
            -99.23043,
            18.92935,
            0
          ],
          [
            -99.23058,
            18.92977,
            0
          ],
          [
            -99.23069,
            18.93031,
            0
          ],
          [
            -99.23069,
            18.93038,
            0
          ],
          [
            -99.23071,
            18.93047,
            0
          ],
          [
            -99.23073,
            18.9307,
            0
          ],
          [
            -99.23064,
            18.93071,
            0
          ],
          [
            -99.23053,
            18.93075,
            0
          ],
          [
            -99.22967,
            18.93123,
            0
          ],
          [
            -99.22962,
            18.93124,
            0
          ],
          [
            -99.22959,
            18.93126,
            0
          ],
          [
            -99.22949,
            18.93127,
            0
          ],
          [
            -99.22934,
            18.9313,
            0
          ],
          [
            -99.22916,
            18.93132,
            0
          ],
          [
            -99.22906,
            18.93134,
            0
          ],
          [
            -99.22902,
            18.93136,
            0
          ],
          [
            -99.22899,
            18.93139,
            0
          ],
          [
            -99.22893,
            18.9315,
            0
          ],
          [
            -99.22876,
            18.93195,
            0
          ],
          [
            -99.22934,
            18.93226,
            0
          ],
          [
            -99.22966,
            18.93207,
            0
          ],
          [
            -99.22979,
            18.93205,
            0
          ],
          [
            -99.22985,
            18.93207,
            0
          ],
          [
            -99.23089,
            18.93208,
            0
          ],
          [
            -99.23173,
            18.93213,
            0
          ],
          [
            -99.23175,
            18.93212,
            0
          ],
          [
            -99.23177,
            18.93212,
            0
          ],
          [
            -99.23182,
            18.9321,
            0
          ],
          [
            -99.23196,
            18.9321,
            0
          ],
          [
            -99.23204,
            18.93209,
            0
          ],
          [
            -99.23228,
            18.93204,
            0
          ],
          [
            -99.23255,
            18.93205,
            0
          ],
          [
            -99.23267,
            18.9319,
            0
          ],
          [
            -99.23273,
            18.93185,
            0
          ],
          [
            -99.2328,
            18.93181,
            0
          ],
          [
            -99.23316,
            18.93154,
            0
          ],
          [
            -99.23328,
            18.93149,
            0
          ],
          [
            -99.2335,
            18.93144,
            0
          ],
          [
            -99.23357,
            18.93144,
            0
          ],
          [
            -99.23365,
            18.93146,
            0
          ],
          [
            -99.23375,
            18.9315,
            0
          ],
          [
            -99.23385,
            18.93158,
            0
          ],
          [
            -99.23394,
            18.93168,
            0
          ],
          [
            -99.23396,
            18.93173,
            0
          ],
          [
            -99.23409,
            18.93195,
            0
          ],
          [
            -99.23415,
            18.93207,
            0
          ],
          [
            -99.23417,
            18.9321,
            0
          ],
          [
            -99.2342,
            18.93213,
            0
          ],
          [
            -99.23426,
            18.93217,
            0
          ],
          [
            -99.23432,
            18.9322,
            0
          ],
          [
            -99.23435,
            18.93221,
            0
          ],
          [
            -99.23445,
            18.93223,
            0
          ],
          [
            -99.23456,
            18.93224,
            0
          ],
          [
            -99.23471,
            18.93221,
            0
          ],
          [
            -99.23484,
            18.93216,
            0
          ],
          [
            -99.23496,
            18.93209,
            0
          ],
          [
            -99.23501,
            18.93204,
            0
          ],
          [
            -99.23507,
            18.93196,
            0
          ],
          [
            -99.23509,
            18.93192,
            0
          ],
          [
            -99.2351,
            18.93189,
            0
          ],
          [
            -99.2351,
            18.93182,
            0
          ],
          [
            -99.23501,
            18.93064,
            0
          ],
          [
            -99.23504,
            18.93027,
            0
          ],
          [
            -99.23512,
            18.92986,
            0
          ],
          [
            -99.23513,
            18.92976,
            0
          ],
          [
            -99.23513,
            18.92958,
            0
          ],
          [
            -99.23506,
            18.9291,
            0
          ],
          [
            -99.23504,
            18.92901,
            0
          ],
          [
            -99.23504,
            18.92891,
            0
          ],
          [
            -99.23506,
            18.92879,
            0
          ],
          [
            -99.23508,
            18.92874,
            0
          ],
          [
            -99.23513,
            18.92866,
            0
          ],
          [
            -99.23521,
            18.92859,
            0
          ],
          [
            -99.23537,
            18.92854,
            0
          ],
          [
            -99.23543,
            18.92854,
            0
          ],
          [
            -99.2355,
            18.92851,
            0
          ],
          [
            -99.23554,
            18.92853,
            0
          ],
          [
            -99.23555,
            18.92853,
            0
          ],
          [
            -99.23568,
            18.92863,
            0
          ],
          [
            -99.23574,
            18.92869,
            0
          ],
          [
            -99.23612,
            18.9292,
            0
          ],
          [
            -99.23626,
            18.92933,
            0
          ],
          [
            -99.23655,
            18.92956,
            0
          ],
          [
            -99.23711,
            18.9299,
            0
          ],
          [
            -99.23716,
            18.92991,
            0
          ],
          [
            -99.2373,
            18.92991,
            0
          ],
          [
            -99.23737,
            18.92989,
            0
          ],
          [
            -99.23754,
            18.92997,
            0
          ],
          [
            -99.23767,
            18.92983,
            0
          ],
          [
            -99.23773,
            18.92964,
            0
          ],
          [
            -99.23785,
            18.92946,
            0
          ],
          [
            -99.23784,
            18.92936,
            0
          ],
          [
            -99.23782,
            18.92927,
            0
          ],
          [
            -99.2378,
            18.92923,
            0
          ],
          [
            -99.23749,
            18.92898,
            0
          ],
          [
            -99.23741,
            18.9289,
            0
          ],
          [
            -99.23739,
            18.92887,
            0
          ],
          [
            -99.23738,
            18.92881,
            0
          ],
          [
            -99.23729,
            18.92748,
            0
          ],
          [
            -99.23735,
            18.92718,
            0
          ],
          [
            -99.23744,
            18.92697,
            0
          ],
          [
            -99.23739,
            18.9268,
            0
          ],
          [
            -99.2369,
            18.92574,
            0
          ],
          [
            -99.23684,
            18.92552,
            0
          ],
          [
            -99.2367,
            18.92489,
            0
          ],
          [
            -99.23656,
            18.92437,
            0
          ],
          [
            -99.23651,
            18.92426,
            0
          ],
          [
            -99.23561,
            18.92287,
            0
          ],
          [
            -99.23543,
            18.92267,
            0
          ],
          [
            -99.23532,
            18.92258,
            0
          ],
          [
            -99.23512,
            18.92113,
            0
          ],
          [
            -99.2351,
            18.92083,
            0
          ],
          [
            -99.23508,
            18.91889,
            0
          ],
          [
            -99.23511,
            18.91889,
            0
          ],
          [
            -99.23504,
            18.91577,
            0
          ],
          [
            -99.23488,
            18.91425,
            0
          ],
          [
            -99.23468,
            18.91353,
            0
          ],
          [
            -99.2346,
            18.91332,
            0
          ],
          [
            -99.23449,
            18.91311,
            0
          ],
          [
            -99.23434,
            18.9129,
            0
          ],
          [
            -99.23381,
            18.912,
            0
          ],
          [
            -99.23356,
            18.91152,
            0
          ],
          [
            -99.23313,
            18.91054,
            0
          ],
          [
            -99.23263,
            18.90919,
            0
          ],
          [
            -99.23249,
            18.90872,
            0
          ],
          [
            -99.23242,
            18.90853,
            0
          ],
          [
            -99.23217,
            18.9076,
            0
          ],
          [
            -99.2321,
            18.90707,
            0
          ],
          [
            -99.23219,
            18.90703,
            0
          ],
          [
            -99.23208,
            18.90682,
            0
          ],
          [
            -99.23206,
            18.90672,
            0
          ],
          [
            -99.23204,
            18.90666,
            0
          ],
          [
            -99.23193,
            18.90601,
            0
          ],
          [
            -99.23187,
            18.90573,
            0
          ],
          [
            -99.23168,
            18.90438,
            0
          ],
          [
            -99.23141,
            18.90127,
            0
          ],
          [
            -99.23105,
            18.89993,
            0
          ],
          [
            -99.23033,
            18.89782,
            0
          ],
          [
            -99.22911,
            18.89519,
            0
          ],
          [
            -99.2291,
            18.89518,
            0
          ],
          [
            -99.22836,
            18.8935,
            0
          ],
          [
            -99.22836,
            18.89345,
            0
          ],
          [
            -99.22832,
            18.8933,
            0
          ],
          [
            -99.22832,
            18.89325,
            0
          ],
          [
            -99.2283,
            18.89318,
            0
          ],
          [
            -99.22818,
            18.89289,
            0
          ],
          [
            -99.22804,
            18.89234,
            0
          ],
          [
            -99.22797,
            18.89194,
            0
          ],
          [
            -99.22795,
            18.89168,
            0
          ],
          [
            -99.22796,
            18.89142,
            0
          ],
          [
            -99.22798,
            18.89127,
            0
          ],
          [
            -99.22804,
            18.89099,
            0
          ],
          [
            -99.22803,
            18.89094,
            0
          ],
          [
            -99.22803,
            18.89089,
            0
          ],
          [
            -99.22801,
            18.89081,
            0
          ],
          [
            -99.22825,
            18.89013,
            0
          ],
          [
            -99.22843,
            18.88976,
            0
          ],
          [
            -99.22862,
            18.88941,
            0
          ],
          [
            -99.22895,
            18.88854,
            0
          ],
          [
            -99.22923,
            18.88787,
            0
          ],
          [
            -99.22936,
            18.88752,
            0
          ],
          [
            -99.22943,
            18.88737,
            0
          ],
          [
            -99.22966,
            18.88675,
            0
          ],
          [
            -99.22968,
            18.88662,
            0
          ],
          [
            -99.22968,
            18.8866,
            0
          ],
          [
            -99.23,
            18.88588,
            0
          ],
          [
            -99.23014,
            18.88545,
            0
          ],
          [
            -99.23019,
            18.88516,
            0
          ],
          [
            -99.23022,
            18.88478,
            0
          ],
          [
            -99.23016,
            18.88432,
            0
          ],
          [
            -99.23006,
            18.88386,
            0
          ],
          [
            -99.22987,
            18.88267,
            0
          ],
          [
            -99.22982,
            18.88222,
            0
          ],
          [
            -99.22987,
            18.88135,
            0
          ],
          [
            -99.22987,
            18.88117,
            0
          ],
          [
            -99.22983,
            18.88062,
            0
          ],
          [
            -99.22978,
            18.88017,
            0
          ],
          [
            -99.22971,
            18.87984,
            0
          ],
          [
            -99.2296,
            18.87958,
            0
          ],
          [
            -99.22915,
            18.87827,
            0
          ],
          [
            -99.2291,
            18.87807,
            0
          ],
          [
            -99.22908,
            18.87794,
            0
          ],
          [
            -99.22908,
            18.87791,
            0
          ],
          [
            -99.22907,
            18.87785,
            0
          ],
          [
            -99.22906,
            18.87769,
            0
          ],
          [
            -99.22906,
            18.87727,
            0
          ],
          [
            -99.22904,
            18.87717,
            0
          ],
          [
            -99.22898,
            18.87701,
            0
          ],
          [
            -99.22888,
            18.8768,
            0
          ],
          [
            -99.22822,
            18.87608,
            0
          ],
          [
            -99.22803,
            18.87579,
            0
          ],
          [
            -99.22776,
            18.87544,
            0
          ],
          [
            -99.22742,
            18.87491,
            0
          ],
          [
            -99.22732,
            18.87468,
            0
          ],
          [
            -99.22726,
            18.87429,
            0
          ],
          [
            -99.22724,
            18.87407,
            0
          ],
          [
            -99.2272,
            18.87385,
            0
          ],
          [
            -99.22707,
            18.87362,
            0
          ],
          [
            -99.22694,
            18.8735,
            0
          ],
          [
            -99.22673,
            18.87327,
            0
          ],
          [
            -99.22667,
            18.87319,
            0
          ],
          [
            -99.22656,
            18.8729,
            0
          ],
          [
            -99.22654,
            18.87275,
            0
          ],
          [
            -99.22648,
            18.87252,
            0
          ],
          [
            -99.22644,
            18.87218,
            0
          ],
          [
            -99.2265,
            18.8719,
            0
          ],
          [
            -99.2266,
            18.87161,
            0
          ],
          [
            -99.22683,
            18.87111,
            0
          ],
          [
            -99.22687,
            18.871,
            0
          ],
          [
            -99.2269,
            18.87078,
            0
          ],
          [
            -99.2269,
            18.87071,
            0
          ],
          [
            -99.22685,
            18.87056,
            0
          ],
          [
            -99.22684,
            18.87051,
            0
          ],
          [
            -99.22676,
            18.8704,
            0
          ],
          [
            -99.22633,
            18.86994,
            0
          ],
          [
            -99.22624,
            18.86982,
            0
          ],
          [
            -99.22618,
            18.86953,
            0
          ],
          [
            -99.22622,
            18.86939,
            0
          ],
          [
            -99.22625,
            18.86933,
            0
          ],
          [
            -99.22635,
            18.86917,
            0
          ],
          [
            -99.22639,
            18.86916,
            0
          ],
          [
            -99.22641,
            18.86914,
            0
          ],
          [
            -99.22644,
            18.86912,
            0
          ],
          [
            -99.22647,
            18.86909,
            0
          ],
          [
            -99.22649,
            18.86906,
            0
          ],
          [
            -99.22659,
            18.86895,
            0
          ],
          [
            -99.22671,
            18.86885,
            0
          ],
          [
            -99.22685,
            18.86868,
            0
          ],
          [
            -99.22713,
            18.86822,
            0
          ],
          [
            -99.22732,
            18.86783,
            0
          ],
          [
            -99.22735,
            18.86773,
            0
          ],
          [
            -99.22737,
            18.8676,
            0
          ],
          [
            -99.22737,
            18.86746,
            0
          ],
          [
            -99.22735,
            18.86728,
            0
          ],
          [
            -99.2273,
            18.86715,
            0
          ],
          [
            -99.22722,
            18.86701,
            0
          ],
          [
            -99.22711,
            18.86687,
            0
          ],
          [
            -99.2268,
            18.86654,
            0
          ],
          [
            -99.22586,
            18.86545,
            0
          ],
          [
            -99.22549,
            18.86505,
            0
          ],
          [
            -99.22469,
            18.86411,
            0
          ],
          [
            -99.22464,
            18.86403,
            0
          ],
          [
            -99.2246,
            18.86391,
            0
          ],
          [
            -99.22458,
            18.86382,
            0
          ],
          [
            -99.22457,
            18.86369,
            0
          ],
          [
            -99.22458,
            18.8636,
            0
          ],
          [
            -99.22461,
            18.86352,
            0
          ],
          [
            -99.22513,
            18.86262,
            0
          ],
          [
            -99.22521,
            18.8624,
            0
          ],
          [
            -99.22524,
            18.86214,
            0
          ],
          [
            -99.22523,
            18.8619,
            0
          ],
          [
            -99.2252,
            18.86178,
            0
          ],
          [
            -99.22509,
            18.8615,
            0
          ],
          [
            -99.22476,
            18.86085,
            0
          ],
          [
            -99.22463,
            18.86062,
            0
          ],
          [
            -99.22434,
            18.86019,
            0
          ],
          [
            -99.22399,
            18.85971,
            0
          ],
          [
            -99.22385,
            18.85946,
            0
          ],
          [
            -99.2238,
            18.85932,
            0
          ],
          [
            -99.22376,
            18.85915,
            0
          ],
          [
            -99.22375,
            18.85902,
            0
          ],
          [
            -99.22376,
            18.85865,
            0
          ],
          [
            -99.22379,
            18.85849,
            0
          ],
          [
            -99.22385,
            18.85829,
            0
          ],
          [
            -99.22401,
            18.8579,
            0
          ],
          [
            -99.22404,
            18.8578,
            0
          ],
          [
            -99.22425,
            18.85727,
            0
          ],
          [
            -99.22484,
            18.85487,
            0
          ],
          [
            -99.22486,
            18.85464,
            0
          ],
          [
            -99.22486,
            18.85453,
            0
          ],
          [
            -99.22485,
            18.85441,
            0
          ],
          [
            -99.22465,
            18.85318,
            0
          ],
          [
            -99.22471,
            18.85314,
            0
          ],
          [
            -99.22472,
            18.85313,
            0
          ],
          [
            -99.22474,
            18.8531,
            0
          ],
          [
            -99.22477,
            18.853,
            0
          ],
          [
            -99.22489,
            18.85203,
            0
          ],
          [
            -99.22492,
            18.85164,
            0
          ],
          [
            -99.22499,
            18.8513,
            0
          ],
          [
            -99.22501,
            18.85125,
            0
          ],
          [
            -99.22511,
            18.85115,
            0
          ],
          [
            -99.22523,
            18.85105,
            0
          ],
          [
            -99.22537,
            18.85096,
            0
          ],
          [
            -99.22561,
            18.85077,
            0
          ],
          [
            -99.22603,
            18.85048,
            0
          ],
          [
            -99.22684,
            18.85014,
            0
          ],
          [
            -99.22718,
            18.84998,
            0
          ],
          [
            -99.22727,
            18.84992,
            0
          ],
          [
            -99.22734,
            18.84993,
            0
          ],
          [
            -99.22737,
            18.84994,
            0
          ],
          [
            -99.22746,
            18.84994,
            0
          ],
          [
            -99.22749,
            18.84993,
            0
          ],
          [
            -99.22752,
            18.84991,
            0
          ],
          [
            -99.22765,
            18.84979,
            0
          ],
          [
            -99.22775,
            18.84968,
            0
          ],
          [
            -99.22783,
            18.84957,
            0
          ],
          [
            -99.22813,
            18.84933,
            0
          ],
          [
            -99.22831,
            18.84922,
            0
          ],
          [
            -99.22869,
            18.84906,
            0
          ],
          [
            -99.22879,
            18.84903,
            0
          ],
          [
            -99.22971,
            18.84885,
            0
          ],
          [
            -99.22994,
            18.84882,
            0
          ],
          [
            -99.23001,
            18.84882,
            0
          ],
          [
            -99.23008,
            18.84881,
            0
          ],
          [
            -99.23012,
            18.84879,
            0
          ],
          [
            -99.23015,
            18.84878,
            0
          ],
          [
            -99.23025,
            18.84862,
            0
          ],
          [
            -99.23035,
            18.84853,
            0
          ],
          [
            -99.23049,
            18.84843,
            0
          ],
          [
            -99.23086,
            18.84811,
            0
          ],
          [
            -99.23105,
            18.84789,
            0
          ],
          [
            -99.23114,
            18.84771,
            0
          ],
          [
            -99.23121,
            18.84754,
            0
          ],
          [
            -99.23158,
            18.84677,
            0
          ],
          [
            -99.23162,
            18.84667,
            0
          ],
          [
            -99.23289,
            18.8445,
            0
          ],
          [
            -99.2333,
            18.84375,
            0
          ],
          [
            -99.23379,
            18.84295,
            0
          ],
          [
            -99.23388,
            18.84284,
            0
          ],
          [
            -99.23403,
            18.84271,
            0
          ],
          [
            -99.23427,
            18.84253,
            0
          ],
          [
            -99.2343,
            18.84252,
            0
          ],
          [
            -99.23456,
            18.84239,
            0
          ],
          [
            -99.23475,
            18.84233,
            0
          ],
          [
            -99.2348,
            18.84264,
            0
          ],
          [
            -99.23493,
            18.84373,
            0
          ],
          [
            -99.23494,
            18.84388,
            0
          ],
          [
            -99.23518,
            18.84578,
            0
          ],
          [
            -99.2353,
            18.84655,
            0
          ],
          [
            -99.23554,
            18.84734,
            0
          ],
          [
            -99.23578,
            18.84803,
            0
          ],
          [
            -99.23578,
            18.84804,
            0
          ],
          [
            -99.23816,
            18.85532,
            0
          ],
          [
            -99.23882,
            18.85749,
            0
          ],
          [
            -99.23897,
            18.85807,
            0
          ],
          [
            -99.23937,
            18.85939,
            0
          ],
          [
            -99.24049,
            18.86183,
            0
          ],
          [
            -99.24124,
            18.86364,
            0
          ],
          [
            -99.24148,
            18.86428,
            0
          ],
          [
            -99.2432,
            18.86847,
            0
          ],
          [
            -99.24323,
            18.86852,
            0
          ],
          [
            -99.24328,
            18.86858,
            0
          ],
          [
            -99.24335,
            18.86863,
            0
          ],
          [
            -99.24339,
            18.86863,
            0
          ],
          [
            -99.24341,
            18.86865,
            0
          ],
          [
            -99.24454,
            18.86911,
            0
          ],
          [
            -99.24461,
            18.86915,
            0
          ],
          [
            -99.24467,
            18.86924,
            0
          ],
          [
            -99.24519,
            18.87037,
            0
          ],
          [
            -99.25107,
            18.8679,
            0
          ],
          [
            -99.25142,
            18.86778,
            0
          ]
        ]
      },
      "properties": {
        "name": "2. SECCION LOS ROBLES(CIVAC)-PUEBLO VIEJO(TEMIXCO)-SECCION LOS ROBLES(CIVAC)",
        "description": {
          "@type": "html",
          "value": "descripción: <br>OID: 572<br>ZONA: CENTRO<br>RUTA: RUTA 16<br>ITINERARIO: 2. SECCION LOS ROBLES(CIVAC)-PUEBLO VIEJO(TEMIXCO)-SECCION LOS ROBLES(CIVAC)<br>DESCRIPCIO: SECCION LOS ROBLES (CIVAC)-PUEBLO VIEJO(TEMIXCO)<br>AUTO-AMPL: ITINERARIO<br>DEFIN-PROV: DEFINITIVOS<br>DURACION: DEFINITIVA<br>FOLIO: SGG/DGT/SDP/000538/97"
        },
        "styleUrl": "#line-C2185B-1200",
        "stroke-opacity": 1,
        "stroke": "#c2185b",
        "stroke-width": 1.2,
        "descripción": "",
        "OID": "572",
        "ZONA": "CENTRO",
        "RUTA": "RUTA 16",
        "ITINERARIO": "2. SECCION LOS ROBLES(CIVAC)-PUEBLO VIEJO(TEMIXCO)-SECCION LOS ROBLES(CIVAC)",
        "DESCRIPCIO": "SECCION LOS ROBLES (CIVAC)-PUEBLO VIEJO(TEMIXCO)",
        "AUTO-AMPL": "ITINERARIO",
        "DEFIN-PROV": "DEFINITIVOS",
        "DURACION": "DEFINITIVA",
        "FOLIO": "SGG/DGT/SDP/000538/97"
      }
    }
  ]
}